{"type":"FeatureCollection","features":[{"type":"Feature","properties":{},"geometry":{"geodesic":false,"type":"Polygon","coordinates":[[[6.94609,4.77617],[6.9469,4.77617],[6.9469,4.77697],[6.94609,4.77697],[6.94609,4.7794],[6.94528,4.7794],[6.94528,4.78183],[6.94447,4.78183],[6.94447,4.78263],[6.94609,4.78263],[6.94609,4.78344],[6.94771,4.78344],[6.94771,4.78263],[6.94852,4.78263],[6.94852,4.78344],[6.95094,4.78344],[6.95094,4.78587],[6.95013,4.78587],[6.95013,4.78748],[6.94932,4.78748],[6.94932,4.7891],[6.94852,4.7891],[6.94852,4.78991],[6.94771,4.78991],[6.94771,4.7891],[6.94852,4.7891],[6.94852,4.78748],[6.94932,4.78748],[6.94932,4.78587],[6.95013,4.78587],[6.95013,4.78425],[6.94609,4.78425],[6.94609,4.78344],[6.94447,4.78344],[6.94447,4.78587],[6.94367,4.78587],[6.94367,4.78183],[6.94447,4.78183],[6.94447,4.7794],[6.94528,4.7794],[6.94528,4.77697],[6.94609,4.77697],[6.94609,4.77617]]]}},{"type":"Feature","properties":{},"geometry":{"geodesic":false,"type":"Polygon","coordinates":[[[6.95903,4.81255],[6.95983,4.81255],[6.95983,4.81336],[6.96064,4.81336],[6.96064,4.81497],[6.96145,4.81497],[6.96145,4.81659],[6.96064,4.81659],[6.96064,4.81497],[6.95983,4.81497],[6.95983,4.81336],[6.95903,4.81336],[6.95903,4.81255]]]}},{"type":"Feature","properties":{},"geometry":{"geodesic":false,"type":"Polygon","coordinates":[[[6.9946,4.73817],[6.99541,4.73817],[6.99541,4.73898],[6.9946,4.73898],[6.9946,4.73978],[6.99217,4.73978],[6.99217,4.73898],[6.9946,4.73898],[6.9946,4.73817]]]}},{"type":"Feature","properties":{},"geometry":{"geodesic":false,"type":"Polygon","coordinates":[[[7.00107,4.83761],[7.00188,4.83761],[7.00188,4.83842],[7.00107,4.83842],[7.00107,4.83761]]]}},{"type":"Feature","properties":{},"geometry":{"geodesic":false,"type":"Polygon","coordinates":[[[7.00996,4.7317],[7.01158,4.7317],[7.01158,4.73332],[7.01077,4.73332],[7.01077,4.73412],[7.00996,4.73412],[7.00996,4.73574],[7.01077,4.73574],[7.01077,4.73655],[7.01158,4.73655],[7.01158,4.73736],[7.01239,4.73736],[7.01239,4.74544],[7.01158,4.74544],[7.01158,4.74787],[7.01239,4.74787],[7.01239,4.74949],[7.01319,4.74949],[7.01319,4.75029],[7.014,4.75029],[7.014,4.7511],[7.01643,4.7511],[7.01643,4.75191],[7.01724,4.75191],[7.01724,4.75272],[7.01885,4.75272],[7.01885,4.75353],[7.02047,4.75353],[7.02047,4.75434],[7.0229,4.75434],[7.0229,4.75515],[7.02451,4.75515],[7.02451,4.75595],[7.02936,4.75595],[7.02936,4.75515],[7.03017,4.75515],[7.03017,4.75434],[7.03098,4.75434],[7.03098,4.75515],[7.03017,4.75515],[7.03017,4.75595],[7.02936,4.75595],[7.02936,4.75676],[7.02451,4.75676],[7.02451,4.75595],[7.0229,4.75595],[7.0229,4.75515],[7.02047,4.75515],[7.02047,4.75434],[7.01885,4.75434],[7.01885,4.75353],[7.01724,4.75353],[7.01724,4.75272],[7.01643,4.75272],[7.01643,4.75191],[7.014,4.75191],[7.014,4.7511],[7.01319,4.7511],[7.01319,4.75029],[7.01239,4.75029],[7.01239,4.7511],[7.01158,4.7511],[7.01158,4.75191],[7.01077,4.75191],[7.01077,4.75353],[7.01158,4.75353],[7.01158,4.75434],[7.01239,4.75434],[7.01239,4.75515],[7.01158,4.75515],[7.01158,4.75434],[7.01077,4.75434],[7.01077,4.75353],[7.00996,4.75353],[7.00996,4.75191],[7.01077,4.75191],[7.01077,4.7511],[7.01158,4.7511],[7.01158,4.75029],[7.01239,4.75029],[7.01239,4.74949],[7.01158,4.74949],[7.01158,4.74787],[7.01077,4.74787],[7.01077,4.74544],[7.01158,4.74544],[7.01158,4.73736],[7.01077,4.73736],[7.01077,4.73655],[7.00996,4.73655],[7.00996,4.73574],[7.00673,4.73574],[7.00673,4.73655],[7.00592,4.73655],[7.00592,4.73736],[7.00511,4.73736],[7.00511,4.73817],[7.0043,4.73817],[7.0043,4.73898],[7.00349,4.73898],[7.00349,4.7414],[7.00268,4.7414],[7.00268,4.74302],[7.00188,4.74302],[7.00188,4.75272],[7.00268,4.75272],[7.00268,4.75838],[7.00349,4.75838],[7.00349,4.76242],[7.0043,4.76242],[7.0043,4.76404],[7.00511,4.76404],[7.00511,4.76566],[7.00592,4.76566],[7.00592,4.76727],[7.00673,4.76727],[7.00673,4.76808],[7.00754,4.76808],[7.00754,4.77051],[7.00915,4.77051],[7.00915,4.77212],[7.00754,4.77212],[7.00754,4.77293],[7.00673,4.77293],[7.00673,4.77374],[7.00268,4.77374],[7.00268,4.77293],[7.00026,4.77293],[7.00026,4.77212],[6.99864,4.77212],[6.99864,4.77293],[6.99783,4.77293],[6.99783,4.77455],[6.99703,4.77455],[6.99703,4.77778],[6.99622,4.77778],[6.99622,4.7794],[6.99783,4.7794],[6.99783,4.78102],[6.99864,4.78102],[6.99864,4.78263],[7.00026,4.78263],[7.00026,4.78344],[6.99864,4.78344],[6.99864,4.78263],[6.99783,4.78263],[6.99783,4.78102],[6.99703,4.78102],[6.99703,4.78021],[6.99622,4.78021],[6.99622,4.7794],[6.99379,4.7794],[6.99379,4.77859],[6.99217,4.77859],[6.99217,4.78021],[6.99137,4.78021],[6.99137,4.78102],[6.99056,4.78102],[6.99056,4.78263],[6.98975,4.78263],[6.98975,4.78506],[6.98894,4.78506],[6.98894,4.78829],[6.98732,4.78829],[6.98732,4.78748],[6.98651,4.78748],[6.98651,4.78587],[6.98571,4.78587],[6.98571,4.78748],[6.9849,4.78748],[6.9849,4.78829],[6.98409,4.78829],[6.98409,4.7891],[6.98328,4.7891],[6.98328,4.78829],[6.98409,4.78829],[6.98409,4.78748],[6.9849,4.78748],[6.9849,4.78587],[6.98571,4.78587],[6.98571,4.78506],[6.98732,4.78506],[6.98732,4.78748],[6.98813,4.78748],[6.98813,4.78506],[6.98894,4.78506],[6.98894,4.78263],[6.98975,4.78263],[6.98975,4.78102],[6.99056,4.78102],[6.99056,4.78021],[6.99137,4.78021],[6.99137,4.77859],[6.99217,4.77859],[6.99217,4.77778],[6.99379,4.77778],[6.99379,4.77859],[6.99541,4.77859],[6.99541,4.77778],[6.99622,4.77778],[6.99622,4.77455],[6.99703,4.77455],[6.99703,4.77293],[6.99783,4.77293],[6.99783,4.77212],[6.99864,4.77212],[6.99864,4.77131],[6.99703,4.77131],[6.99703,4.77051],[6.9946,4.77051],[6.9946,4.7697],[6.99217,4.7697],[6.99217,4.76889],[6.98975,4.76889],[6.98975,4.76808],[6.98894,4.76808],[6.98894,4.76727],[6.98813,4.76727],[6.98813,4.77131],[6.98894,4.77131],[6.98894,4.77212],[6.98813,4.77212],[6.98813,4.77293],[6.98732,4.77293],[6.98732,4.77374],[6.9849,4.77374],[6.9849,4.77293],[6.98005,4.77293],[6.98005,4.77374],[6.97843,4.77374],[6.97843,4.77455],[6.97762,4.77455],[6.97762,4.77536],[6.97681,4.77536],[6.97681,4.77617],[6.976,4.77617],[6.976,4.77697],[6.9752,4.77697],[6.9752,4.77778],[6.97439,4.77778],[6.97439,4.77859],[6.97358,4.77859],[6.97358,4.7794],[6.97277,4.7794],[6.97277,4.78183],[6.97358,4.78183],[6.97358,4.79234],[6.97277,4.79234],[6.97277,4.79314],[6.97196,4.79314],[6.97196,4.79476],[6.97358,4.79476],[6.97358,4.79557],[6.97439,4.79557],[6.97439,4.79638],[6.9752,4.79638],[6.9752,4.79719],[6.976,4.79719],[6.976,4.79799],[6.97681,4.79799],[6.97681,4.79961],[6.97843,4.79961],[6.97843,4.7988],[6.97924,4.7988],[6.97924,4.79961],[6.97843,4.79961],[6.97843,4.80042],[6.97681,4.80042],[6.97681,4.79961],[6.976,4.79961],[6.976,4.79799],[6.9752,4.79799],[6.9752,4.79719],[6.97439,4.79719],[6.97439,4.79638],[6.97358,4.79638],[6.97358,4.79557],[6.97115,4.79557],[6.97115,4.79719],[6.97035,4.79719],[6.97035,4.7988],[6.97115,4.7988],[6.97115,4.79961],[6.97035,4.79961],[6.97035,4.80123],[6.96954,4.80123],[6.96954,4.80204],[6.96873,4.80204],[6.96873,4.80123],[6.96711,4.80123],[6.96711,4.80204],[6.9663,4.80204],[6.9663,4.80365],[6.96469,4.80365],[6.96469,4.80446],[6.96388,4.80446],[6.96388,4.80608],[6.96469,4.80608],[6.96469,4.80689],[6.96388,4.80689],[6.96388,4.81093],[6.96469,4.81093],[6.96469,4.81174],[6.9663,4.81174],[6.9663,4.81255],[6.96792,4.81255],[6.96792,4.81336],[6.96954,4.81336],[6.96954,4.81497],[6.96873,4.81497],[6.96873,4.8174],[6.96792,4.8174],[6.96792,4.81902],[6.96711,4.81902],[6.96711,4.82144],[6.9663,4.82144],[6.9663,4.81902],[6.96711,4.81902],[6.96711,4.8174],[6.96792,4.8174],[6.96792,4.81336],[6.9663,4.81336],[6.9663,4.81255],[6.96469,4.81255],[6.96469,4.81174],[6.96388,4.81174],[6.96388,4.81093],[6.96307,4.81093],[6.96307,4.80689],[6.96388,4.80689],[6.96388,4.80608],[6.96226,4.80608],[6.96226,4.80527],[6.96064,4.80527],[6.96064,4.80608],[6.95903,4.80608],[6.95903,4.80851],[6.95822,4.80851],[6.95822,4.80608],[6.95903,4.80608],[6.95903,4.80527],[6.96064,4.80527],[6.96064,4.80365],[6.96145,4.80365],[6.96145,4.80446],[6.96226,4.80446],[6.96226,4.80527],[6.96307,4.80527],[6.96307,4.80365],[6.96469,4.80365],[6.96469,4.80285],[6.96549,4.80285],[6.96549,4.80204],[6.9663,4.80204],[6.9663,4.80123],[6.96711,4.80123],[6.96711,4.80042],[6.96873,4.80042],[6.96873,4.80123],[6.96954,4.80123],[6.96954,4.79961],[6.97035,4.79961],[6.97035,4.7988],[6.96954,4.7988],[6.96954,4.79719],[6.97035,4.79719],[6.97035,4.79557],[6.97115,4.79557],[6.97115,4.79314],[6.97196,4.79314],[6.97196,4.79234],[6.97277,4.79234],[6.97277,4.78425],[6.97035,4.78425],[6.97035,4.78344],[6.96792,4.78344],[6.96792,4.78425],[6.9663,4.78425],[6.9663,4.78506],[6.96388,4.78506],[6.96388,4.78587],[6.96307,4.78587],[6.96307,4.78748],[6.96226,4.78748],[6.96226,4.7891],[6.96145,4.7891],[6.96145,4.79072],[6.96064,4.79072],[6.96064,4.79234],[6.95983,4.79234],[6.95983,4.79072],[6.96064,4.79072],[6.96064,4.78829],[6.96145,4.78829],[6.96145,4.78748],[6.96226,4.78748],[6.96226,4.78587],[6.96307,4.78587],[6.96307,4.78506],[6.96388,4.78506],[6.96388,4.78425],[6.9663,4.78425],[6.9663,4.78344],[6.96792,4.78344],[6.96792,4.78263],[6.97035,4.78263],[6.97035,4.78344],[6.97277,4.78344],[6.97277,4.78183],[6.97196,4.78183],[6.97196,4.7794],[6.97277,4.7794],[6.97277,4.77859],[6.97358,4.77859],[6.97358,4.77778],[6.97439,4.77778],[6.97439,4.77697],[6.9752,4.77697],[6.9752,4.77617],[6.976,4.77617],[6.976,4.77536],[6.97681,4.77536],[6.97681,4.77455],[6.97762,4.77455],[6.97762,4.77374],[6.97843,4.77374],[6.97843,4.77293],[6.97762,4.77293],[6.97762,4.77212],[6.97681,4.77212],[6.97681,4.77051],[6.976,4.77051],[6.976,4.76727],[6.97681,4.76727],[6.97681,4.77051],[6.97762,4.77051],[6.97762,4.77212],[6.97843,4.77212],[6.97843,4.77293],[6.98005,4.77293],[6.98005,4.77212],[6.9849,4.77212],[6.9849,4.77293],[6.98732,4.77293],[6.98732,4.77212],[6.98813,4.77212],[6.98813,4.77131],[6.98732,4.77131],[6.98732,4.76646],[6.98651,4.76646],[6.98651,4.76566],[6.98571,4.76566],[6.98571,4.76485],[6.9849,4.76485],[6.9849,4.76404],[6.98409,4.76404],[6.98409,4.76323],[6.98328,4.76323],[6.98328,4.76242],[6.98247,4.76242],[6.98247,4.76161],[6.98005,4.76161],[6.98005,4.7608],[6.97924,4.7608],[6.97924,4.75919],[6.97843,4.75919],[6.97843,4.75838],[6.97681,4.75838],[6.97681,4.75757],[6.976,4.75757],[6.976,4.75676],[6.97439,4.75676],[6.97439,4.75595],[6.97115,4.75595],[6.97115,4.75515],[6.96307,4.75515],[6.96307,4.75919],[6.96388,4.75919],[6.96388,4.76161],[6.96469,4.76161],[6.96469,4.76323],[6.96549,4.76323],[6.96549,4.77051],[6.96469,4.77051],[6.96469,4.77131],[6.96388,4.77131],[6.96388,4.77212],[6.96307,4.77212],[6.96307,4.77293],[6.96226,4.77293],[6.96226,4.77374],[6.96145,4.77374],[6.96145,4.77455],[6.95983,4.77455],[6.95983,4.77536],[6.95579,4.77536],[6.95579,4.77455],[6.95256,4.77455],[6.95256,4.77374],[6.95175,4.77374],[6.95175,4.77131],[6.95256,4.77131],[6.95256,4.77374],[6.95579,4.77374],[6.95579,4.77455],[6.95983,4.77455],[6.95983,4.77374],[6.96145,4.77374],[6.96145,4.77293],[6.96226,4.77293],[6.96226,4.77212],[6.96307,4.77212],[6.96307,4.77131],[6.96388,4.77131],[6.96388,4.77051],[6.96469,4.77051],[6.96469,4.76323],[6.96388,4.76323],[6.96388,4.76161],[6.96307,4.76161],[6.96307,4.75919],[6.96226,4.75919],[6.96226,4.75515],[6.96307,4.75515],[6.96307,4.75434],[6.97115,4.75434],[6.97115,4.75515],[6.97439,4.75515],[6.97439,4.75595],[6.976,4.75595],[6.976,4.75676],[6.97681,4.75676],[6.97681,4.75757],[6.97843,4.75757],[6.97843,4.75838],[6.97924,4.75838],[6.97924,4.75919],[6.98005,4.75919],[6.98005,4.7608],[6.98247,4.7608],[6.98247,4.76161],[6.98328,4.76161],[6.98328,4.76242],[6.98409,4.76242],[6.98409,4.76323],[6.9849,4.76323],[6.9849,4.76404],[6.98571,4.76404],[6.98571,4.76485],[6.98651,4.76485],[6.98651,4.76566],[6.98732,4.76566],[6.98732,4.76646],[6.98894,4.76646],[6.98894,4.76727],[6.98975,4.76727],[6.98975,4.76808],[6.99217,4.76808],[6.99217,4.76889],[6.9946,4.76889],[6.9946,4.7697],[6.99703,4.7697],[6.99703,4.77051],[6.99864,4.77051],[6.99864,4.77131],[7.00026,4.77131],[7.00026,4.77212],[7.00268,4.77212],[7.00268,4.77293],[7.00673,4.77293],[7.00673,4.77212],[7.00754,4.77212],[7.00754,4.77051],[7.00673,4.77051],[7.00673,4.76808],[7.00592,4.76808],[7.00592,4.76727],[7.00511,4.76727],[7.00511,4.76566],[7.0043,4.76566],[7.0043,4.76404],[7.00349,4.76404],[7.00349,4.76242],[7.00268,4.76242],[7.00268,4.75838],[7.00188,4.75838],[7.00188,4.75272],[7.00107,4.75272],[7.00107,4.74787],[6.99864,4.74787],[6.99864,4.74706],[6.9946,4.74706],[6.9946,4.74787],[6.99379,4.74787],[6.99379,4.74868],[6.99298,4.74868],[6.99298,4.74949],[6.99379,4.74949],[6.99379,4.75029],[6.99541,4.75029],[6.99541,4.7511],[6.99379,4.7511],[6.99379,4.75029],[6.99298,4.75029],[6.99298,4.74949],[6.99137,4.74949],[6.99137,4.75029],[6.98975,4.75029],[6.98975,4.74949],[6.98894,4.74949],[6.98894,4.74868],[6.98813,4.74868],[6.98813,4.74787],[6.98651,4.74787],[6.98651,4.74706],[6.98813,4.74706],[6.98813,4.74787],[6.98894,4.74787],[6.98894,4.74868],[6.98975,4.74868],[6.98975,4.74949],[6.99137,4.74949],[6.99137,4.74868],[6.99298,4.74868],[6.99298,4.74787],[6.99379,4.74787],[6.99379,4.74706],[6.9946,4.74706],[6.9946,4.74625],[6.99864,4.74625],[6.99864,4.74706],[7.00107,4.74706],[7.00107,4.74463],[6.99783,4.74463],[6.99783,4.74383],[6.99703,4.74383],[6.99703,4.74221],[6.99622,4.74221],[6.99622,4.7414],[6.99703,4.7414],[6.99703,4.73978],[6.99783,4.73978],[6.99783,4.73736],[6.99864,4.73736],[6.99864,4.73978],[6.99783,4.73978],[6.99783,4.7414],[6.99703,4.7414],[6.99703,4.74221],[6.99783,4.74221],[6.99783,4.74383],[7.00107,4.74383],[7.00107,4.74302],[7.00188,4.74302],[7.00188,4.7414],[7.00268,4.7414],[7.00268,4.73898],[7.00349,4.73898],[7.00349,4.73817],[7.0043,4.73817],[7.0043,4.73736],[7.00511,4.73736],[7.00511,4.73655],[7.00592,4.73655],[7.00592,4.73574],[7.00673,4.73574],[7.00673,4.73493],[7.00915,4.73493],[7.00915,4.73412],[7.00996,4.73412],[7.00996,4.7317]]]}},{"type":"Feature","properties":{},"geometry":{"geodesic":false,"type":"Polygon","coordinates":[[[7.01885,4.7317],[7.01966,4.7317],[7.01966,4.73332],[7.01885,4.73332],[7.01885,4.7317]]]}},{"type":"Feature","properties":{},"geometry":{"geodesic":false,"type":"Polygon","coordinates":[[[7.0229,4.7317],[7.02371,4.7317],[7.02371,4.73412],[7.02451,4.73412],[7.02451,4.73493],[7.02532,4.73493],[7.02532,4.73412],[7.02775,4.73412],[7.02775,4.73332],[7.03341,4.73332],[7.03341,4.73412],[7.03422,4.73412],[7.03422,4.73574],[7.03341,4.73574],[7.03341,4.73412],[7.02775,4.73412],[7.02775,4.73493],[7.02532,4.73493],[7.02532,4.73736],[7.02451,4.73736],[7.02451,4.73817],[7.02371,4.73817],[7.02371,4.73898],[7.0229,4.73898],[7.0229,4.74059],[7.02209,4.74059],[7.02209,4.74302],[7.0229,4.74302],[7.0229,4.74463],[7.02451,4.74463],[7.02451,4.74383],[7.02532,4.74383],[7.02532,4.74302],[7.02694,4.74302],[7.02694,4.74221],[7.02856,4.74221],[7.02856,4.74302],[7.03098,4.74302],[7.03098,4.74383],[7.03179,4.74383],[7.03179,4.74463],[7.03098,4.74463],[7.03098,4.74383],[7.02856,4.74383],[7.02856,4.74302],[7.02694,4.74302],[7.02694,4.74383],[7.02532,4.74383],[7.02532,4.74463],[7.02451,4.74463],[7.02451,4.74544],[7.0229,4.74544],[7.0229,4.74463],[7.02209,4.74463],[7.02209,4.74302],[7.02128,4.74302],[7.02128,4.74059],[7.02209,4.74059],[7.02209,4.73898],[7.0229,4.73898],[7.0229,4.73817],[7.02371,4.73817],[7.02371,4.73736],[7.02451,4.73736],[7.02451,4.73493],[7.02371,4.73493],[7.02371,4.73412],[7.0229,4.73412],[7.0229,4.7317]]]}},{"type":"Feature","properties":{},"geometry":{"geodesic":false,"type":"Polygon","coordinates":[[[7.04877,4.7414],[7.04958,4.7414],[7.04958,4.74221],[7.05039,4.74221],[7.05039,4.74625],[7.04958,4.74625],[7.04958,4.74706],[7.04715,4.74706],[7.04715,4.74787],[7.04553,4.74787],[7.04553,4.74868],[7.04473,4.74868],[7.04473,4.74949],[7.04553,4.74949],[7.04553,4.75029],[7.04634,4.75029],[7.04634,4.7511],[7.04796,4.7511],[7.04796,4.75191],[7.04958,4.75191],[7.04958,4.7511],[7.05119,4.7511],[7.05119,4.75191],[7.05362,4.75191],[7.05362,4.75272],[7.05443,4.75272],[7.05443,4.75191],[7.05524,4.75191],[7.05524,4.74868],[7.05604,4.74868],[7.05604,4.74787],[7.05685,4.74787],[7.05685,4.74706],[7.05766,4.74706],[7.05766,4.74625],[7.05847,4.74625],[7.05847,4.74463],[7.05928,4.74463],[7.05928,4.74383],[7.06009,4.74383],[7.06009,4.74221],[7.0609,4.74221],[7.0609,4.74383],[7.06009,4.74383],[7.06009,4.74463],[7.05928,4.74463],[7.05928,4.74625],[7.05847,4.74625],[7.05847,4.74706],[7.05766,4.74706],[7.05766,4.74787],[7.05685,4.74787],[7.05685,4.74868],[7.05604,4.74868],[7.05604,4.75191],[7.05524,4.75191],[7.05524,4.75353],[7.05443,4.75353],[7.05443,4.75919],[7.05524,4.75919],[7.05524,4.76161],[7.05604,4.76161],[7.05604,4.76323],[7.05685,4.76323],[7.05685,4.76566],[7.05604,4.76566],[7.05604,4.76646],[7.05524,4.76646],[7.05524,4.76727],[7.05281,4.76727],[7.05281,4.76808],[7.04796,4.76808],[7.04796,4.76889],[7.04473,4.76889],[7.04473,4.7697],[7.03987,4.7697],[7.03987,4.77051],[7.03907,4.77051],[7.03907,4.77131],[7.04068,4.77131],[7.04068,4.77212],[7.04473,4.77212],[7.04473,4.77293],[7.04553,4.77293],[7.04553,4.77374],[7.04634,4.77374],[7.04634,4.77455],[7.04715,4.77455],[7.04715,4.77617],[7.04634,4.77617],[7.04634,4.77455],[7.04553,4.77455],[7.04553,4.77374],[7.04473,4.77374],[7.04473,4.77293],[7.04068,4.77293],[7.04068,4.77212],[7.03907,4.77212],[7.03907,4.77131],[7.03826,4.77131],[7.03826,4.77051],[7.03907,4.77051],[7.03907,4.76889],[7.03179,4.76889],[7.03179,4.7697],[7.02936,4.7697],[7.02936,4.77051],[7.02856,4.77051],[7.02856,4.77293],[7.02775,4.77293],[7.02775,4.78021],[7.02856,4.78021],[7.02856,4.7794],[7.02936,4.7794],[7.02936,4.78021],[7.02856,4.78021],[7.02856,4.78102],[7.02775,4.78102],[7.02775,4.78344],[7.02856,4.78344],[7.02856,4.78506],[7.02775,4.78506],[7.02775,4.78748],[7.02694,4.78748],[7.02694,4.78829],[7.02613,4.78829],[7.02613,4.7891],[7.0229,4.7891],[7.0229,4.78991],[7.02209,4.78991],[7.02209,4.79072],[7.02047,4.79072],[7.02047,4.79234],[7.01966,4.79234],[7.01966,4.79395],[7.01885,4.79395],[7.01885,4.79476],[7.01805,4.79476],[7.01805,4.79557],[7.01885,4.79557],[7.01885,4.79638],[7.02209,4.79638],[7.02209,4.79719],[7.0229,4.79719],[7.0229,4.79799],[7.02371,4.79799],[7.02371,4.7988],[7.02451,4.7988],[7.02451,4.80042],[7.02371,4.80042],[7.02371,4.80123],[7.02451,4.80123],[7.02451,4.80204],[7.02532,4.80204],[7.02532,4.80285],[7.02451,4.80285],[7.02451,4.80204],[7.02371,4.80204],[7.02371,4.80123],[7.0229,4.80123],[7.0229,4.80042],[7.02371,4.80042],[7.02371,4.7988],[7.0229,4.7988],[7.0229,4.79799],[7.02209,4.79799],[7.02209,4.79719],[7.01805,4.79719],[7.01805,4.7988],[7.01724,4.7988],[7.01724,4.80042],[7.01643,4.80042],[7.01643,4.80123],[7.01562,4.80123],[7.01562,4.80204],[7.01643,4.80204],[7.01643,4.80285],[7.01724,4.80285],[7.01724,4.80446],[7.01643,4.80446],[7.01643,4.80527],[7.01724,4.80527],[7.01724,4.80608],[7.01643,4.80608],[7.01643,4.81902],[7.01724,4.81902],[7.01724,4.81821],[7.01885,4.81821],[7.01885,4.8174],[7.01966,4.8174],[7.01966,4.81821],[7.02047,4.81821],[7.02047,4.81902],[7.02209,4.81902],[7.02209,4.81982],[7.0229,4.81982],[7.0229,4.82063],[7.02209,4.82063],[7.02209,4.81982],[7.02047,4.81982],[7.02047,4.81902],[7.01966,4.81902],[7.01966,4.81821],[7.01885,4.81821],[7.01885,4.81902],[7.01724,4.81902],[7.01724,4.81982],[7.01643,4.81982],[7.01643,4.82063],[7.01724,4.82063],[7.01724,4.82144],[7.01805,4.82144],[7.01805,4.82306],[7.01724,4.82306],[7.01724,4.82387],[7.01885,4.82387],[7.01885,4.82629],[7.01805,4.82629],[7.01805,4.82791],[7.01724,4.82791],[7.01724,4.82872],[7.01643,4.82872],[7.01643,4.82953],[7.01724,4.82953],[7.01724,4.83033],[7.01643,4.83033],[7.01643,4.83195],[7.01724,4.83195],[7.01724,4.83276],[7.01643,4.83276],[7.01643,4.83357],[7.01562,4.83357],[7.01562,4.83438],[7.014,4.83438],[7.014,4.83599],[7.01319,4.83599],[7.01319,4.8368],[7.01239,4.8368],[7.01239,4.83761],[7.01158,4.83761],[7.01158,4.83842],[7.01562,4.83842],[7.01562,4.83923],[7.01805,4.83923],[7.01805,4.84004],[7.01562,4.84004],[7.01562,4.83923],[7.01158,4.83923],[7.01158,4.83842],[7.00996,4.83842],[7.00996,4.83923],[7.00915,4.83923],[7.00915,4.84004],[7.00673,4.84004],[7.00673,4.83923],[7.00592,4.83923],[7.00592,4.84004],[7.00511,4.84004],[7.00511,4.83923],[7.00592,4.83923],[7.00592,4.83842],[7.00673,4.83842],[7.00673,4.83923],[7.00915,4.83923],[7.00915,4.83842],[7.00996,4.83842],[7.00996,4.83761],[7.01158,4.83761],[7.01158,4.8368],[7.01239,4.8368],[7.01239,4.83599],[7.01319,4.83599],[7.01319,4.83438],[7.014,4.83438],[7.014,4.83357],[7.01562,4.83357],[7.01562,4.83276],[7.01643,4.83276],[7.01643,4.83195],[7.01562,4.83195],[7.01562,4.83033],[7.01643,4.83033],[7.01643,4.82953],[7.01562,4.82953],[7.01562,4.82872],[7.01643,4.82872],[7.01643,4.82791],[7.01724,4.82791],[7.01724,4.82629],[7.01805,4.82629],[7.01805,4.82467],[7.01724,4.82467],[7.01724,4.82387],[7.01643,4.82387],[7.01643,4.82306],[7.01724,4.82306],[7.01724,4.82144],[7.01643,4.82144],[7.01643,4.82063],[7.01562,4.82063],[7.01562,4.82144],[7.01481,4.82144],[7.01481,4.82306],[7.014,4.82306],[7.014,4.82629],[7.01239,4.82629],[7.01239,4.8271],[7.01158,4.8271],[7.01158,4.82872],[7.00996,4.82872],[7.00996,4.82791],[7.00915,4.82791],[7.00915,4.82872],[7.00754,4.82872],[7.00754,4.82791],[7.00915,4.82791],[7.00915,4.8271],[7.00996,4.8271],[7.00996,4.82791],[7.01077,4.82791],[7.01077,4.8271],[7.01158,4.8271],[7.01158,4.82548],[7.01319,4.82548],[7.01319,4.82225],[7.014,4.82225],[7.014,4.82144],[7.01481,4.82144],[7.01481,4.82063],[7.01562,4.82063],[7.01562,4.80608],[7.01481,4.80608],[7.01481,4.80689],[7.014,4.80689],[7.014,4.8077],[7.01319,4.8077],[7.01319,4.80689],[7.01239,4.80689],[7.01239,4.8077],[7.01158,4.8077],[7.01158,4.80689],[7.01239,4.80689],[7.01239,4.80608],[7.01319,4.80608],[7.01319,4.80689],[7.014,4.80689],[7.014,4.80608],[7.01481,4.80608],[7.01481,4.80527],[7.01562,4.80527],[7.01562,4.80446],[7.01643,4.80446],[7.01643,4.80285],[7.01562,4.80285],[7.01562,4.80204],[7.01481,4.80204],[7.01481,4.80123],[7.01562,4.80123],[7.01562,4.80042],[7.01643,4.80042],[7.01643,4.7988],[7.01724,4.7988],[7.01724,4.79719],[7.01805,4.79719],[7.01805,4.79557],[7.01724,4.79557],[7.01724,4.79476],[7.01805,4.79476],[7.01805,4.79395],[7.01885,4.79395],[7.01885,4.79234],[7.01966,4.79234],[7.01966,4.79072],[7.02047,4.79072],[7.02047,4.78991],[7.02209,4.78991],[7.02209,4.7891],[7.0229,4.7891],[7.0229,4.78748],[7.02209,4.78748],[7.02209,4.78587],[7.02047,4.78587],[7.02047,4.78748],[7.01966,4.78748],[7.01966,4.78829],[7.01724,4.78829],[7.01724,4.78748],[7.014,4.78748],[7.014,4.78829],[7.01158,4.78829],[7.01158,4.7891],[7.01077,4.7891],[7.01077,4.78991],[7.00996,4.78991],[7.00996,4.79072],[7.00673,4.79072],[7.00673,4.79234],[7.00592,4.79234],[7.00592,4.79395],[7.00511,4.79395],[7.00511,4.79557],[7.00349,4.79557],[7.00349,4.79638],[7.00268,4.79638],[7.00268,4.79719],[6.99864,4.79719],[6.99864,4.79799],[6.99783,4.79799],[6.99783,4.79961],[6.99703,4.79961],[6.99703,4.80285],[6.99622,4.80285],[6.99622,4.8077],[6.99541,4.8077],[6.99541,4.80851],[6.9946,4.80851],[6.9946,4.80931],[6.99379,4.80931],[6.99379,4.81012],[6.99298,4.81012],[6.99298,4.81497],[6.99379,4.81497],[6.99379,4.81336],[6.9946,4.81336],[6.9946,4.81497],[6.99541,4.81497],[6.99541,4.81659],[6.99622,4.81659],[6.99622,4.81821],[6.99541,4.81821],[6.99541,4.81902],[6.9946,4.81902],[6.9946,4.82063],[6.99379,4.82063],[6.99379,4.82225],[6.99298,4.82225],[6.99298,4.82063],[6.99379,4.82063],[6.99379,4.81902],[6.9946,4.81902],[6.9946,4.81821],[6.99541,4.81821],[6.99541,4.81659],[6.9946,4.81659],[6.9946,4.81497],[6.99379,4.81497],[6.99379,4.81578],[6.99298,4.81578],[6.99298,4.8174],[6.99217,4.8174],[6.99217,4.81821],[6.99137,4.81821],[6.99137,4.81902],[6.98894,4.81902],[6.98894,4.82467],[6.98732,4.82467],[6.98732,4.82387],[6.98571,4.82387],[6.98571,4.82467],[6.9849,4.82467],[6.9849,4.82387],[6.98571,4.82387],[6.98571,4.82306],[6.98651,4.82306],[6.98651,4.82225],[6.98732,4.82225],[6.98732,4.82387],[6.98813,4.82387],[6.98813,4.81902],[6.98732,4.81902],[6.98732,4.8174],[6.98651,4.8174],[6.98651,4.81659],[6.98732,4.81659],[6.98732,4.8174],[6.98813,4.8174],[6.98813,4.81902],[6.98894,4.81902],[6.98894,4.81821],[6.99137,4.81821],[6.99137,4.8174],[6.99217,4.8174],[6.99217,4.81012],[6.99298,4.81012],[6.99298,4.80931],[6.99379,4.80931],[6.99379,4.8077],[6.99541,4.8077],[6.99541,4.80285],[6.99622,4.80285],[6.99622,4.79961],[6.99703,4.79961],[6.99703,4.79799],[6.99783,4.79799],[6.99783,4.79719],[6.99864,4.79719],[6.99864,4.79638],[7.00268,4.79638],[7.00268,4.79557],[7.00349,4.79557],[7.00349,4.79476],[7.0043,4.79476],[7.0043,4.79314],[7.00511,4.79314],[7.00511,4.79234],[7.00592,4.79234],[7.00592,4.79072],[7.00673,4.79072],[7.00673,4.78991],[7.00996,4.78991],[7.00996,4.7891],[7.01077,4.7891],[7.01077,4.78829],[7.01158,4.78829],[7.01158,4.78748],[7.014,4.78748],[7.014,4.78587],[7.01724,4.78587],[7.01724,4.78748],[7.01966,4.78748],[7.01966,4.78587],[7.02047,4.78587],[7.02047,4.78506],[7.02209,4.78506],[7.02209,4.78587],[7.0229,4.78587],[7.0229,4.78748],[7.02371,4.78748],[7.02371,4.78829],[7.02613,4.78829],[7.02613,4.78748],[7.02694,4.78748],[7.02694,4.78506],[7.02775,4.78506],[7.02775,4.78344],[7.02694,4.78344],[7.02694,4.77697],[7.02613,4.77697],[7.02613,4.77617],[7.02532,4.77617],[7.02532,4.77697],[7.02371,4.77697],[7.02371,4.77617],[7.02532,4.77617],[7.02532,4.77536],[7.02613,4.77536],[7.02613,4.77617],[7.02694,4.77617],[7.02694,4.77293],[7.02775,4.77293],[7.02775,4.77051],[7.02856,4.77051],[7.02856,4.7697],[7.02936,4.7697],[7.02936,4.76889],[7.03179,4.76889],[7.03179,4.76808],[7.03907,4.76808],[7.03907,4.76889],[7.04473,4.76889],[7.04473,4.76808],[7.04796,4.76808],[7.04796,4.76727],[7.05281,4.76727],[7.05281,4.76646],[7.05524,4.76646],[7.05524,4.76566],[7.05604,4.76566],[7.05604,4.76323],[7.05524,4.76323],[7.05524,4.76161],[7.05443,4.76161],[7.05443,4.75919],[7.05362,4.75919],[7.05362,4.75272],[7.05119,4.75272],[7.05119,4.75191],[7.04958,4.75191],[7.04958,4.75272],[7.04796,4.75272],[7.04796,4.75191],[7.04553,4.75191],[7.04553,4.75272],[7.04473,4.75272],[7.04473,4.7608],[7.04392,4.7608],[7.04392,4.75272],[7.04473,4.75272],[7.04473,4.75191],[7.04553,4.75191],[7.04553,4.75029],[7.04473,4.75029],[7.04473,4.74949],[7.04392,4.74949],[7.04392,4.74787],[7.04553,4.74787],[7.04553,4.74706],[7.04715,4.74706],[7.04715,4.74625],[7.04958,4.74625],[7.04958,4.74221],[7.04877,4.74221],[7.04877,4.7414]],[[7.01643,4.80527],[7.01643,4.80608],[7.01562,4.80608],[7.01562,4.80527],[7.01643,4.80527]]]}},{"type":"Feature","properties":{},"geometry":{"geodesic":false,"type":"Polygon","coordinates":[[[7.06817,4.75353],[7.06898,4.75353],[7.06898,4.75515],[7.06817,4.75515],[7.06817,4.75676],[7.06736,4.75676],[7.06736,4.75919],[7.06655,4.75919],[7.06655,4.76404],[7.06898,4.76404],[7.06898,4.76323],[7.07302,4.76323],[7.07302,4.76404],[7.07383,4.76404],[7.07383,4.76485],[7.07302,4.76485],[7.07302,4.76404],[7.06898,4.76404],[7.06898,4.76485],[7.06736,4.76485],[7.06736,4.76889],[7.06817,4.76889],[7.06817,4.77212],[7.06898,4.77212],[7.06898,4.77374],[7.06979,4.77374],[7.06979,4.77455],[7.0706,4.77455],[7.0706,4.77778],[7.07141,4.77778],[7.07141,4.77859],[7.07221,4.77859],[7.07221,4.7794],[7.07302,4.7794],[7.07302,4.77859],[7.07383,4.77859],[7.07383,4.77778],[7.07545,4.77778],[7.07545,4.7794],[7.07464,4.7794],[7.07464,4.77859],[7.07383,4.77859],[7.07383,4.7794],[7.07302,4.7794],[7.07302,4.78021],[7.07221,4.78021],[7.07221,4.7794],[7.07141,4.7794],[7.07141,4.77859],[7.0706,4.77859],[7.0706,4.77778],[7.06979,4.77778],[7.06979,4.77859],[7.06898,4.77859],[7.06898,4.7794],[7.06817,4.7794],[7.06817,4.78021],[7.06736,4.78021],[7.06736,4.78102],[7.06655,4.78102],[7.06655,4.78183],[7.06575,4.78183],[7.06575,4.78263],[7.06494,4.78263],[7.06494,4.78344],[7.06413,4.78344],[7.06413,4.78425],[7.06332,4.78425],[7.06332,4.78587],[7.0617,4.78587],[7.0617,4.79072],[7.06332,4.79072],[7.06332,4.79153],[7.06413,4.79153],[7.06413,4.79234],[7.06494,4.79234],[7.06494,4.79314],[7.06655,4.79314],[7.06655,4.79395],[7.06898,4.79395],[7.06898,4.79476],[7.06979,4.79476],[7.06979,4.79557],[7.0706,4.79557],[7.0706,4.79476],[7.07383,4.79476],[7.07383,4.79395],[7.07464,4.79395],[7.07464,4.79234],[7.07545,4.79234],[7.07545,4.79395],[7.07464,4.79395],[7.07464,4.79557],[7.07545,4.79557],[7.07545,4.79638],[7.07626,4.79638],[7.07626,4.80123],[7.07545,4.80123],[7.07545,4.80285],[7.07464,4.80285],[7.07464,4.80365],[7.07545,4.80365],[7.07545,4.80689],[7.07626,4.80689],[7.07626,4.81012],[7.07707,4.81012],[7.07707,4.81174],[7.07787,4.81174],[7.07787,4.81416],[7.07707,4.81416],[7.07707,4.81174],[7.07626,4.81174],[7.07626,4.81012],[7.07545,4.81012],[7.07545,4.80689],[7.07464,4.80689],[7.07464,4.80365],[7.07383,4.80365],[7.07383,4.80285],[7.07464,4.80285],[7.07464,4.80123],[7.07545,4.80123],[7.07545,4.79638],[7.07464,4.79638],[7.07464,4.79557],[7.0706,4.79557],[7.0706,4.7988],[7.06979,4.7988],[7.06979,4.80042],[7.0706,4.80042],[7.0706,4.80365],[7.06817,4.80365],[7.06817,4.80446],[7.06413,4.80446],[7.06413,4.80608],[7.06494,4.80608],[7.06494,4.80689],[7.06413,4.80689],[7.06413,4.8077],[7.06332,4.8077],[7.06332,4.80689],[7.06413,4.80689],[7.06413,4.80608],[7.0617,4.80608],[7.0617,4.80689],[7.0609,4.80689],[7.0609,4.8077],[7.06009,4.8077],[7.06009,4.80851],[7.05928,4.80851],[7.05928,4.80931],[7.05847,4.80931],[7.05847,4.81012],[7.05766,4.81012],[7.05766,4.81093],[7.05685,4.81093],[7.05685,4.81174],[7.05604,4.81174],[7.05604,4.81255],[7.05443,4.81255],[7.05443,4.81336],[7.05281,4.81336],[7.05281,4.81255],[7.04796,4.81255],[7.04796,4.81336],[7.04715,4.81336],[7.04715,4.81659],[7.04796,4.81659],[7.04796,4.82063],[7.04715,4.82063],[7.04715,4.82144],[7.04634,4.82144],[7.04634,4.82225],[7.04715,4.82225],[7.04715,4.82306],[7.04634,4.82306],[7.04634,4.82467],[7.04473,4.82467],[7.04473,4.82872],[7.04311,4.82872],[7.04311,4.83033],[7.0423,4.83033],[7.0423,4.83114],[7.04149,4.83114],[7.04149,4.83357],[7.04068,4.83357],[7.04068,4.83438],[7.03907,4.83438],[7.03907,4.83519],[7.03826,4.83519],[7.03826,4.83599],[7.03745,4.83599],[7.03745,4.8368],[7.03664,4.8368],[7.03664,4.83761],[7.03502,4.83761],[7.03502,4.83842],[7.03422,4.83842],[7.03422,4.83923],[7.03341,4.83923],[7.03341,4.84004],[7.0326,4.84004],[7.0326,4.84165],[7.03179,4.84165],[7.03179,4.84327],[7.03017,4.84327],[7.03017,4.84489],[7.02936,4.84489],[7.02936,4.8465],[7.02856,4.8465],[7.02856,4.84489],[7.02936,4.84489],[7.02936,4.84327],[7.03017,4.84327],[7.03017,4.84246],[7.03098,4.84246],[7.03098,4.84165],[7.03179,4.84165],[7.03179,4.84004],[7.0326,4.84004],[7.0326,4.83923],[7.03341,4.83923],[7.03341,4.83842],[7.03422,4.83842],[7.03422,4.83761],[7.03502,4.83761],[7.03502,4.8368],[7.03664,4.8368],[7.03664,4.83599],[7.03745,4.83599],[7.03745,4.83519],[7.03826,4.83519],[7.03826,4.83438],[7.03907,4.83438],[7.03907,4.83357],[7.04068,4.83357],[7.04068,4.83114],[7.04149,4.83114],[7.04149,4.83033],[7.0423,4.83033],[7.0423,4.82872],[7.04311,4.82872],[7.04311,4.82791],[7.04392,4.82791],[7.04392,4.82467],[7.04473,4.82467],[7.04473,4.82387],[7.04553,4.82387],[7.04553,4.82306],[7.04634,4.82306],[7.04634,4.82225],[7.04473,4.82225],[7.04473,4.82144],[7.0423,4.82144],[7.0423,4.82063],[7.04149,4.82063],[7.04149,4.82144],[7.04068,4.82144],[7.04068,4.82225],[7.03987,4.82225],[7.03987,4.82144],[7.04068,4.82144],[7.04068,4.81982],[7.0423,4.81982],[7.0423,4.82063],[7.04473,4.82063],[7.04473,4.82144],[7.04634,4.82144],[7.04634,4.82063],[7.04715,4.82063],[7.04715,4.81659],[7.04634,4.81659],[7.04634,4.81336],[7.04715,4.81336],[7.04715,4.81255],[7.04796,4.81255],[7.04796,4.81174],[7.05281,4.81174],[7.05281,4.81255],[7.05443,4.81255],[7.05443,4.81174],[7.05604,4.81174],[7.05604,4.81093],[7.05685,4.81093],[7.05685,4.81012],[7.05766,4.81012],[7.05766,4.80851],[7.05685,4.80851],[7.05685,4.8077],[7.05604,4.8077],[7.05604,4.80608],[7.05685,4.80608],[7.05685,4.80527],[7.05604,4.80527],[7.05604,4.80446],[7.05524,4.80446],[7.05524,4.80285],[7.05281,4.80285],[7.05281,4.80204],[7.052,4.80204],[7.052,4.80123],[7.05119,4.80123],[7.05119,4.80204],[7.05039,4.80204],[7.05039,4.80285],[7.04958,4.80285],[7.04958,4.80204],[7.04877,4.80204],[7.04877,4.80285],[7.04796,4.80285],[7.04796,4.80365],[7.04715,4.80365],[7.04715,4.80527],[7.04796,4.80527],[7.04796,4.80608],[7.04715,4.80608],[7.04715,4.80689],[7.04634,4.80689],[7.04634,4.8077],[7.04553,4.8077],[7.04553,4.80851],[7.04392,4.80851],[7.04392,4.8077],[7.04149,4.8077],[7.04149,4.80689],[7.04068,4.80689],[7.04068,4.8077],[7.03987,4.8077],[7.03987,4.80689],[7.03907,4.80689],[7.03907,4.80608],[7.03987,4.80608],[7.03987,4.80689],[7.04068,4.80689],[7.04068,4.80608],[7.04149,4.80608],[7.04149,4.80689],[7.04392,4.80689],[7.04392,4.8077],[7.04473,4.8077],[7.04473,4.80689],[7.04634,4.80689],[7.04634,4.80608],[7.04715,4.80608],[7.04715,4.80527],[7.04634,4.80527],[7.04634,4.80365],[7.04715,4.80365],[7.04715,4.80285],[7.04796,4.80285],[7.04796,4.80204],[7.04877,4.80204],[7.04877,4.79961],[7.04796,4.79961],[7.04796,4.80042],[7.04634,4.80042],[7.04634,4.7988],[7.04392,4.7988],[7.04392,4.79799],[7.04311,4.79799],[7.04311,4.79638],[7.0423,4.79638],[7.0423,4.79719],[7.04149,4.79719],[7.04149,4.79638],[7.0423,4.79638],[7.0423,4.79557],[7.04392,4.79557],[7.04392,4.79799],[7.04553,4.79799],[7.04553,4.79719],[7.04634,4.79719],[7.04634,4.7988],[7.04715,4.7988],[7.04715,4.79961],[7.04796,4.79961],[7.04796,4.7988],[7.04877,4.7988],[7.04877,4.79961],[7.04958,4.79961],[7.04958,4.7988],[7.05039,4.7988],[7.05039,4.80042],[7.04958,4.80042],[7.04958,4.80123],[7.05119,4.80123],[7.05119,4.80042],[7.052,4.80042],[7.052,4.80123],[7.05281,4.80123],[7.05281,4.80204],[7.05362,4.80204],[7.05362,4.80123],[7.05443,4.80123],[7.05443,4.80204],[7.05524,4.80204],[7.05524,4.80285],[7.05604,4.80285],[7.05604,4.80365],[7.05685,4.80365],[7.05685,4.80527],[7.05766,4.80527],[7.05766,4.80608],[7.05685,4.80608],[7.05685,4.8077],[7.05766,4.8077],[7.05766,4.80851],[7.05928,4.80851],[7.05928,4.8077],[7.06009,4.8077],[7.06009,4.80689],[7.0609,4.80689],[7.0609,4.80608],[7.0617,4.80608],[7.0617,4.80527],[7.06332,4.80527],[7.06332,4.80446],[7.06413,4.80446],[7.06413,4.80365],[7.06817,4.80365],[7.06817,4.80285],[7.06979,4.80285],[7.06979,4.80042],[7.06898,4.80042],[7.06898,4.7988],[7.06979,4.7988],[7.06979,4.79557],[7.06898,4.79557],[7.06898,4.79476],[7.06655,4.79476],[7.06655,4.79395],[7.06494,4.79395],[7.06494,4.79314],[7.06413,4.79314],[7.06413,4.79234],[7.06332,4.79234],[7.06332,4.79153],[7.0609,4.79153],[7.0609,4.79234],[7.06009,4.79234],[7.06009,4.79314],[7.05928,4.79314],[7.05928,4.79234],[7.05685,4.79234],[7.05685,4.79153],[7.05443,4.79153],[7.05443,4.79072],[7.05362,4.79072],[7.05362,4.78991],[7.05443,4.78991],[7.05443,4.79072],[7.05685,4.79072],[7.05685,4.79153],[7.05928,4.79153],[7.05928,4.79234],[7.06009,4.79234],[7.06009,4.79153],[7.0609,4.79153],[7.0609,4.78587],[7.0617,4.78587],[7.0617,4.78425],[7.06332,4.78425],[7.06332,4.78344],[7.06413,4.78344],[7.06413,4.78263],[7.06494,4.78263],[7.06494,4.78183],[7.06575,4.78183],[7.06575,4.78102],[7.06655,4.78102],[7.06655,4.78021],[7.06736,4.78021],[7.06736,4.7794],[7.06817,4.7794],[7.06817,4.77859],[7.06898,4.77859],[7.06898,4.77697],[7.06979,4.77697],[7.06979,4.77455],[7.06898,4.77455],[7.06898,4.77374],[7.06817,4.77374],[7.06817,4.77212],[7.06736,4.77212],[7.06736,4.76889],[7.06655,4.76889],[7.06655,4.76404],[7.06575,4.76404],[7.06575,4.75919],[7.06655,4.75919],[7.06655,4.75676],[7.06736,4.75676],[7.06736,4.75515],[7.06817,4.75515],[7.06817,4.75353]]]}},{"type":"Feature","properties":{},"geometry":{"geodesic":false,"type":"Polygon","coordinates":[[[7.07626,4.81497],[7.07707,4.81497],[7.07707,4.81578],[7.07626,4.81578],[7.07626,4.81659],[7.07545,4.81659],[7.07545,4.8174],[7.07464,4.8174],[7.07464,4.81821],[7.07383,4.81821],[7.07383,4.81902],[7.07302,4.81902],[7.07302,4.81982],[7.07221,4.81982],[7.07221,4.82144],[7.07141,4.82144],[7.07141,4.81982],[7.07221,4.81982],[7.07221,4.81902],[7.07302,4.81902],[7.07302,4.81821],[7.07383,4.81821],[7.07383,4.8174],[7.07464,4.8174],[7.07464,4.81659],[7.07545,4.81659],[7.07545,4.81578],[7.07626,4.81578],[7.07626,4.81497]]]}}]}