{"type":"FeatureCollection","features":[{"type":"Feature","properties":{"rank":2},"geometry":{"type":"MultiPolygon","coordinates":[[[[7.01343,4.78844],[7.01323,4.78846],[7.01322,4.78837],[7.01342,4.78834],[7.01343,4.78844]]],[[[7.01356,4.78835],[7.01356,4.78841],[7.01346,4.78841],[7.01345,4.78835],[7.01356,4.78835]]]]}},{"type":"Feature","properties":{"rank":4},"geometry":{"type":"MultiPolygon","coordinates":[[[[6.97039,4.77047],[6.97034,4.77056],[6.96986,4.77027],[6.96991,4.77018],[6.97039,4.77047]]],[[[6.97175,4.7677],[6.97131,4.76795],[6.97106,4.7675],[6.9715,4.76726],[6.97175,4.7677]]],[[[6.97032,4.76864],[6.97026,4.76877],[6.96992,4.76862],[6.96997,4.76849],[6.97032,4.76864]]],[[[6.9708,4.76857],[6.97076,4.76856],[6.9708,4.76845],[6.97084,4.76847],[6.9708,4.76857]]],[[[6.97061,4.76824],[6.97044,4.76863],[6.97011,4.76848],[6.97016,4.76836],[6.97015,4.76836],[6.97016,4.76833],[6.97014,4.76832],[6.97016,4.76827],[6.97012,4.76825],[6.9702,4.76806],[6.97061,4.76824]]]]}}]}