{"type":"FeatureCollection","features":[{"type":"Feature","properties":{},"geometry":{"geodesic":false,"type":"Polygon","coordinates":[[[6.96347,4.77392],[6.96347,4.77383],[6.96374,4.77383],[6.96374,4.77356],[6.96401,4.77356],[6.96401,4.77329],[6.96428,4.77329],[6.96428,4.77275],[6.96455,4.77275],[6.96455,4.77221],[6.96509,4.77221],[6.96509,4.77194],[6.96536,4.77194],[6.96536,4.77158],[6.96554,4.77158],[6.96554,4.77149],[6.96563,4.77149],[6.96563,4.77113],[6.9659,4.77113],[6.9659,4.77095],[6.96608,4.77095],[6.96608,4.77086],[6.96626,4.77086],[6.96626,4.77077],[6.96635,4.77077],[6.96635,4.77104],[6.96626,4.77104],[6.96626,4.77113],[6.96617,4.77113],[6.96617,4.77131],[6.96608,4.77131],[6.96608,4.7714],[6.96599,4.7714],[6.96599,4.77131],[6.96581,4.77131],[6.96581,4.77149],[6.96563,4.77149],[6.96563,4.77158],[6.96572,4.77158],[6.96572,4.77176],[6.96563,4.77176],[6.96563,4.77212],[6.96545,4.77212],[6.96545,4.77221],[6.96554,4.77221],[6.96554,4.77239],[6.96545,4.77239],[6.96545,4.77248],[6.96554,4.77248],[6.96554,4.77257],[6.96536,4.77257],[6.96536,4.77275],[6.96527,4.77275],[6.96527,4.77284],[6.96518,4.77284],[6.96518,4.77302],[6.965,4.77302],[6.965,4.7732],[6.96482,4.7732],[6.96482,4.77329],[6.96473,4.77329],[6.96473,4.77338],[6.96455,4.77338],[6.96455,4.77356],[6.96446,4.77356],[6.96446,4.77365],[6.96437,4.77365],[6.96437,4.77383],[6.9641,4.77383],[6.9641,4.77392],[6.96347,4.77392]],[[6.96554,4.77185],[6.96545,4.77185],[6.96545,4.77167],[6.96554,4.77167],[6.96554,4.77185]]]}},{"type":"Feature","properties":{},"geometry":{"geodesic":false,"type":"Polygon","coordinates":[[[6.96994,4.76916],[6.97003,4.76916],[6.97003,4.76925],[6.96994,4.76925],[6.96994,4.76916]]]}},{"type":"Feature","properties":{},"geometry":{"geodesic":false,"type":"Polygon","coordinates":[[[6.97003,4.77005],[6.97003,4.76996],[6.96976,4.76996],[6.96976,4.76987],[6.96958,4.76987],[6.96958,4.76996],[6.9694,4.76996],[6.9694,4.76987],[6.96895,4.76987],[6.96895,4.76969],[6.96886,4.76969],[6.96886,4.76961],[6.96913,4.76961],[6.96913,4.76952],[6.9694,4.76952],[6.9694,4.76943],[6.96949,4.76943],[6.96949,4.76934],[6.96976,4.76934],[6.96976,4.76925],[6.96985,4.76925],[6.96985,4.76934],[6.96976,4.76934],[6.96976,4.76943],[6.96985,4.76943],[6.96985,4.76952],[6.97003,4.76952],[6.97003,4.76969],[6.97012,4.76969],[6.97012,4.76961],[6.97021,4.76961],[6.97021,4.76943],[6.9703,4.76943],[6.9703,4.76934],[6.97039,4.76934],[6.97039,4.76916],[6.97048,4.76916],[6.97048,4.76925],[6.97066,4.76925],[6.97066,4.76934],[6.97075,4.76934],[6.97075,4.76943],[6.97084,4.76943],[6.97084,4.76952],[6.97057,4.76952],[6.97057,4.76961],[6.97039,4.76961],[6.97039,4.76987],[6.9703,4.76987],[6.9703,4.76996],[6.97021,4.76996],[6.97021,4.77005],[6.97003,4.77005]],[[6.97057,4.76952],[6.97039,4.76952],[6.97039,4.76943],[6.97057,4.76943],[6.97057,4.76952]],[[6.97039,4.76961],[6.9703,4.76961],[6.9703,4.76952],[6.97039,4.76952],[6.97039,4.76961]],[[6.9703,4.76969],[6.97021,4.76969],[6.97021,4.76961],[6.9703,4.76961],[6.9703,4.76969]],[[6.96985,4.76987],[6.96976,4.76987],[6.96976,4.76978],[6.96985,4.76978],[6.96985,4.76987]]]}},{"type":"Feature","properties":{},"geometry":{"geodesic":false,"type":"Polygon","coordinates":[[[6.97012,4.76916],[6.97012,4.76907],[6.9703,4.76907],[6.9703,4.76898],[6.97039,4.76898],[6.97039,4.76907],[6.9703,4.76907],[6.9703,4.76916],[6.97012,4.76916]]]}},{"type":"Feature","properties":{},"geometry":{"geodesic":false,"type":"Polygon","coordinates":[[[6.97174,4.77014],[6.97174,4.77005],[6.97165,4.77005],[6.97165,4.76996],[6.97147,4.76996],[6.97147,4.76987],[6.97129,4.76987],[6.97129,4.76978],[6.97111,4.76978],[6.97111,4.76961],[6.97129,4.76961],[6.97129,4.76952],[6.9712,4.76952],[6.9712,4.76943],[6.97138,4.76943],[6.97138,4.76952],[6.97147,4.76952],[6.97147,4.76943],[6.97156,4.76943],[6.97156,4.76952],[6.97165,4.76952],[6.97165,4.76934],[6.97209,4.76934],[6.97209,4.76925],[6.97218,4.76925],[6.97218,4.76934],[6.97227,4.76934],[6.97227,4.76925],[6.97245,4.76925],[6.97245,4.76934],[6.97236,4.76934],[6.97236,4.76943],[6.97227,4.76943],[6.97227,4.76978],[6.97209,4.76978],[6.97209,4.76987],[6.972,4.76987],[6.972,4.76996],[6.97191,4.76996],[6.97191,4.76987],[6.97182,4.76987],[6.97182,4.77014],[6.97174,4.77014]]]}},{"type":"Feature","properties":{},"geometry":{"geodesic":false,"type":"Polygon","coordinates":[[[6.97353,4.77571],[6.97353,4.77553],[6.97344,4.77553],[6.97344,4.77544],[6.97335,4.77544],[6.97335,4.77535],[6.97326,4.77535],[6.97326,4.77526],[6.97317,4.77526],[6.97317,4.77499],[6.97326,4.77499],[6.97326,4.77491],[6.97335,4.77491],[6.97335,4.77482],[6.97344,4.77482],[6.97344,4.77473],[6.97362,4.77473],[6.97362,4.77464],[6.9738,4.77464],[6.9738,4.77446],[6.97389,4.77446],[6.97389,4.77437],[6.97434,4.77437],[6.97434,4.77446],[6.97461,4.77446],[6.97461,4.77455],[6.9747,4.77455],[6.9747,4.77464],[6.97488,4.77464],[6.97488,4.77473],[6.97479,4.77473],[6.97479,4.77482],[6.9747,4.77482],[6.9747,4.77464],[6.97461,4.77464],[6.97461,4.77473],[6.97452,4.77473],[6.97452,4.77491],[6.97434,4.77491],[6.97434,4.77499],[6.97425,4.77499],[6.97425,4.77508],[6.97434,4.77508],[6.97434,4.77517],[6.97398,4.77517],[6.97398,4.77535],[6.9738,4.77535],[6.9738,4.77544],[6.97371,4.77544],[6.97371,4.77571],[6.97353,4.77571]]]}},{"type":"Feature","properties":{},"geometry":{"geodesic":false,"type":"Polygon","coordinates":[[[6.97371,4.78263],[6.97371,4.78245],[6.97344,4.78245],[6.97344,4.78155],[6.97353,4.78155],[6.97353,4.78146],[6.97362,4.78146],[6.97362,4.78182],[6.97371,4.78182],[6.97371,4.78164],[6.97389,4.78164],[6.97389,4.78173],[6.9738,4.78173],[6.9738,4.78182],[6.97389,4.78182],[6.97389,4.782],[6.97398,4.782],[6.97398,4.78245],[6.97389,4.78245],[6.97389,4.78254],[6.9738,4.78254],[6.9738,4.78263],[6.97371,4.78263]]]}},{"type":"Feature","properties":{},"geometry":{"geodesic":false,"type":"Polygon","coordinates":[[[6.97398,4.77356],[6.97398,4.77347],[6.9738,4.77347],[6.9738,4.77338],[6.97371,4.77338],[6.97371,4.7732],[6.97362,4.7732],[6.97362,4.77302],[6.9738,4.77302],[6.9738,4.77275],[6.97389,4.77275],[6.97389,4.77266],[6.9738,4.77266],[6.9738,4.77257],[6.97398,4.77257],[6.97398,4.77248],[6.97407,4.77248],[6.97407,4.77257],[6.97425,4.77257],[6.97425,4.77266],[6.97434,4.77266],[6.97434,4.77275],[6.97443,4.77275],[6.97443,4.77284],[6.97452,4.77284],[6.97452,4.77302],[6.97443,4.77302],[6.97443,4.77347],[6.97425,4.77347],[6.97425,4.77356],[6.97398,4.77356]]]}},{"type":"Feature","properties":{},"geometry":{"geodesic":false,"type":"Polygon","coordinates":[[[6.97416,4.7856],[6.97416,4.78551],[6.97425,4.78551],[6.97425,4.78542],[6.97416,4.78542],[6.97416,4.78533],[6.97398,4.78533],[6.97398,4.78488],[6.97371,4.78488],[6.97371,4.78407],[6.97398,4.78407],[6.97398,4.78416],[6.97416,4.78416],[6.97416,4.78488],[6.97425,4.78488],[6.97425,4.78497],[6.97434,4.78497],[6.97434,4.78515],[6.97443,4.78515],[6.97443,4.78533],[6.97452,4.78533],[6.97452,4.78551],[6.97425,4.78551],[6.97425,4.7856],[6.97416,4.7856]]]}},{"type":"Feature","properties":{},"geometry":{"geodesic":false,"type":"Polygon","coordinates":[[[6.97416,4.79188],[6.97416,4.79179],[6.97407,4.79179],[6.97407,4.79134],[6.97425,4.79134],[6.97425,4.79081],[6.97533,4.79081],[6.97533,4.79054],[6.97506,4.79054],[6.97506,4.79027],[6.97533,4.79027],[6.97533,4.78973],[6.9756,4.78973],[6.9756,4.78946],[6.97578,4.78946],[6.97578,4.78964],[6.97569,4.78964],[6.97569,4.78982],[6.97551,4.78982],[6.97551,4.79009],[6.9756,4.79009],[6.9756,4.79036],[6.97569,4.79036],[6.97569,4.79045],[6.97578,4.79045],[6.97578,4.79054],[6.97569,4.79054],[6.97569,4.79063],[6.97578,4.79063],[6.97578,4.79081],[6.97569,4.79081],[6.97569,4.7909],[6.9756,4.7909],[6.9756,4.79098],[6.97551,4.79098],[6.97551,4.79107],[6.97515,4.79107],[6.97515,4.79098],[6.97506,4.79098],[6.97506,4.79107],[6.97479,4.79107],[6.97479,4.79116],[6.9747,4.79116],[6.9747,4.79125],[6.97452,4.79125],[6.97452,4.79134],[6.97443,4.79134],[6.97443,4.7917],[6.97425,4.7917],[6.97425,4.79188],[6.97416,4.79188]]]}},{"type":"Feature","properties":{},"geometry":{"geodesic":false,"type":"Polygon","coordinates":[[[6.97793,4.77248],[6.97793,4.77221],[6.97784,4.77221],[6.97784,4.77167],[6.97793,4.77167],[6.97793,4.77158],[6.97802,4.77158],[6.97802,4.77167],[6.97829,4.77167],[6.97829,4.7714],[6.97838,4.7714],[6.97838,4.77149],[6.97847,4.77149],[6.97847,4.77176],[6.97856,4.77176],[6.97856,4.77194],[6.97847,4.77194],[6.97847,4.7723],[6.97838,4.7723],[6.97838,4.77221],[6.97829,4.77221],[6.97829,4.7723],[6.9782,4.7723],[6.9782,4.77239],[6.97802,4.77239],[6.97802,4.77248],[6.97793,4.77248]]]}},{"type":"Feature","properties":{},"geometry":{"geodesic":false,"type":"Polygon","coordinates":[[[6.98108,4.78029],[6.98108,4.78003],[6.98117,4.78003],[6.98117,4.77994],[6.98108,4.77994],[6.98108,4.77985],[6.9809,4.77985],[6.9809,4.78003],[6.98081,4.78003],[6.98081,4.78021],[6.9809,4.78021],[6.9809,4.78029],[6.98072,4.78029],[6.98072,4.77976],[6.98099,4.77976],[6.98099,4.77949],[6.98126,4.77949],[6.98126,4.77922],[6.98099,4.77922],[6.98099,4.77895],[6.98126,4.77895],[6.98126,4.7785],[6.98135,4.7785],[6.98135,4.77859],[6.98153,4.77859],[6.98153,4.77886],[6.98162,4.77886],[6.98162,4.77913],[6.98153,4.77913],[6.98153,4.77958],[6.98144,4.77958],[6.98144,4.78012],[6.98135,4.78012],[6.98135,4.78029],[6.98108,4.78029]],[[6.98144,4.77949],[6.98135,4.77949],[6.98135,4.7794],[6.98144,4.7794],[6.98144,4.77949]]]}},{"type":"Feature","properties":{},"geometry":{"geodesic":false,"type":"Polygon","coordinates":[[[6.98512,4.78721],[6.98512,4.78712],[6.98503,4.78712],[6.98503,4.78721],[6.98494,4.78721],[6.98494,4.78712],[6.98458,4.78712],[6.98458,4.78721],[6.98449,4.78721],[6.98449,4.78694],[6.98458,4.78694],[6.98458,4.78658],[6.98449,4.78658],[6.98449,4.78649],[6.98476,4.78649],[6.98476,4.78667],[6.98485,4.78667],[6.98485,4.78694],[6.98521,4.78694],[6.98521,4.78685],[6.98539,4.78685],[6.98539,4.78676],[6.98548,4.78676],[6.98548,4.78667],[6.98584,4.78667],[6.98584,4.78658],[6.98593,4.78658],[6.98593,4.78676],[6.98557,4.78676],[6.98557,4.78694],[6.98548,4.78694],[6.98548,4.78712],[6.98539,4.78712],[6.98539,4.78703],[6.9853,4.78703],[6.9853,4.78712],[6.98521,4.78712],[6.98521,4.78721],[6.98512,4.78721]]]}},{"type":"Feature","properties":{},"geometry":{"geodesic":false,"type":"Polygon","coordinates":[[[6.98862,4.78757],[6.98862,4.78748],[6.98853,4.78748],[6.98853,4.78721],[6.98862,4.78721],[6.98862,4.78694],[6.98871,4.78694],[6.98871,4.78676],[6.9888,4.78676],[6.9888,4.78658],[6.98898,4.78658],[6.98898,4.7864],[6.98889,4.7864],[6.98889,4.78631],[6.98898,4.78631],[6.98898,4.78622],[6.98889,4.78622],[6.98889,4.78595],[6.98898,4.78595],[6.98898,4.78586],[6.98907,4.78586],[6.98907,4.78577],[6.98916,4.78577],[6.98916,4.78568],[6.98925,4.78568],[6.98925,4.78551],[6.98934,4.78551],[6.98934,4.78542],[6.98943,4.78542],[6.98943,4.78533],[6.98952,4.78533],[6.98952,4.78515],[6.98961,4.78515],[6.98961,4.7847],[6.98943,4.7847],[6.98943,4.78488],[6.98934,4.78488],[6.98934,4.7838],[6.98943,4.7838],[6.98943,4.78398],[6.98952,4.78398],[6.98952,4.78407],[6.98961,4.78407],[6.98961,4.78416],[6.98952,4.78416],[6.98952,4.78407],[6.98943,4.78407],[6.98943,4.78443],[6.9897,4.78443],[6.9897,4.78434],[6.98979,4.78434],[6.98979,4.78425],[6.9897,4.78425],[6.9897,4.78389],[6.98979,4.78389],[6.98979,4.78398],[6.98988,4.78398],[6.98988,4.78389],[6.98997,4.78389],[6.98997,4.7838],[6.99006,4.7838],[6.99006,4.78371],[6.99015,4.78371],[6.99015,4.7838],[6.99006,4.7838],[6.99006,4.78407],[6.98997,4.78407],[6.98997,4.78488],[6.98988,4.78488],[6.98988,4.78524],[6.98979,4.78524],[6.98979,4.78542],[6.9897,4.78542],[6.9897,4.78551],[6.98961,4.78551],[6.98961,4.78568],[6.98952,4.78568],[6.98952,4.78586],[6.98943,4.78586],[6.98943,4.78604],[6.98934,4.78604],[6.98934,4.78613],[6.98925,4.78613],[6.98925,4.78631],[6.98916,4.78631],[6.98916,4.78649],[6.98907,4.78649],[6.98907,4.78676],[6.98898,4.78676],[6.98898,4.78703],[6.98889,4.78703],[6.98889,4.7873],[6.9888,4.7873],[6.9888,4.78739],[6.98871,4.78739],[6.98871,4.78757],[6.98862,4.78757]],[[6.98952,4.78461],[6.98943,4.78461],[6.98943,4.78452],[6.98952,4.78452],[6.98952,4.78461]]]}},{"type":"Feature","properties":{},"geometry":{"geodesic":false,"type":"Polygon","coordinates":[[[6.99042,4.78344],[6.99042,4.78335],[6.99051,4.78335],[6.99051,4.78317],[6.9906,4.78317],[6.9906,4.7829],[6.99069,4.7829],[6.99069,4.78209],[6.99078,4.78209],[6.99078,4.78254],[6.99087,4.78254],[6.99087,4.78209],[6.99096,4.78209],[6.99096,4.782],[6.99105,4.782],[6.99105,4.78209],[6.99114,4.78209],[6.99114,4.78218],[6.99105,4.78218],[6.99105,4.78227],[6.99114,4.78227],[6.99114,4.78281],[6.99105,4.78281],[6.99105,4.78308],[6.99096,4.78308],[6.99096,4.78317],[6.99087,4.78317],[6.99087,4.78326],[6.99078,4.78326],[6.99078,4.78335],[6.99069,4.78335],[6.99069,4.78344],[6.99042,4.78344]]]}},{"type":"Feature","properties":{},"geometry":{"geodesic":false,"type":"Polygon","coordinates":[[[6.99132,4.78173],[6.99132,4.78155],[6.9915,4.78155],[6.9915,4.78137],[6.99168,4.78137],[6.99168,4.78128],[6.99159,4.78128],[6.99159,4.78119],[6.99168,4.78119],[6.99168,4.78128],[6.99177,4.78128],[6.99177,4.78119],[6.99195,4.78119],[6.99195,4.7811],[6.99204,4.7811],[6.99204,4.78101],[6.99186,4.78101],[6.99186,4.7811],[6.99177,4.7811],[6.99177,4.78092],[6.99195,4.78092],[6.99195,4.78083],[6.99204,4.78083],[6.99204,4.78047],[6.99213,4.78047],[6.99213,4.78038],[6.99222,4.78038],[6.99222,4.78029],[6.99231,4.78029],[6.99231,4.78047],[6.99222,4.78047],[6.99222,4.78056],[6.99231,4.78056],[6.99231,4.78065],[6.99249,4.78065],[6.99249,4.78074],[6.99258,4.78074],[6.99258,4.78092],[6.99249,4.78092],[6.99249,4.78101],[6.9924,4.78101],[6.9924,4.7811],[6.99231,4.7811],[6.99231,4.78119],[6.99222,4.78119],[6.99222,4.78128],[6.99213,4.78128],[6.99213,4.78137],[6.99204,4.78137],[6.99204,4.78146],[6.99195,4.78146],[6.99195,4.78155],[6.99186,4.78155],[6.99186,4.78164],[6.99177,4.78164],[6.99177,4.78173],[6.99132,4.78173]]]}},{"type":"Feature","properties":{},"geometry":{"geodesic":false,"type":"Polygon","coordinates":[[[6.99365,4.78021],[6.99365,4.78012],[6.99374,4.78012],[6.99374,4.78003],[6.99365,4.78003],[6.99365,4.77994],[6.99374,4.77994],[6.99374,4.78003],[6.99383,4.78003],[6.99383,4.77985],[6.99374,4.77985],[6.99374,4.77976],[6.99383,4.77976],[6.99383,4.77967],[6.99392,4.77967],[6.99392,4.77976],[6.99401,4.77976],[6.99401,4.77958],[6.99392,4.77958],[6.99392,4.77949],[6.99401,4.77949],[6.99401,4.7794],[6.99392,4.7794],[6.99392,4.77922],[6.99464,4.77922],[6.99464,4.77931],[6.99473,4.77931],[6.99473,4.77949],[6.995,4.77949],[6.995,4.78003],[6.99482,4.78003],[6.99482,4.77976],[6.99473,4.77976],[6.99473,4.77958],[6.99464,4.77958],[6.99464,4.77949],[6.99446,4.77949],[6.99446,4.77958],[6.99428,4.77958],[6.99428,4.77967],[6.99419,4.77967],[6.99419,4.77985],[6.9941,4.77985],[6.9941,4.78003],[6.99401,4.78003],[6.99401,4.78012],[6.99392,4.78012],[6.99392,4.78021],[6.99365,4.78021]],[[6.99392,4.77985],[6.99383,4.77985],[6.99383,4.77976],[6.99392,4.77976],[6.99392,4.77985]]]}},{"type":"Feature","properties":{},"geometry":{"geodesic":false,"type":"Polygon","coordinates":[[[7.00264,4.77787],[7.00264,4.77778],[7.00219,4.77778],[7.00219,4.7776],[7.0021,4.7776],[7.0021,4.77751],[7.00201,4.77751],[7.00201,4.77733],[7.00255,4.77733],[7.00255,4.77679],[7.00228,4.77679],[7.00228,4.77661],[7.00255,4.77661],[7.00255,4.7767],[7.00273,4.7767],[7.00273,4.77679],[7.00282,4.77679],[7.00282,4.77688],[7.00291,4.77688],[7.00291,4.77706],[7.003,4.77706],[7.003,4.77751],[7.00291,4.77751],[7.00291,4.7776],[7.00282,4.7776],[7.00282,4.77778],[7.00273,4.77778],[7.00273,4.77787],[7.00264,4.77787]],[[7.00228,4.7776],[7.00219,4.7776],[7.00219,4.77751],[7.00228,4.77751],[7.00228,4.7776]],[[7.00255,4.77769],[7.00237,4.77769],[7.00237,4.77751],[7.00246,4.77751],[7.00246,4.77742],[7.00255,4.77742],[7.00255,4.77733],[7.00264,4.77733],[7.00264,4.77751],[7.00273,4.77751],[7.00273,4.7776],[7.00255,4.7776],[7.00255,4.77769]]]}},{"type":"Feature","properties":{},"geometry":{"geodesic":false,"type":"Polygon","coordinates":[[[7.00659,4.76439],[7.00659,4.76413],[7.00632,4.76413],[7.00632,4.76359],[7.00605,4.76359],[7.00605,4.76332],[7.00578,4.76332],[7.00578,4.76278],[7.00551,4.76278],[7.00551,4.76269],[7.0056,4.76269],[7.0056,4.76251],[7.00578,4.76251],[7.00578,4.76224],[7.00551,4.76224],[7.00551,4.76197],[7.00524,4.76197],[7.00524,4.76143],[7.00551,4.76143],[7.00551,4.76161],[7.0056,4.76161],[7.0056,4.7617],[7.00569,4.7617],[7.00569,4.76152],[7.00578,4.76152],[7.00578,4.76143],[7.00587,4.76143],[7.00587,4.76161],[7.00596,4.76161],[7.00596,4.76179],[7.00587,4.76179],[7.00587,4.76206],[7.00596,4.76206],[7.00596,4.76224],[7.00605,4.76224],[7.00605,4.76305],[7.00614,4.76305],[7.00614,4.76314],[7.00623,4.76314],[7.00623,4.76323],[7.00632,4.76323],[7.00632,4.76359],[7.00641,4.76359],[7.00641,4.76386],[7.0065,4.76386],[7.0065,4.76404],[7.00659,4.76404],[7.00659,4.76413],[7.00668,4.76413],[7.00668,4.7643],[7.00677,4.7643],[7.00677,4.76439],[7.00659,4.76439]]]}},{"type":"Feature","properties":{},"geometry":{"geodesic":false,"type":"Polygon","coordinates":[[[7.00686,4.77464],[7.00686,4.77437],[7.00713,4.77437],[7.00713,4.7741],[7.00821,4.7741],[7.00821,4.77383],[7.00857,4.77383],[7.00857,4.77401],[7.00848,4.77401],[7.00848,4.7741],[7.00839,4.7741],[7.00839,4.77419],[7.00785,4.77419],[7.00785,4.77428],[7.00758,4.77428],[7.00758,4.77437],[7.0074,4.77437],[7.0074,4.77446],[7.00722,4.77446],[7.00722,4.77455],[7.00704,4.77455],[7.00704,4.77464],[7.00686,4.77464]]]}},{"type":"Feature","properties":{},"geometry":{"geodesic":false,"type":"Polygon","coordinates":[[[7.00955,4.79072],[7.00955,4.79054],[7.00964,4.79054],[7.00964,4.79036],[7.00973,4.79036],[7.00973,4.79018],[7.00964,4.79018],[7.00964,4.79027],[7.00955,4.79027],[7.00955,4.79],[7.00982,4.79],[7.00982,4.78973],[7.01009,4.78973],[7.01009,4.78892],[7.01018,4.78892],[7.01018,4.78901],[7.01027,4.78901],[7.01027,4.78892],[7.01036,4.78892],[7.01036,4.78883],[7.01054,4.78883],[7.01054,4.78892],[7.01081,4.78892],[7.01081,4.78901],[7.01072,4.78901],[7.01072,4.78919],[7.01063,4.78919],[7.01063,4.78928],[7.01054,4.78928],[7.01054,4.78937],[7.01045,4.78937],[7.01045,4.78982],[7.01036,4.78982],[7.01036,4.79],[7.01027,4.79],[7.01027,4.79018],[7.01018,4.79018],[7.01018,4.79036],[7.01009,4.79036],[7.01009,4.79045],[7.01,4.79045],[7.01,4.79063],[7.00982,4.79063],[7.00982,4.79072],[7.00955,4.79072]],[[7.01027,4.78937],[7.01018,4.78937],[7.01018,4.78928],[7.01027,4.78928],[7.01027,4.78937]],[[7.00991,4.79018],[7.00982,4.79018],[7.00982,4.79009],[7.00991,4.79009],[7.00991,4.79018]]]}},{"type":"Feature","properties":{},"geometry":{"geodesic":false,"type":"Polygon","coordinates":[[[7.01153,4.78874],[7.01153,4.78865],[7.01144,4.78865],[7.01144,4.78856],[7.01117,4.78856],[7.01117,4.78847],[7.01063,4.78847],[7.01063,4.78838],[7.01225,4.78838],[7.01225,4.78811],[7.01279,4.78811],[7.01279,4.78784],[7.01297,4.78784],[7.01297,4.78793],[7.01306,4.78793],[7.01306,4.78784],[7.01333,4.78784],[7.01333,4.78802],[7.01342,4.78802],[7.01342,4.78793],[7.01378,4.78793],[7.01378,4.78784],[7.01414,4.78784],[7.01414,4.78757],[7.01441,4.78757],[7.01441,4.7873],[7.01548,4.7873],[7.01548,4.78703],[7.01575,4.78703],[7.01575,4.7873],[7.01548,4.7873],[7.01548,4.78739],[7.0153,4.78739],[7.0153,4.78748],[7.01512,4.78748],[7.01512,4.78757],[7.01503,4.78757],[7.01503,4.78766],[7.01494,4.78766],[7.01494,4.78775],[7.01476,4.78775],[7.01476,4.78784],[7.01467,4.78784],[7.01467,4.78793],[7.01449,4.78793],[7.01449,4.78802],[7.01432,4.78802],[7.01432,4.78811],[7.01396,4.78811],[7.01396,4.78802],[7.01387,4.78802],[7.01387,4.78811],[7.01369,4.78811],[7.01369,4.7882],[7.01342,4.7882],[7.01342,4.78829],[7.01306,4.78829],[7.01306,4.78838],[7.0127,4.78838],[7.0127,4.78847],[7.01252,4.78847],[7.01252,4.78856],[7.01243,4.78856],[7.01243,4.78865],[7.01207,4.78865],[7.01207,4.78874],[7.01153,4.78874]],[[7.01315,4.78802],[7.01306,4.78802],[7.01306,4.78793],[7.01315,4.78793],[7.01315,4.78802]],[[7.01333,4.78811],[7.01324,4.78811],[7.01324,4.78802],[7.01333,4.78802],[7.01333,4.78811]]]}},{"type":"Feature","properties":{},"geometry":{"geodesic":false,"type":"Polygon","coordinates":[[[7.01494,4.80132],[7.01494,4.80114],[7.01476,4.80114],[7.01476,4.80096],[7.01467,4.80096],[7.01467,4.8006],[7.01476,4.8006],[7.01476,4.80033],[7.01494,4.80033],[7.01494,4.80024],[7.01503,4.80024],[7.01503,4.80015],[7.01521,4.80015],[7.01521,4.80051],[7.01494,4.80051],[7.01494,4.80078],[7.01521,4.80078],[7.01521,4.80105],[7.01566,4.80105],[7.01566,4.80114],[7.0153,4.80114],[7.0153,4.80123],[7.01521,4.80123],[7.01521,4.80132],[7.01494,4.80132]]]}},{"type":"Feature","properties":{},"geometry":{"geodesic":false,"type":"Polygon","coordinates":[[[7.01602,4.78946],[7.01602,4.78937],[7.01638,4.78937],[7.01638,4.78928],[7.01647,4.78928],[7.01647,4.78919],[7.01656,4.78919],[7.01656,4.78901],[7.01665,4.78901],[7.01665,4.78883],[7.01674,4.78883],[7.01674,4.78865],[7.01665,4.78865],[7.01665,4.78856],[7.01674,4.78856],[7.01674,4.78829],[7.01692,4.78829],[7.01692,4.78802],[7.01674,4.78802],[7.01674,4.78793],[7.01665,4.78793],[7.01665,4.78775],[7.01656,4.78775],[7.01656,4.78766],[7.01647,4.78766],[7.01647,4.78757],[7.01629,4.78757],[7.01629,4.78748],[7.01602,4.78748],[7.01602,4.78739],[7.01593,4.78739],[7.01593,4.7873],[7.01602,4.7873],[7.01602,4.78712],[7.01611,4.78712],[7.01611,4.78703],[7.01629,4.78703],[7.01629,4.7873],[7.01683,4.7873],[7.01683,4.78757],[7.0171,4.78757],[7.0171,4.78865],[7.01683,4.78865],[7.01683,4.78919],[7.01656,4.78919],[7.01656,4.78937],[7.01638,4.78937],[7.01638,4.78946],[7.01602,4.78946]],[[7.0162,4.7873],[7.01611,4.7873],[7.01611,4.78721],[7.0162,4.78721],[7.0162,4.7873]]]}},{"type":"Feature","properties":{},"geometry":{"geodesic":false,"type":"Polygon","coordinates":[[[7.01764,4.80105],[7.01764,4.80078],[7.01746,4.80078],[7.01746,4.8006],[7.01737,4.8006],[7.01737,4.80051],[7.01764,4.80051],[7.01764,4.80006],[7.01782,4.80006],[7.01782,4.79988],[7.01755,4.79988],[7.01755,4.79979],[7.01746,4.79979],[7.01746,4.79952],[7.01737,4.79952],[7.01737,4.79934],[7.01728,4.79934],[7.01728,4.79916],[7.01737,4.79916],[7.01737,4.79907],[7.01755,4.79907],[7.01755,4.79898],[7.01764,4.79898],[7.01764,4.7988],[7.01782,4.7988],[7.01782,4.79871],[7.01764,4.79871],[7.01764,4.79862],[7.01809,4.79862],[7.01809,4.79853],[7.01818,4.79853],[7.01818,4.79835],[7.01827,4.79835],[7.01827,4.79862],[7.01818,4.79862],[7.01818,4.79871],[7.01809,4.79871],[7.01809,4.7988],[7.018,4.7988],[7.018,4.79889],[7.01791,4.79889],[7.01791,4.79898],[7.01782,4.79898],[7.01782,4.79907],[7.01773,4.79907],[7.01773,4.79916],[7.01764,4.79916],[7.01764,4.79925],[7.01773,4.79925],[7.01773,4.79934],[7.01764,4.79934],[7.01764,4.79961],[7.01773,4.79961],[7.01773,4.7997],[7.018,4.7997],[7.018,4.79961],[7.01818,4.79961],[7.01818,4.7997],[7.01827,4.7997],[7.01827,4.79988],[7.01818,4.79988],[7.01818,4.79979],[7.01809,4.79979],[7.01809,4.79997],[7.018,4.79997],[7.018,4.80006],[7.01809,4.80006],[7.01809,4.80015],[7.01818,4.80015],[7.01818,4.80024],[7.01827,4.80024],[7.01827,4.80033],[7.01836,4.80033],[7.01836,4.80051],[7.01818,4.80051],[7.01818,4.8006],[7.01809,4.8006],[7.01809,4.80069],[7.01791,4.80069],[7.01791,4.80051],[7.01764,4.80051],[7.01764,4.80078],[7.01773,4.80078],[7.01773,4.80087],[7.01782,4.80087],[7.01782,4.80096],[7.01773,4.80096],[7.01773,4.80105],[7.01764,4.80105]]]}},{"type":"Feature","properties":{},"geometry":{"geodesic":false,"type":"Polygon","coordinates":[[[7.02285,4.7979],[7.02285,4.79781],[7.02276,4.79781],[7.02276,4.79745],[7.02267,4.79745],[7.02267,4.79727],[7.02276,4.79727],[7.02276,4.79646],[7.02285,4.79646],[7.02285,4.79628],[7.02294,4.79628],[7.02294,4.7962],[7.02303,4.7962],[7.02303,4.79637],[7.02312,4.79637],[7.02312,4.79673],[7.02303,4.79673],[7.02303,4.79718],[7.02294,4.79718],[7.02294,4.79736],[7.02303,4.79736],[7.02303,4.79772],[7.02294,4.79772],[7.02294,4.7979],[7.02285,4.7979]]]}},{"type":"Feature","properties":{},"geometry":{"geodesic":false,"type":"Polygon","coordinates":[[[7.02294,4.79485],[7.02294,4.79458],[7.02303,4.79458],[7.02303,4.79431],[7.02294,4.79431],[7.02294,4.79386],[7.02285,4.79386],[7.02285,4.79395],[7.02276,4.79395],[7.02276,4.79386],[7.02285,4.79386],[7.02285,4.7935],[7.02303,4.7935],[7.02303,4.79269],[7.0233,4.79269],[7.0233,4.79242],[7.02357,4.79242],[7.02357,4.79179],[7.02366,4.79179],[7.02366,4.7917],[7.02375,4.7917],[7.02375,4.79179],[7.02384,4.79179],[7.02384,4.79188],[7.02366,4.79188],[7.02366,4.79197],[7.02375,4.79197],[7.02375,4.79206],[7.02366,4.79206],[7.02366,4.79215],[7.02375,4.79215],[7.02375,4.79233],[7.02366,4.79233],[7.02366,4.79251],[7.02357,4.79251],[7.02357,4.79278],[7.02348,4.79278],[7.02348,4.79305],[7.02339,4.79305],[7.02339,4.79332],[7.0233,4.79332],[7.0233,4.79359],[7.02321,4.79359],[7.02321,4.79386],[7.0233,4.79386],[7.0233,4.79431],[7.02321,4.79431],[7.02321,4.79467],[7.02312,4.79467],[7.02312,4.79476],[7.02303,4.79476],[7.02303,4.79485],[7.02294,4.79485]]]}},{"type":"Feature","properties":{},"geometry":{"geodesic":false,"type":"Polygon","coordinates":[[[7.02474,4.77913],[7.02474,4.77904],[7.02447,4.77904],[7.02447,4.77913],[7.02429,4.77913],[7.02429,4.77904],[7.0242,4.77904],[7.0242,4.77913],[7.02411,4.77913],[7.02411,4.77904],[7.02393,4.77904],[7.02393,4.77886],[7.02384,4.77886],[7.02384,4.77868],[7.02375,4.77868],[7.02375,4.77832],[7.02384,4.77832],[7.02384,4.77841],[7.02411,4.77841],[7.02411,4.77868],[7.02465,4.77868],[7.02465,4.77895],[7.02492,4.77895],[7.02492,4.77868],[7.02572,4.77868],[7.02572,4.77904],[7.02518,4.77904],[7.02518,4.77895],[7.0251,4.77895],[7.0251,4.77904],[7.02492,4.77904],[7.02492,4.77913],[7.02474,4.77913]]]}},{"type":"Feature","properties":{},"geometry":{"geodesic":false,"type":"Polygon","coordinates":[[[7.02599,4.75487],[7.02599,4.75442],[7.02626,4.75442],[7.02626,4.75388],[7.0268,4.75388],[7.0268,4.75361],[7.02716,4.75361],[7.02716,4.75379],[7.02698,4.75379],[7.02698,4.75388],[7.0268,4.75388],[7.0268,4.75406],[7.02671,4.75406],[7.02671,4.75415],[7.02662,4.75415],[7.02662,4.75424],[7.02653,4.75424],[7.02653,4.75433],[7.02644,4.75433],[7.02644,4.75451],[7.02635,4.75451],[7.02635,4.7546],[7.02626,4.7546],[7.02626,4.75469],[7.02635,4.75469],[7.02635,4.75478],[7.02626,4.75478],[7.02626,4.75487],[7.02599,4.75487]]]}},{"type":"Feature","properties":{},"geometry":{"geodesic":false,"type":"Polygon","coordinates":[[[7.02941,4.77329],[7.02941,4.77311],[7.02932,4.77311],[7.02932,4.77302],[7.02923,4.77302],[7.02923,4.77248],[7.02977,4.77248],[7.02977,4.77221],[7.03022,4.77221],[7.03022,4.77248],[7.03031,4.77248],[7.03031,4.77257],[7.0304,4.77257],[7.0304,4.77266],[7.03048,4.77266],[7.03048,4.77275],[7.0304,4.77275],[7.0304,4.77284],[7.03066,4.77284],[7.03066,4.77293],[7.03057,4.77293],[7.03057,4.77311],[7.03048,4.77311],[7.03048,4.7732],[7.0304,4.7732],[7.0304,4.77329],[7.02941,4.77329]]]}},{"type":"Feature","properties":{},"geometry":{"geodesic":false,"type":"Polygon","coordinates":[[[7.03156,4.77688],[7.03156,4.77679],[7.03147,4.77679],[7.03147,4.7767],[7.03138,4.7767],[7.03138,4.77661],[7.03129,4.77661],[7.03129,4.77652],[7.0312,4.77652],[7.0312,4.77643],[7.03111,4.77643],[7.03111,4.77625],[7.03093,4.77625],[7.03093,4.77607],[7.03084,4.77607],[7.03084,4.77598],[7.03075,4.77598],[7.03075,4.77589],[7.03057,4.77589],[7.03057,4.77571],[7.03084,4.77571],[7.03084,4.77544],[7.03111,4.77544],[7.03111,4.77571],[7.03138,4.77571],[7.03138,4.7741],[7.03111,4.7741],[7.03111,4.77392],[7.0312,4.77392],[7.0312,4.77401],[7.03138,4.77401],[7.03138,4.7741],[7.03156,4.7741],[7.03156,4.77419],[7.03165,4.77419],[7.03165,4.77446],[7.03174,4.77446],[7.03174,4.77464],[7.03183,4.77464],[7.03183,4.77535],[7.03174,4.77535],[7.03174,4.77544],[7.03183,4.77544],[7.03183,4.77553],[7.03174,4.77553],[7.03174,4.77562],[7.03183,4.77562],[7.03183,4.77571],[7.03228,4.77571],[7.03228,4.77562],[7.03237,4.77562],[7.03237,4.77571],[7.033,4.77571],[7.033,4.7758],[7.03318,4.7758],[7.03318,4.77571],[7.03345,4.77571],[7.03345,4.7758],[7.03372,4.7758],[7.03372,4.77589],[7.0339,4.77589],[7.0339,4.77598],[7.03408,4.77598],[7.03408,4.77616],[7.03417,4.77616],[7.03417,4.77643],[7.03408,4.77643],[7.03408,4.77652],[7.0339,4.77652],[7.0339,4.77661],[7.03381,4.77661],[7.03381,4.7767],[7.03372,4.7767],[7.03372,4.77652],[7.03354,4.77652],[7.03354,4.77643],[7.03345,4.77643],[7.03345,4.77652],[7.03327,4.77652],[7.03327,4.77634],[7.03318,4.77634],[7.03318,4.77616],[7.03309,4.77616],[7.03309,4.77607],[7.03291,4.77607],[7.03291,4.77598],[7.03246,4.77598],[7.03246,4.77625],[7.03237,4.77625],[7.03237,4.77634],[7.03246,4.77634],[7.03246,4.77652],[7.03192,4.77652],[7.03192,4.77679],[7.03165,4.77679],[7.03165,4.77688],[7.03156,4.77688]],[[7.03111,4.77598],[7.03084,4.77598],[7.03084,4.77571],[7.03111,4.77571],[7.03111,4.77598]],[[7.03381,4.77625],[7.03327,4.77625],[7.03327,4.77598],[7.03381,4.77598],[7.03381,4.77625]]]}},{"type":"Feature","properties":{},"geometry":{"geodesic":false,"type":"Polygon","coordinates":[[[7.03111,4.77841],[7.03111,4.77832],[7.03102,4.77832],[7.03102,4.77823],[7.03093,4.77823],[7.03093,4.77805],[7.03084,4.77805],[7.03084,4.77796],[7.03075,4.77796],[7.03075,4.77778],[7.03066,4.77778],[7.03066,4.77787],[7.03057,4.77787],[7.03057,4.77778],[7.03048,4.77778],[7.03048,4.7776],[7.03057,4.7776],[7.03057,4.77733],[7.03066,4.77733],[7.03066,4.77724],[7.03075,4.77724],[7.03075,4.77715],[7.03084,4.77715],[7.03084,4.77706],[7.03093,4.77706],[7.03093,4.77697],[7.03102,4.77697],[7.03102,4.77706],[7.03111,4.77706],[7.03111,4.77715],[7.0312,4.77715],[7.0312,4.77724],[7.03147,4.77724],[7.03147,4.77733],[7.03165,4.77733],[7.03165,4.77715],[7.03174,4.77715],[7.03174,4.77706],[7.03219,4.77706],[7.03219,4.77679],[7.03246,4.77679],[7.03246,4.77688],[7.03264,4.77688],[7.03264,4.77697],[7.03273,4.77697],[7.03273,4.77706],[7.03282,4.77706],[7.03282,4.77715],[7.03291,4.77715],[7.03291,4.77724],[7.03318,4.77724],[7.03318,4.77742],[7.03327,4.77742],[7.03327,4.77751],[7.033,4.77751],[7.033,4.77742],[7.03282,4.77742],[7.03282,4.7776],[7.03273,4.7776],[7.03273,4.77751],[7.03264,4.77751],[7.03264,4.77724],[7.03255,4.77724],[7.03255,4.77733],[7.03219,4.77733],[7.03219,4.77724],[7.03192,4.77724],[7.03192,4.77733],[7.03165,4.77733],[7.03165,4.7776],[7.03183,4.7776],[7.03183,4.77778],[7.03192,4.77778],[7.03192,4.77796],[7.03183,4.77796],[7.03183,4.77805],[7.03192,4.77805],[7.03192,4.77823],[7.03174,4.77823],[7.03174,4.77832],[7.03165,4.77832],[7.03165,4.77841],[7.03111,4.77841]]]}},{"type":"Feature","properties":{},"geometry":{"geodesic":false,"type":"Polygon","coordinates":[[[7.03381,4.77086],[7.03381,4.77059],[7.03372,4.77059],[7.03372,4.7705],[7.03381,4.7705],[7.03381,4.77059],[7.03408,4.77059],[7.03408,4.77005],[7.03435,4.77005],[7.03435,4.76978],[7.03462,4.76978],[7.03462,4.76952],[7.03516,4.76952],[7.03516,4.76961],[7.03507,4.76961],[7.03507,4.76969],[7.03471,4.76969],[7.03471,4.76987],[7.03462,4.76987],[7.03462,4.77005],[7.03435,4.77005],[7.03435,4.77032],[7.03426,4.77032],[7.03426,4.77041],[7.03471,4.77041],[7.03471,4.77032],[7.0348,4.77032],[7.0348,4.77041],[7.03489,4.77041],[7.03489,4.77068],[7.03471,4.77068],[7.03471,4.7705],[7.03426,4.7705],[7.03426,4.77059],[7.03417,4.77059],[7.03417,4.77068],[7.03408,4.77068],[7.03408,4.77077],[7.03399,4.77077],[7.03399,4.77086],[7.03381,4.77086]]]}},{"type":"Feature","properties":{},"geometry":{"geodesic":false,"type":"Polygon","coordinates":[[[7.03399,4.77437],[7.03399,4.77356],[7.03417,4.77356],[7.03417,4.77338],[7.03408,4.77338],[7.03408,4.77311],[7.03399,4.77311],[7.03399,4.77266],[7.0339,4.77266],[7.0339,4.77176],[7.03381,4.77176],[7.03381,4.77158],[7.0339,4.77158],[7.0339,4.7714],[7.03354,4.7714],[7.03354,4.77113],[7.03399,4.77113],[7.03399,4.7714],[7.03408,4.7714],[7.03408,4.77149],[7.03417,4.77149],[7.03417,4.77167],[7.03408,4.77167],[7.03408,4.77194],[7.03426,4.77194],[7.03426,4.77221],[7.03417,4.77221],[7.03417,4.7723],[7.03426,4.7723],[7.03426,4.77329],[7.03435,4.77329],[7.03435,4.77338],[7.03426,4.77338],[7.03426,4.77356],[7.03435,4.77356],[7.03435,4.77392],[7.03426,4.77392],[7.03426,4.77437],[7.03399,4.77437]],[[7.03426,4.77338],[7.03417,4.77338],[7.03417,4.77329],[7.03426,4.77329],[7.03426,4.77338]]]}},{"type":"Feature","properties":{},"geometry":{"geodesic":false,"type":"Polygon","coordinates":[[[7.03965,4.77616],[7.03965,4.77598],[7.03983,4.77598],[7.03983,4.7758],[7.03992,4.7758],[7.03992,4.77562],[7.0401,4.77562],[7.0401,4.77553],[7.04028,4.77553],[7.04028,4.77544],[7.04019,4.77544],[7.04019,4.77535],[7.04028,4.77535],[7.04028,4.77544],[7.04037,4.77544],[7.04037,4.77526],[7.04046,4.77526],[7.04046,4.77508],[7.04055,4.77508],[7.04055,4.77491],[7.04064,4.77491],[7.04064,4.77482],[7.04073,4.77482],[7.04073,4.77473],[7.04082,4.77473],[7.04082,4.77464],[7.04091,4.77464],[7.04091,4.77491],[7.04082,4.77491],[7.04082,4.77517],[7.04073,4.77517],[7.04073,4.77526],[7.04064,4.77526],[7.04064,4.77553],[7.04055,4.77553],[7.04055,4.77562],[7.04046,4.77562],[7.04046,4.7758],[7.04028,4.7758],[7.04028,4.77598],[7.04019,4.77598],[7.04019,4.77616],[7.03965,4.77616]]]}},{"type":"Feature","properties":{},"geometry":{"geodesic":false,"type":"Polygon","coordinates":[[[7.04639,4.77598],[7.04639,4.77589],[7.0463,4.77589],[7.0463,4.77598],[7.04621,4.77598],[7.04621,4.77562],[7.04639,4.77562],[7.04639,4.77553],[7.04647,4.77553],[7.04647,4.77535],[7.04656,4.77535],[7.04656,4.77526],[7.04665,4.77526],[7.04665,4.77499],[7.04683,4.77499],[7.04683,4.77508],[7.04692,4.77508],[7.04692,4.77544],[7.04701,4.77544],[7.04701,4.77589],[7.04683,4.77589],[7.04683,4.7758],[7.04656,4.7758],[7.04656,4.77589],[7.04647,4.77589],[7.04647,4.77598],[7.04639,4.77598]]]}},{"type":"Feature","properties":{},"geometry":{"geodesic":false,"type":"Polygon","coordinates":[[[7.04827,4.7705],[7.04827,4.77041],[7.04818,4.77041],[7.04818,4.7705],[7.04809,4.7705],[7.04809,4.77032],[7.04818,4.77032],[7.04818,4.77023],[7.04809,4.77023],[7.04809,4.77014],[7.04827,4.77014],[7.04827,4.77023],[7.04836,4.77023],[7.04836,4.77014],[7.04845,4.77014],[7.04845,4.76996],[7.04836,4.76996],[7.04836,4.76978],[7.04863,4.76978],[7.04863,4.76952],[7.0489,4.76952],[7.0489,4.76925],[7.04935,4.76925],[7.04935,4.76934],[7.04926,4.76934],[7.04926,4.76952],[7.04917,4.76952],[7.04917,4.76961],[7.04908,4.76961],[7.04908,4.76969],[7.04899,4.76969],[7.04899,4.76978],[7.0489,4.76978],[7.0489,4.76996],[7.04881,4.76996],[7.04881,4.77005],[7.04872,4.77005],[7.04872,4.77023],[7.04854,4.77023],[7.04854,4.77032],[7.04845,4.77032],[7.04845,4.77041],[7.04836,4.77041],[7.04836,4.7705],[7.04827,4.7705]]]}}]}