{"type":"FeatureCollection","features":[{"type":"Feature","properties":{"rank":1},"geometry":{"type":"LineString","coordinates":[[7.00958,4.79014],[7.00958,4.78986],[7.00958,4.78958],[7.00958,4.78931],[7.00958,4.78903]]}},{"type":"Feature","properties":{"rank":2},"geometry":{"type":"LineString","coordinates":[[7.01125,4.78847],[7.01097,4.78819]]}},{"type":"Feature","properties":{"rank":3},"geometry":{"type":"LineString","coordinates":[[7.00569,4.76153],[7.00542,4.76125],[7.00514,4.76097]]}},{"type":"Feature","properties":{"rank":4},"geometry":{"type":"LineString","coordinates":[[6.97042,4.76931],[6.97042,4.76903],[6.97042,4.76875],[6.97069,4.76847],[6.97069,4.76819],[6.97097,4.76819],[6.97125,4.76819],[6.97153,4.76819],[6.97181,4.76819],[6.97208,4.76819],[6.97236,4.76819],[6.97264,4.76819],[6.97292,4.76819],[6.97319,4.76819],[6.97347,4.76819],[6.97375,4.76819],[6.97403,4.76819],[6.97431,4.76819],[6.97458,4.76792],[6.97486,4.76764],[6.97514,4.76736],[6.97542,4.76736],[6.97542,4.76708],[6.97542,4.76681]]}}]}