{"type":"FeatureCollection","features":[{"type":"Feature","properties":{"rank":4},"geometry":{"geodesic":false,"type":"Polygon","coordinates":[[[6.97003,4.77005],[6.97003,4.76996],[6.96976,4.76996],[6.96976,4.76987],[6.96958,4.76987],[6.96958,4.76996],[6.9694,4.76996],[6.9694,4.76987],[6.96895,4.76987],[6.96895,4.76969],[6.96886,4.76969],[6.96886,4.76961],[6.96913,4.76961],[6.96913,4.76952],[6.9694,4.76952],[6.9694,4.76943],[6.96949,4.76943],[6.96949,4.76934],[6.96976,4.76934],[6.96976,4.76925],[6.96985,4.76925],[6.96985,4.76934],[6.96976,4.76934],[6.96976,4.76943],[6.96985,4.76943],[6.96985,4.76952],[6.97003,4.76952],[6.97003,4.76969],[6.97012,4.76969],[6.97012,4.76961],[6.97021,4.76961],[6.97021,4.76943],[6.9703,4.76943],[6.9703,4.76934],[6.97039,4.76934],[6.97039,4.76916],[6.97048,4.76916],[6.97048,4.76925],[6.97066,4.76925],[6.97066,4.76934],[6.97075,4.76934],[6.97075,4.76943],[6.97084,4.76943],[6.97084,4.76952],[6.97057,4.76952],[6.97057,4.76961],[6.97039,4.76961],[6.97039,4.76987],[6.9703,4.76987],[6.9703,4.76996],[6.97021,4.76996],[6.97021,4.77005],[6.97003,4.77005]],[[6.97057,4.76952],[6.97039,4.76952],[6.97039,4.76943],[6.97057,4.76943],[6.97057,4.76952]],[[6.97039,4.76961],[6.9703,4.76961],[6.9703,4.76952],[6.97039,4.76952],[6.97039,4.76961]],[[6.9703,4.76969],[6.97021,4.76969],[6.97021,4.76961],[6.9703,4.76961],[6.9703,4.76969]],[[6.96985,4.76987],[6.96976,4.76987],[6.96976,4.76978],[6.96985,4.76978],[6.96985,4.76987]]]}},{"type":"Feature","properties":{"rank":3},"geometry":{"geodesic":false,"type":"Polygon","coordinates":[[[7.00659,4.76439],[7.00659,4.76413],[7.00632,4.76413],[7.00632,4.76359],[7.00605,4.76359],[7.00605,4.76332],[7.00578,4.76332],[7.00578,4.76278],[7.00551,4.76278],[7.00551,4.76269],[7.0056,4.76269],[7.0056,4.76251],[7.00578,4.76251],[7.00578,4.76224],[7.00551,4.76224],[7.00551,4.76197],[7.00524,4.76197],[7.00524,4.76143],[7.00551,4.76143],[7.00551,4.76161],[7.0056,4.76161],[7.0056,4.7617],[7.00569,4.7617],[7.00569,4.76152],[7.00578,4.76152],[7.00578,4.76143],[7.00587,4.76143],[7.00587,4.76161],[7.00596,4.76161],[7.00596,4.76179],[7.00587,4.76179],[7.00587,4.76206],[7.00596,4.76206],[7.00596,4.76224],[7.00605,4.76224],[7.00605,4.76305],[7.00614,4.76305],[7.00614,4.76314],[7.00623,4.76314],[7.00623,4.76323],[7.00632,4.76323],[7.00632,4.76359],[7.00641,4.76359],[7.00641,4.76386],[7.0065,4.76386],[7.0065,4.76404],[7.00659,4.76404],[7.00659,4.76413],[7.00668,4.76413],[7.00668,4.7643],[7.00677,4.7643],[7.00677,4.76439],[7.00659,4.76439]]]}},{"type":"Feature","properties":{"rank":1},"geometry":{"geodesic":false,"type":"Polygon","coordinates":[[[7.00955,4.79072],[7.00955,4.79054],[7.00964,4.79054],[7.00964,4.79036],[7.00973,4.79036],[7.00973,4.79018],[7.00964,4.79018],[7.00964,4.79027],[7.00955,4.79027],[7.00955,4.79],[7.00982,4.79],[7.00982,4.78973],[7.01009,4.78973],[7.01009,4.78892],[7.01018,4.78892],[7.01018,4.78901],[7.01027,4.78901],[7.01027,4.78892],[7.01036,4.78892],[7.01036,4.78883],[7.01054,4.78883],[7.01054,4.78892],[7.01081,4.78892],[7.01081,4.78901],[7.01072,4.78901],[7.01072,4.78919],[7.01063,4.78919],[7.01063,4.78928],[7.01054,4.78928],[7.01054,4.78937],[7.01045,4.78937],[7.01045,4.78982],[7.01036,4.78982],[7.01036,4.79],[7.01027,4.79],[7.01027,4.79018],[7.01018,4.79018],[7.01018,4.79036],[7.01009,4.79036],[7.01009,4.79045],[7.01,4.79045],[7.01,4.79063],[7.00982,4.79063],[7.00982,4.79072],[7.00955,4.79072]],[[7.01027,4.78937],[7.01018,4.78937],[7.01018,4.78928],[7.01027,4.78928],[7.01027,4.78937]],[[7.00991,4.79018],[7.00982,4.79018],[7.00982,4.79009],[7.00991,4.79009],[7.00991,4.79018]]]}},{"type":"Feature","properties":{"rank":2},"geometry":{"geodesic":false,"type":"Polygon","coordinates":[[[7.01153,4.78874],[7.01153,4.78865],[7.01144,4.78865],[7.01144,4.78856],[7.01117,4.78856],[7.01117,4.78847],[7.01063,4.78847],[7.01063,4.78838],[7.01225,4.78838],[7.01225,4.78811],[7.01279,4.78811],[7.01279,4.78784],[7.01297,4.78784],[7.01297,4.78793],[7.01306,4.78793],[7.01306,4.78784],[7.01333,4.78784],[7.01333,4.78802],[7.01342,4.78802],[7.01342,4.78793],[7.01378,4.78793],[7.01378,4.78784],[7.01414,4.78784],[7.01414,4.78757],[7.01441,4.78757],[7.01441,4.7873],[7.01548,4.7873],[7.01548,4.78703],[7.01575,4.78703],[7.01575,4.7873],[7.01548,4.7873],[7.01548,4.78739],[7.0153,4.78739],[7.0153,4.78748],[7.01512,4.78748],[7.01512,4.78757],[7.01503,4.78757],[7.01503,4.78766],[7.01494,4.78766],[7.01494,4.78775],[7.01476,4.78775],[7.01476,4.78784],[7.01467,4.78784],[7.01467,4.78793],[7.01449,4.78793],[7.01449,4.78802],[7.01432,4.78802],[7.01432,4.78811],[7.01396,4.78811],[7.01396,4.78802],[7.01387,4.78802],[7.01387,4.78811],[7.01369,4.78811],[7.01369,4.7882],[7.01342,4.7882],[7.01342,4.78829],[7.01306,4.78829],[7.01306,4.78838],[7.0127,4.78838],[7.0127,4.78847],[7.01252,4.78847],[7.01252,4.78856],[7.01243,4.78856],[7.01243,4.78865],[7.01207,4.78865],[7.01207,4.78874],[7.01153,4.78874]],[[7.01315,4.78802],[7.01306,4.78802],[7.01306,4.78793],[7.01315,4.78793],[7.01315,4.78802]],[[7.01333,4.78811],[7.01324,4.78811],[7.01324,4.78802],[7.01333,4.78802],[7.01333,4.78811]]]}}]}