{"type":"FeatureCollection","features":[{"type":"Feature","properties":{},"geometry":{"type":"Polygon","coordinates":[[[6.72477,5.09592],[6.76356,5.07892],[6.78252,5.05177],[6.80596,5.05478],[6.84642,5.02627],[6.84613,4.9527],[6.86763,4.91322],[6.89906,4.90425],[6.91811,4.918],[6.95475,4.91749],[6.9617,4.93345],[6.99442,4.92482],[7.028,4.93866],[7.01931,4.95584],[7.05341,4.99172],[7.03876,5.01082],[7.0129,5.00638],[6.98061,5.04767],[6.97272,5.08915],[6.94104,5.13658],[6.93876,5.19028],[6.94357,5.22864],[6.90395,5.21952],[6.87558,5.23793],[6.81656,5.25944],[6.81007,5.22753],[6.83131,5.17198],[6.7986,5.13135],[6.78443,5.12805],[6.75357,5.15803],[6.73978,5.14681],[6.72191,5.10547],[6.72477,5.09592]]]}}]}