{"type":"FeatureCollection","features":[{"type":"Feature","properties":{"h":3.0,"on_route":false},"geometry":{"type":"Polygon","coordinates":[[[6.867861,5.215901],[6.867723,5.215934],[6.867665,5.215692],[6.867803,5.215659],[6.867861,5.215901]]]}},{"type":"Feature","properties":{"h":3.0,"on_route":false},"geometry":{"type":"Polygon","coordinates":[[[6.866709,5.215716],[6.866653,5.215798],[6.866538,5.215719],[6.866594,5.215636],[6.866709,5.215716]]]}},{"type":"Feature","properties":{"h":3.0,"on_route":false},"geometry":{"type":"Polygon","coordinates":[[[6.867178,5.215149],[6.867159,5.215176],[6.867033,5.215085],[6.867053,5.215058],[6.867178,5.215149]]]}},{"type":"Feature","properties":{"h":3.0,"on_route":false},"geometry":{"type":"Polygon","coordinates":[[[6.866175,5.214843],[6.86615,5.214941],[6.866016,5.214907],[6.866011,5.214926],[6.865945,5.214909],[6.865975,5.214792],[6.866175,5.214843]]]}},{"type":"Feature","properties":{"h":3.0,"on_route":false},"geometry":{"type":"Polygon","coordinates":[[[6.868232,5.214335],[6.86816,5.21436],[6.868151,5.214333],[6.868119,5.214344],[6.868082,5.214235],[6.868186,5.214199],[6.868232,5.214335]]]}},{"type":"Feature","properties":{"h":3.0,"on_route":false},"geometry":{"type":"Polygon","coordinates":[[[6.866829,5.214838],[6.8668,5.214884],[6.866764,5.21486],[6.866794,5.214814],[6.866829,5.214838]]]}},{"type":"Feature","properties":{"h":3.0,"on_route":false},"geometry":{"type":"Polygon","coordinates":[[[6.868049,5.218986],[6.86815,5.219117],[6.868125,5.219137],[6.868138,5.219154],[6.868093,5.219188],[6.86808,5.219172],[6.868053,5.219193],[6.867951,5.219062],[6.868049,5.218986]]]}},{"type":"Feature","properties":{"h":3.0,"on_route":false},"geometry":{"type":"Polygon","coordinates":[[[6.866333,5.215094],[6.866307,5.215179],[6.866239,5.215158],[6.866265,5.215074],[6.866333,5.215094]]]}},{"type":"Feature","properties":{"h":3.0,"on_route":false},"geometry":{"type":"Polygon","coordinates":[[[6.866872,5.215069],[6.866825,5.215196],[6.866782,5.21518],[6.866801,5.215129],[6.866721,5.215099],[6.866749,5.215023],[6.866872,5.215069]]]}},{"type":"Feature","properties":{"h":3.0,"on_route":false},"geometry":{"type":"Polygon","coordinates":[[[6.867383,5.214599],[6.867365,5.214651],[6.86727,5.214617],[6.867288,5.214565],[6.867383,5.214599]]]}},{"type":"Feature","properties":{"h":3.0,"on_route":false},"geometry":{"type":"Polygon","coordinates":[[[6.866001,5.215225],[6.865994,5.215278],[6.866092,5.215289],[6.866082,5.215368],[6.865925,5.215349],[6.865942,5.215218],[6.866001,5.215225]]]}},{"type":"Feature","properties":{"h":3.0,"on_route":false},"geometry":{"type":"Polygon","coordinates":[[[6.867579,5.216064],[6.867602,5.216083],[6.867527,5.216174],[6.867428,5.21609],[6.867504,5.216],[6.867525,5.216018],[6.867556,5.215982],[6.86761,5.216028],[6.867579,5.216064]]]}},{"type":"Feature","properties":{"h":3.0,"on_route":false},"geometry":{"type":"Polygon","coordinates":[[[6.865714,5.217214],[6.865712,5.21724],[6.865685,5.217239],[6.865687,5.217212],[6.865714,5.217214]]]}},{"type":"Feature","properties":{"h":3.0,"on_route":false},"geometry":{"type":"Polygon","coordinates":[[[6.869854,5.216233],[6.869846,5.216271],[6.869814,5.216264],[6.869821,5.216227],[6.869854,5.216233]]]}},{"type":"Feature","properties":{"h":3.0,"on_route":false},"geometry":{"type":"Polygon","coordinates":[[[6.867025,5.217943],[6.867006,5.217994],[6.866977,5.217982],[6.866996,5.217932],[6.867025,5.217943]]]}},{"type":"Feature","properties":{"h":3.0,"on_route":false},"geometry":{"type":"Polygon","coordinates":[[[6.869686,5.215445],[6.869678,5.215503],[6.86951,5.21548],[6.869518,5.215422],[6.869686,5.215445]]]}},{"type":"Feature","properties":{"h":3.0,"on_route":false},"geometry":{"type":"Polygon","coordinates":[[[6.867061,5.216915],[6.86704,5.216975],[6.866789,5.216889],[6.866809,5.216829],[6.867061,5.216915]]]}},{"type":"Feature","properties":{"h":3.0,"on_route":false},"geometry":{"type":"Polygon","coordinates":[[[6.865066,5.217065],[6.865062,5.21713],[6.865014,5.217127],[6.865019,5.217062],[6.865066,5.217065]]]}},{"type":"Feature","properties":{"h":3.0,"on_route":false},"geometry":{"type":"Polygon","coordinates":[[[6.865196,5.216524],[6.865201,5.216558],[6.865195,5.216576],[6.865171,5.216568],[6.865174,5.216517],[6.865196,5.216524]]]}},{"type":"Feature","properties":{"h":3.0,"on_route":false},"geometry":{"type":"Polygon","coordinates":[[[6.866577,5.215358],[6.866568,5.215399],[6.866535,5.215392],[6.866545,5.215351],[6.866577,5.215358]]]}},{"type":"Feature","properties":{"h":3.0,"on_route":false},"geometry":{"type":"Polygon","coordinates":[[[6.865402,5.216624],[6.865415,5.216698],[6.865361,5.216707],[6.865348,5.216634],[6.865402,5.216624]]]}},{"type":"Feature","properties":{"h":3.0,"on_route":false},"geometry":{"type":"Polygon","coordinates":[[[6.867548,5.214345],[6.867509,5.214354],[6.867492,5.214289],[6.867531,5.214279],[6.867548,5.214345]]]}},{"type":"Feature","properties":{"h":3.0,"on_route":false},"geometry":{"type":"Polygon","coordinates":[[[6.869392,5.214622],[6.869394,5.21459],[6.869439,5.214593],[6.86944,5.214568],[6.869479,5.214571],[6.869478,5.214596],[6.869508,5.214598],[6.869499,5.214736],[6.869385,5.214729],[6.869388,5.214692],[6.86935,5.214689],[6.869355,5.21462],[6.869392,5.214622]]]}},{"type":"Feature","properties":{"h":3.0,"on_route":false},"geometry":{"type":"Polygon","coordinates":[[[6.870694,5.218989],[6.87069,5.219034],[6.870661,5.219031],[6.870664,5.218987],[6.870694,5.218989]]]}},{"type":"Feature","properties":{"h":3.0,"on_route":false},"geometry":{"type":"Polygon","coordinates":[[[6.868473,5.218682],[6.868443,5.218697],[6.868464,5.218742],[6.868294,5.218824],[6.868228,5.218686],[6.868276,5.218663],[6.868289,5.21869],[6.868356,5.218658],[6.868343,5.218631],[6.868398,5.218604],[6.868422,5.218653],[6.868452,5.218639],[6.868473,5.218682]]]}},{"type":"Feature","properties":{"h":3.0,"on_route":false},"geometry":{"type":"Polygon","coordinates":[[[6.866894,5.215618],[6.866852,5.215681],[6.866741,5.215605],[6.866784,5.215542],[6.866894,5.215618]]]}},{"type":"Feature","properties":{"h":3.0,"on_route":false},"geometry":{"type":"Polygon","coordinates":[[[6.865422,5.216125],[6.865454,5.216109],[6.865487,5.216173],[6.865455,5.216189],[6.865469,5.216217],[6.8654,5.216252],[6.865339,5.216131],[6.865408,5.216097],[6.865422,5.216125]]]}},{"type":"Feature","properties":{"h":3.0,"on_route":false},"geometry":{"type":"Polygon","coordinates":[[[6.869844,5.221586],[6.869796,5.221601],[6.869781,5.22155],[6.869828,5.221535],[6.869844,5.221586]]]}},{"type":"Feature","properties":{"h":3.0,"on_route":false},"geometry":{"type":"Polygon","coordinates":[[[6.865928,5.215327],[6.865921,5.215385],[6.865876,5.215379],[6.865882,5.215322],[6.865928,5.215327]]]}},{"type":"Feature","properties":{"h":3.0,"on_route":false},"geometry":{"type":"Polygon","coordinates":[[[6.870492,5.220928],[6.870329,5.220983],[6.870296,5.220884],[6.870459,5.220828],[6.870492,5.220928]]]}},{"type":"Feature","properties":{"h":3.0,"on_route":false},"geometry":{"type":"Polygon","coordinates":[[[6.867141,5.215874],[6.867161,5.215853],[6.867196,5.215887],[6.867139,5.215946],[6.867061,5.21587],[6.867098,5.215832],[6.867141,5.215874]]]}},{"type":"Feature","properties":{"h":3.0,"on_route":false},"geometry":{"type":"Polygon","coordinates":[[[6.868288,5.220006],[6.868313,5.22],[6.868328,5.220058],[6.868302,5.220064],[6.868309,5.220096],[6.8682,5.220123],[6.868169,5.219996],[6.868279,5.219969],[6.868288,5.220006]]]}},{"type":"Feature","properties":{"h":3.0,"on_route":false},"geometry":{"type":"Polygon","coordinates":[[[6.865135,5.216766],[6.865106,5.216772],[6.865098,5.216736],[6.865128,5.21673],[6.865135,5.216766]]]}},{"type":"Feature","properties":{"h":3.0,"on_route":false},"geometry":{"type":"Polygon","coordinates":[[[6.867419,5.214758],[6.867384,5.214858],[6.867266,5.214816],[6.867302,5.214716],[6.867419,5.214758]]]}},{"type":"Feature","properties":{"h":3.0,"on_route":false},"geometry":{"type":"Polygon","coordinates":[[[6.868198,5.21843],[6.868207,5.218467],[6.868169,5.218477],[6.86816,5.218439],[6.868198,5.21843]]]}},{"type":"Feature","properties":{"h":3.0,"on_route":false},"geometry":{"type":"Polygon","coordinates":[[[6.866051,5.214998],[6.866044,5.215061],[6.86596,5.215051],[6.865966,5.214989],[6.866051,5.214998]]]}},{"type":"Feature","properties":{"h":3.0,"on_route":false},"geometry":{"type":"Polygon","coordinates":[[[6.869581,5.218026],[6.869554,5.218031],[6.86956,5.218061],[6.86937,5.218097],[6.869344,5.217963],[6.869449,5.217943],[6.869442,5.217905],[6.869554,5.217884],[6.869581,5.218026]]]}},{"type":"Feature","properties":{"h":3.0,"on_route":false},"geometry":{"type":"Polygon","coordinates":[[[6.86856,5.21963],[6.868505,5.21965],[6.868508,5.21966],[6.868414,5.219693],[6.868364,5.219551],[6.868419,5.219531],[6.868432,5.219568],[6.868471,5.219555],[6.868444,5.21948],[6.8685,5.21946],[6.86856,5.21963]]]}},{"type":"Feature","properties":{"h":3.0,"on_route":false},"geometry":{"type":"Polygon","coordinates":[[[6.867267,5.214845],[6.867254,5.214891],[6.867187,5.214872],[6.8672,5.214826],[6.867267,5.214845]]]}},{"type":"Feature","properties":{"h":3.0,"on_route":false},"geometry":{"type":"Polygon","coordinates":[[[6.866954,5.215531],[6.866894,5.215618],[6.866814,5.215563],[6.866874,5.215476],[6.866954,5.215531]]]}},{"type":"Feature","properties":{"h":3.0,"on_route":false},"geometry":{"type":"Polygon","coordinates":[[[6.86537,5.216606],[6.865297,5.21663],[6.865284,5.216593],[6.865357,5.216569],[6.86537,5.216606]]]}},{"type":"Feature","properties":{"h":3.0,"on_route":false},"geometry":{"type":"Polygon","coordinates":[[[6.866871,5.214533],[6.866748,5.214624],[6.866694,5.214551],[6.866817,5.21446],[6.866871,5.214533]]]}},{"type":"Feature","properties":{"h":3.0,"on_route":false},"geometry":{"type":"Polygon","coordinates":[[[6.867029,5.214687],[6.867006,5.214727],[6.867053,5.214754],[6.867016,5.21482],[6.866889,5.214748],[6.866949,5.214641],[6.867029,5.214687]]]}},{"type":"Feature","properties":{"h":3.0,"on_route":false},"geometry":{"type":"Polygon","coordinates":[[[6.869496,5.221713],[6.869595,5.221949],[6.869545,5.22197],[6.869445,5.221734],[6.869496,5.221713]]]}},{"type":"Feature","properties":{"h":3.0,"on_route":false},"geometry":{"type":"Polygon","coordinates":[[[6.867027,5.214416],[6.866984,5.214426],[6.866973,5.214377],[6.867016,5.214367],[6.867027,5.214416]]]}},{"type":"Feature","properties":{"h":3.0,"on_route":false},"geometry":{"type":"Polygon","coordinates":[[[6.869625,5.219177],[6.869555,5.219195],[6.869529,5.219092],[6.869599,5.219074],[6.869625,5.219177]]]}},{"type":"Feature","properties":{"h":3.0,"on_route":false},"geometry":{"type":"Polygon","coordinates":[[[6.867033,5.215544],[6.867024,5.215574],[6.866998,5.215566],[6.867007,5.215537],[6.867033,5.215544]]]}},{"type":"Feature","properties":{"h":3.0,"on_route":false},"geometry":{"type":"Polygon","coordinates":[[[6.869291,5.217339],[6.86925,5.217359],[6.869239,5.217334],[6.86928,5.217315],[6.869291,5.217339]]]}},{"type":"Feature","properties":{"h":3.0,"on_route":false},"geometry":{"type":"Polygon","coordinates":[[[6.867287,5.217474],[6.867285,5.217508],[6.867253,5.217506],[6.867255,5.217472],[6.867287,5.217474]]]}},{"type":"Feature","properties":{"h":3.0,"on_route":false},"geometry":{"type":"Polygon","coordinates":[[[6.867019,5.21507],[6.866965,5.215183],[6.866858,5.215131],[6.866913,5.215018],[6.867019,5.21507]]]}},{"type":"Feature","properties":{"h":3.0,"on_route":false},"geometry":{"type":"Polygon","coordinates":[[[6.865391,5.216801],[6.865269,5.216809],[6.865265,5.216753],[6.865387,5.216744],[6.865391,5.216801]]]}},{"type":"Feature","properties":{"h":3.0,"on_route":true},"geometry":{"type":"Polygon","coordinates":[[[6.868653,5.218415],[6.868659,5.218465],[6.868622,5.21847],[6.868616,5.218419],[6.868653,5.218415]]]}},{"type":"Feature","properties":{"h":3.0,"on_route":false},"geometry":{"type":"Polygon","coordinates":[[[6.866954,5.217152],[6.866888,5.217355],[6.866843,5.217341],[6.866837,5.217359],[6.866823,5.217354],[6.866829,5.217336],[6.866789,5.217323],[6.866812,5.217253],[6.866794,5.217247],[6.866814,5.217186],[6.866832,5.217192],[6.866855,5.21712],[6.866954,5.217152]]]}},{"type":"Feature","properties":{"h":3.0,"on_route":false},"geometry":{"type":"Polygon","coordinates":[[[6.867846,5.21415],[6.86781,5.214159],[6.8678,5.214121],[6.867836,5.214112],[6.867846,5.21415]]]}},{"type":"Feature","properties":{"h":3.0,"on_route":false},"geometry":{"type":"Polygon","coordinates":[[[6.867338,5.215667],[6.867275,5.215723],[6.86726,5.215705],[6.867156,5.215797],[6.867096,5.215729],[6.867262,5.215582],[6.867338,5.215667]]]}},{"type":"Feature","properties":{"h":3.0,"on_route":false},"geometry":{"type":"Polygon","coordinates":[[[6.869949,5.216325],[6.869925,5.216419],[6.869795,5.216386],[6.869819,5.216292],[6.869949,5.216325]]]}},{"type":"Feature","properties":{"h":3.0,"on_route":false},"geometry":{"type":"Polygon","coordinates":[[[6.866816,5.215888],[6.866806,5.215917],[6.866773,5.215906],[6.866783,5.215876],[6.866816,5.215888]]]}},{"type":"Feature","properties":{"h":3.0,"on_route":false},"geometry":{"type":"Polygon","coordinates":[[[6.868085,5.214315],[6.868011,5.214339],[6.867985,5.214262],[6.868059,5.214237],[6.868085,5.214315]]]}},{"type":"Feature","properties":{"h":3.0,"on_route":false},"geometry":{"type":"Polygon","coordinates":[[[6.867894,5.219555],[6.867847,5.219568],[6.867836,5.219526],[6.867883,5.219513],[6.867894,5.219555]]]}},{"type":"Feature","properties":{"h":3.0,"on_route":false},"geometry":{"type":"Polygon","coordinates":[[[6.869817,5.221675],[6.869583,5.221766],[6.869546,5.221669],[6.86978,5.221578],[6.869817,5.221675]]]}},{"type":"Feature","properties":{"h":3.0,"on_route":false},"geometry":{"type":"Polygon","coordinates":[[[6.869937,5.221695],[6.86995,5.221754],[6.869914,5.221762],[6.869901,5.221703],[6.869937,5.221695]]]}},{"type":"Feature","properties":{"h":3.0,"on_route":false},"geometry":{"type":"Polygon","coordinates":[[[6.868594,5.219056],[6.868512,5.219077],[6.868493,5.219003],[6.868575,5.218982],[6.868594,5.219056]]]}},{"type":"Feature","properties":{"h":3.0,"on_route":false},"geometry":{"type":"Polygon","coordinates":[[[6.865847,5.215987],[6.865875,5.216067],[6.865831,5.216082],[6.865803,5.216002],[6.865847,5.215987]]]}},{"type":"Feature","properties":{"h":3.0,"on_route":false},"geometry":{"type":"Polygon","coordinates":[[[6.866135,5.215383],[6.866116,5.215448],[6.86606,5.215432],[6.866079,5.215366],[6.866135,5.215383]]]}},{"type":"Feature","properties":{"h":3.0,"on_route":false},"geometry":{"type":"Polygon","coordinates":[[[6.866841,5.215457],[6.86677,5.215522],[6.866723,5.215469],[6.866794,5.215405],[6.866841,5.215457]]]}},{"type":"Feature","properties":{"h":3.0,"on_route":false},"geometry":{"type":"Polygon","coordinates":[[[6.86617,5.215253],[6.866126,5.215377],[6.866084,5.215362],[6.866104,5.215306],[6.866018,5.215275],[6.866031,5.215238],[6.865982,5.21522],[6.865993,5.215189],[6.86617,5.215253]]]}},{"type":"Feature","properties":{"h":3.0,"on_route":false},"geometry":{"type":"Polygon","coordinates":[[[6.867973,5.214125],[6.867911,5.214162],[6.867848,5.214058],[6.86791,5.21402],[6.867973,5.214125]]]}},{"type":"Feature","properties":{"h":3.0,"on_route":false},"geometry":{"type":"Polygon","coordinates":[[[6.865902,5.21571],[6.865877,5.215723],[6.865867,5.215705],[6.865851,5.215714],[6.865814,5.215648],[6.865855,5.215625],[6.865902,5.21571]]]}},{"type":"Feature","properties":{"h":3.0,"on_route":false},"geometry":{"type":"Polygon","coordinates":[[[6.866905,5.214596],[6.866838,5.214652],[6.866798,5.214603],[6.866865,5.214548],[6.866905,5.214596]]]}},{"type":"Feature","properties":{"h":3.0,"on_route":false},"geometry":{"type":"Polygon","coordinates":[[[6.869859,5.221635],[6.869812,5.22165],[6.869796,5.221601],[6.869844,5.221586],[6.869859,5.221635]]]}},{"type":"Feature","properties":{"h":3.0,"on_route":false},"geometry":{"type":"Polygon","coordinates":[[[6.869562,5.220499],[6.869614,5.220631],[6.869592,5.220639],[6.86954,5.220507],[6.869562,5.220499]]]}},{"type":"Feature","properties":{"h":3.0,"on_route":false},"geometry":{"type":"Polygon","coordinates":[[[6.869501,5.219029],[6.869451,5.219041],[6.869443,5.219007],[6.869493,5.218995],[6.869501,5.219029]]]}},{"type":"Feature","properties":{"h":3.0,"on_route":false},"geometry":{"type":"Polygon","coordinates":[[[6.869143,5.215471],[6.869084,5.215571],[6.868992,5.215517],[6.868982,5.215535],[6.86893,5.215504],[6.868999,5.215386],[6.869143,5.215471]]]}},{"type":"Feature","properties":{"h":3.0,"on_route":false},"geometry":{"type":"Polygon","coordinates":[[[6.867171,5.214554],[6.867176,5.214583],[6.867133,5.21459],[6.867129,5.21456],[6.867171,5.214554]]]}},{"type":"Feature","properties":{"h":3.0,"on_route":false},"geometry":{"type":"Polygon","coordinates":[[[6.867802,5.217952],[6.86772,5.217976],[6.867686,5.217851],[6.867768,5.217828],[6.867802,5.217952]]]}},{"type":"Feature","properties":{"h":3.0,"on_route":false},"geometry":{"type":"Polygon","coordinates":[[[6.865988,5.216227],[6.865865,5.216241],[6.865861,5.216197],[6.865983,5.216183],[6.865988,5.216227]]]}},{"type":"Feature","properties":{"h":3.0,"on_route":false},"geometry":{"type":"Polygon","coordinates":[[[6.866966,5.216631],[6.86698,5.216604],[6.867045,5.216639],[6.867031,5.216666],[6.867144,5.216726],[6.867077,5.216853],[6.866862,5.216738],[6.866929,5.216611],[6.866966,5.216631]]]}},{"type":"Feature","properties":{"h":3.0,"on_route":false},"geometry":{"type":"Polygon","coordinates":[[[6.865546,5.215685],[6.865499,5.215712],[6.865479,5.215676],[6.865526,5.215649],[6.865546,5.215685]]]}},{"type":"Feature","properties":{"h":3.0,"on_route":false},"geometry":{"type":"Polygon","coordinates":[[[6.865296,5.216526],[6.865313,5.216588],[6.86527,5.216599],[6.865253,5.216537],[6.865296,5.216526]]]}},{"type":"Feature","properties":{"h":3.0,"on_route":false},"geometry":{"type":"Polygon","coordinates":[[[6.865805,5.216319],[6.865796,5.216359],[6.865743,5.216346],[6.865752,5.216306],[6.865805,5.216319]]]}},{"type":"Feature","properties":{"h":3.0,"on_route":false},"geometry":{"type":"Polygon","coordinates":[[[6.870244,5.216504],[6.870196,5.216593],[6.870158,5.216572],[6.870206,5.216483],[6.870244,5.216504]]]}},{"type":"Feature","properties":{"h":3.0,"on_route":false},"geometry":{"type":"Polygon","coordinates":[[[6.865724,5.215406],[6.86572,5.215439],[6.865692,5.215435],[6.865696,5.215403],[6.865724,5.215406]]]}},{"type":"Feature","properties":{"h":3.0,"on_route":false},"geometry":{"type":"Polygon","coordinates":[[[6.868118,5.220125],[6.868068,5.220138],[6.868037,5.220008],[6.868087,5.219996],[6.868118,5.220125]]]}},{"type":"Feature","properties":{"h":3.0,"on_route":false},"geometry":{"type":"Polygon","coordinates":[[[6.86588,5.216329],[6.865873,5.216392],[6.865808,5.216385],[6.865815,5.216322],[6.86588,5.216329]]]}},{"type":"Feature","properties":{"h":3.0,"on_route":false},"geometry":{"type":"Polygon","coordinates":[[[6.865406,5.218327],[6.86529,5.218289],[6.86532,5.218196],[6.865349,5.218206],[6.865374,5.218131],[6.86546,5.218159],[6.865406,5.218327]]]}},{"type":"Feature","properties":{"h":3.0,"on_route":false},"geometry":{"type":"Polygon","coordinates":[[[6.865869,5.215221],[6.8658,5.215248],[6.865758,5.21514],[6.865827,5.215113],[6.865869,5.215221]]]}},{"type":"Feature","properties":{"h":3.0,"on_route":false},"geometry":{"type":"Polygon","coordinates":[[[6.865347,5.216195],[6.86526,5.216239],[6.865238,5.216196],[6.865325,5.216152],[6.865347,5.216195]]]}},{"type":"Feature","properties":{"h":3.0,"on_route":false},"geometry":{"type":"Polygon","coordinates":[[[6.866775,5.217621],[6.866766,5.217644],[6.86679,5.217654],[6.86675,5.217751],[6.866641,5.217705],[6.866691,5.217586],[6.866775,5.217621]]]}},{"type":"Feature","properties":{"h":3.0,"on_route":false},"geometry":{"type":"Polygon","coordinates":[[[6.869815,5.221862],[6.869738,5.221887],[6.86972,5.221832],[6.869797,5.221807],[6.869815,5.221862]]]}},{"type":"Feature","properties":{"h":3.0,"on_route":false},"geometry":{"type":"Polygon","coordinates":[[[6.865697,5.215394],[6.865702,5.215423],[6.865666,5.215429],[6.865661,5.2154],[6.865697,5.215394]]]}},{"type":"Feature","properties":{"h":3.0,"on_route":false},"geometry":{"type":"Polygon","coordinates":[[[6.866749,5.215763],[6.866735,5.215792],[6.866696,5.215772],[6.86671,5.215744],[6.866749,5.215763]]]}},{"type":"Feature","properties":{"h":3.0,"on_route":false},"geometry":{"type":"Polygon","coordinates":[[[6.866067,5.215177],[6.866018,5.215146],[6.866096,5.215024],[6.866145,5.215056],[6.866067,5.215177]]]}},{"type":"Feature","properties":{"h":3.0,"on_route":false},"geometry":{"type":"Polygon","coordinates":[[[6.869534,5.214851],[6.86953,5.214953],[6.869504,5.214952],[6.869503,5.214976],[6.86944,5.214973],[6.869441,5.214949],[6.869416,5.214948],[6.869419,5.214885],[6.869444,5.214887],[6.869446,5.214847],[6.869534,5.214851]]]}},{"type":"Feature","properties":{"h":3.0,"on_route":false},"geometry":{"type":"Polygon","coordinates":[[[6.867667,5.215657],[6.867658,5.21566],[6.867682,5.215761],[6.867577,5.215786],[6.867531,5.215593],[6.867645,5.215565],[6.867667,5.215657]]]}},{"type":"Feature","properties":{"h":3.0,"on_route":false},"geometry":{"type":"Polygon","coordinates":[[[6.866348,5.21533],[6.866323,5.215397],[6.866283,5.215382],[6.866309,5.215314],[6.866348,5.21533]]]}},{"type":"Feature","properties":{"h":3.0,"on_route":false},"geometry":{"type":"Polygon","coordinates":[[[6.867057,5.214636],[6.867029,5.214687],[6.866949,5.214641],[6.866977,5.214591],[6.867057,5.214636]]]}},{"type":"Feature","properties":{"h":3.0,"on_route":false},"geometry":{"type":"Polygon","coordinates":[[[6.866978,5.215669],[6.866924,5.21562],[6.866989,5.215548],[6.867043,5.215598],[6.866978,5.215669]]]}},{"type":"Feature","properties":{"h":3.0,"on_route":false},"geometry":{"type":"Polygon","coordinates":[[[6.865854,5.215741],[6.865788,5.215783],[6.865721,5.215677],[6.865787,5.215635],[6.865854,5.215741]]]}},{"type":"Feature","properties":{"h":3.0,"on_route":false},"geometry":{"type":"Polygon","coordinates":[[[6.870294,5.214691],[6.870237,5.214817],[6.870146,5.214776],[6.87016,5.214744],[6.87014,5.214735],[6.870183,5.21464],[6.870294,5.214691]]]}},{"type":"Feature","properties":{"h":3.0,"on_route":false},"geometry":{"type":"Polygon","coordinates":[[[6.869042,5.215183],[6.869003,5.215264],[6.868886,5.215208],[6.868925,5.215126],[6.869042,5.215183]]]}},{"type":"Feature","properties":{"h":3.0,"on_route":false},"geometry":{"type":"Polygon","coordinates":[[[6.865865,5.215466],[6.865759,5.215495],[6.865732,5.215395],[6.865838,5.215366],[6.865865,5.215466]]]}},{"type":"Feature","properties":{"h":3.0,"on_route":false},"geometry":{"type":"Polygon","coordinates":[[[6.865669,5.216941],[6.865646,5.217041],[6.865567,5.217022],[6.86559,5.216922],[6.865669,5.216941]]]}},{"type":"Feature","properties":{"h":3.0,"on_route":false},"geometry":{"type":"Polygon","coordinates":[[[6.867148,5.21545],[6.867106,5.215512],[6.867007,5.215443],[6.867049,5.215382],[6.867148,5.21545]]]}},{"type":"Feature","properties":{"h":3.0,"on_route":false},"geometry":{"type":"Polygon","coordinates":[[[6.86654,5.215043],[6.866511,5.215116],[6.866529,5.215123],[6.866513,5.215163],[6.86641,5.215122],[6.866454,5.215009],[6.86654,5.215043]]]}},{"type":"Feature","properties":{"h":3.0,"on_route":false},"geometry":{"type":"Polygon","coordinates":[[[6.865718,5.217059],[6.865712,5.217107],[6.86562,5.217095],[6.865626,5.217047],[6.865718,5.217059]]]}},{"type":"Feature","properties":{"h":3.0,"on_route":false},"geometry":{"type":"Polygon","coordinates":[[[6.869297,5.215575],[6.869252,5.215676],[6.869119,5.215616],[6.869164,5.215516],[6.869297,5.215575]]]}},{"type":"Feature","properties":{"h":3.0,"on_route":false},"geometry":{"type":"Polygon","coordinates":[[[6.867733,5.215544],[6.867618,5.215572],[6.867606,5.215523],[6.867633,5.215516],[6.867628,5.215495],[6.867716,5.215474],[6.867733,5.215544]]]}},{"type":"Feature","properties":{"h":3.0,"on_route":false},"geometry":{"type":"Polygon","coordinates":[[[6.866761,5.21521],[6.866757,5.215243],[6.866733,5.21524],[6.866737,5.215207],[6.866761,5.21521]]]}},{"type":"Feature","properties":{"h":3.0,"on_route":false},"geometry":{"type":"Polygon","coordinates":[[[6.866185,5.214968],[6.866168,5.215034],[6.86609,5.215013],[6.866107,5.214947],[6.866185,5.214968]]]}},{"type":"Feature","properties":{"h":3.0,"on_route":false},"geometry":{"type":"Polygon","coordinates":[[[6.868023,5.214094],[6.867972,5.214125],[6.867895,5.213996],[6.867946,5.213965],[6.868023,5.214094]]]}},{"type":"Feature","properties":{"h":3.0,"on_route":false},"geometry":{"type":"Polygon","coordinates":[[[6.866254,5.217155],[6.86621,5.217248],[6.866109,5.2172],[6.866153,5.217107],[6.866254,5.217155]]]}},{"type":"Feature","properties":{"h":3.0,"on_route":false},"geometry":{"type":"Polygon","coordinates":[[[6.865782,5.217132],[6.865777,5.217177],[6.865721,5.217171],[6.865726,5.217125],[6.865782,5.217132]]]}},{"type":"Feature","properties":{"h":3.0,"on_route":false},"geometry":{"type":"Polygon","coordinates":[[[6.870142,5.214857],[6.870116,5.214989],[6.869985,5.214963],[6.870004,5.214869],[6.870038,5.214875],[6.870045,5.214838],[6.870142,5.214857]]]}},{"type":"Feature","properties":{"h":3.0,"on_route":false},"geometry":{"type":"Polygon","coordinates":[[[6.86687,5.215853],[6.866838,5.215897],[6.866761,5.21584],[6.866792,5.215797],[6.86687,5.215853]]]}},{"type":"Feature","properties":{"h":3.0,"on_route":false},"geometry":{"type":"Polygon","coordinates":[[[6.86703,5.215368],[6.866997,5.215408],[6.866917,5.215343],[6.86695,5.215303],[6.86703,5.215368]]]}},{"type":"Feature","properties":{"h":3.0,"on_route":false},"geometry":{"type":"Polygon","coordinates":[[[6.870092,5.216408],[6.870107,5.216374],[6.870198,5.216414],[6.870123,5.216587],[6.869969,5.216519],[6.870029,5.216381],[6.870092,5.216408]]]}},{"type":"Feature","properties":{"h":3.0,"on_route":false},"geometry":{"type":"Polygon","coordinates":[[[6.866307,5.215237],[6.86629,5.215305],[6.86625,5.215295],[6.866267,5.215227],[6.866307,5.215237]]]}},{"type":"Feature","properties":{"h":3.0,"on_route":false},"geometry":{"type":"Polygon","coordinates":[[[6.867599,5.216196],[6.867557,5.21624],[6.867526,5.216211],[6.867568,5.216167],[6.867599,5.216196]]]}},{"type":"Feature","properties":{"h":3.0,"on_route":false},"geometry":{"type":"Polygon","coordinates":[[[6.865602,5.215588],[6.865505,5.215653],[6.865472,5.215604],[6.865569,5.215538],[6.865602,5.215588]]]}},{"type":"Feature","properties":{"h":3.0,"on_route":false},"geometry":{"type":"Polygon","coordinates":[[[6.866631,5.216076],[6.866594,5.216153],[6.866519,5.216117],[6.866506,5.216144],[6.866467,5.216125],[6.866517,5.216021],[6.866631,5.216076]]]}},{"type":"Feature","properties":{"h":3.0,"on_route":false},"geometry":{"type":"Polygon","coordinates":[[[6.866993,5.215876],[6.866965,5.21591],[6.866915,5.21587],[6.866943,5.215836],[6.866993,5.215876]]]}},{"type":"Feature","properties":{"h":3.0,"on_route":false},"geometry":{"type":"Polygon","coordinates":[[[6.865927,5.215225],[6.865927,5.21527],[6.865869,5.21527],[6.86587,5.215224],[6.865927,5.215225]]]}},{"type":"Feature","properties":{"h":3.0,"on_route":false},"geometry":{"type":"Polygon","coordinates":[[[6.867006,5.219256],[6.866897,5.21928],[6.866863,5.219126],[6.866972,5.219102],[6.867006,5.219256]]]}},{"type":"Feature","properties":{"h":3.0,"on_route":false},"geometry":{"type":"Polygon","coordinates":[[[6.869538,5.214965],[6.869538,5.215024],[6.869504,5.215024],[6.869504,5.214965],[6.869538,5.214965]]]}},{"type":"Feature","properties":{"h":3.0,"on_route":false},"geometry":{"type":"Polygon","coordinates":[[[6.865915,5.216286],[6.865915,5.216322],[6.865871,5.216322],[6.865871,5.216286],[6.865915,5.216286]]]}},{"type":"Feature","properties":{"h":3.0,"on_route":false},"geometry":{"type":"Polygon","coordinates":[[[6.866418,5.216605],[6.866399,5.216662],[6.866281,5.216623],[6.8663,5.216566],[6.866418,5.216605]]]}},{"type":"Feature","properties":{"h":3.0,"on_route":false},"geometry":{"type":"Polygon","coordinates":[[[6.869609,5.218785],[6.869417,5.218841],[6.869391,5.218752],[6.869285,5.218783],[6.869245,5.218648],[6.869543,5.218561],[6.869609,5.218785]]]}},{"type":"Feature","properties":{"h":3.0,"on_route":false},"geometry":{"type":"Polygon","coordinates":[[[6.867347,5.217561],[6.867342,5.2176],[6.867368,5.217604],[6.867361,5.217658],[6.867335,5.217655],[6.867331,5.217685],[6.867229,5.217672],[6.867245,5.217548],[6.867347,5.217561]]]}},{"type":"Feature","properties":{"h":3.0,"on_route":false},"geometry":{"type":"Polygon","coordinates":[[[6.867854,5.216115],[6.86776,5.216131],[6.867736,5.215992],[6.867831,5.215976],[6.867854,5.216115]]]}},{"type":"Feature","properties":{"h":3.0,"on_route":false},"geometry":{"type":"Polygon","coordinates":[[[6.866717,5.215143],[6.866705,5.215175],[6.866678,5.215165],[6.86669,5.215132],[6.866717,5.215143]]]}},{"type":"Feature","properties":{"h":3.0,"on_route":false},"geometry":{"type":"Polygon","coordinates":[[[6.867255,5.215487],[6.867181,5.215549],[6.867128,5.215485],[6.867153,5.215465],[6.867168,5.215481],[6.867217,5.21544],[6.867255,5.215487]]]}},{"type":"Feature","properties":{"h":3.0,"on_route":false},"geometry":{"type":"Polygon","coordinates":[[[6.867254,5.217477],[6.867229,5.217672],[6.86717,5.217664],[6.867195,5.217469],[6.867254,5.217477]]]}},{"type":"Feature","properties":{"h":3.0,"on_route":false},"geometry":{"type":"Polygon","coordinates":[[[6.86706,5.214742],[6.86702,5.214726],[6.867056,5.214636],[6.867096,5.214653],[6.86706,5.214742]]]}},{"type":"Feature","properties":{"h":3.0,"on_route":false},"geometry":{"type":"Polygon","coordinates":[[[6.866393,5.217238],[6.866404,5.217214],[6.866447,5.217235],[6.866436,5.217258],[6.866512,5.217293],[6.866472,5.217379],[6.866397,5.217344],[6.866383,5.217373],[6.866339,5.217353],[6.866353,5.217324],[6.866279,5.217289],[6.866318,5.217203],[6.866393,5.217238]]]}},{"type":"Feature","properties":{"h":3.0,"on_route":false},"geometry":{"type":"Polygon","coordinates":[[[6.866228,5.2154],[6.866212,5.215468],[6.866174,5.215459],[6.866189,5.215391],[6.866228,5.2154]]]}},{"type":"Feature","properties":{"h":3.0,"on_route":false},"geometry":{"type":"Polygon","coordinates":[[[6.866651,5.215199],[6.866613,5.215303],[6.866499,5.215261],[6.866538,5.215157],[6.866651,5.215199]]]}},{"type":"Feature","properties":{"h":3.0,"on_route":false},"geometry":{"type":"Polygon","coordinates":[[[6.86766,5.215342],[6.867656,5.215371],[6.867634,5.215368],[6.867638,5.215339],[6.86766,5.215342]]]}},{"type":"Feature","properties":{"h":3.0,"on_route":false},"geometry":{"type":"Polygon","coordinates":[[[6.869217,5.213992],[6.869216,5.214096],[6.869155,5.214096],[6.869156,5.213991],[6.869217,5.213992]]]}},{"type":"Feature","properties":{"h":3.0,"on_route":false},"geometry":{"type":"Polygon","coordinates":[[[6.865866,5.215462],[6.865949,5.215673],[6.865894,5.215695],[6.865812,5.215484],[6.865866,5.215462]]]}},{"type":"Feature","properties":{"h":3.0,"on_route":false},"geometry":{"type":"Polygon","coordinates":[[[6.866606,5.21765],[6.866601,5.217682],[6.866567,5.217677],[6.866571,5.217645],[6.866606,5.21765]]]}},{"type":"Feature","properties":{"h":3.0,"on_route":false},"geometry":{"type":"Polygon","coordinates":[[[6.869613,5.215579],[6.869591,5.215684],[6.869552,5.215676],[6.869547,5.215704],[6.869479,5.21569],[6.869485,5.215662],[6.869431,5.215651],[6.869436,5.215626],[6.869379,5.215614],[6.869396,5.215534],[6.869613,5.215579]]]}},{"type":"Feature","properties":{"h":3.0,"on_route":false},"geometry":{"type":"Polygon","coordinates":[[[6.868039,5.219775],[6.868005,5.219786],[6.868011,5.219805],[6.867892,5.219842],[6.867861,5.219741],[6.868013,5.219693],[6.868039,5.219775]]]}},{"type":"Feature","properties":{"h":3.0,"on_route":false},"geometry":{"type":"Polygon","coordinates":[[[6.86597,5.216054],[6.865877,5.216094],[6.865857,5.216047],[6.86595,5.216007],[6.86597,5.216054]]]}},{"type":"Feature","properties":{"h":3.0,"on_route":false},"geometry":{"type":"Polygon","coordinates":[[[6.869009,5.220783],[6.868949,5.220811],[6.868892,5.220691],[6.868953,5.220663],[6.869009,5.220783]]]}},{"type":"Feature","properties":{"h":3.0,"on_route":false},"geometry":{"type":"Polygon","coordinates":[[[6.86751,5.214212],[6.867519,5.214253],[6.867465,5.214264],[6.867457,5.214222],[6.86751,5.214212]]]}},{"type":"Feature","properties":{"h":3.0,"on_route":false},"geometry":{"type":"Polygon","coordinates":[[[6.870293,5.214842],[6.870237,5.214817],[6.870294,5.214691],[6.87035,5.214716],[6.870293,5.214842]]]}},{"type":"Feature","properties":{"h":3.0,"on_route":false},"geometry":{"type":"Polygon","coordinates":[[[6.866737,5.215056],[6.866702,5.21515],[6.866616,5.215118],[6.866651,5.215024],[6.866737,5.215056]]]}},{"type":"Feature","properties":{"h":3.0,"on_route":false},"geometry":{"type":"Polygon","coordinates":[[[6.86705,5.215766],[6.867106,5.215811],[6.867057,5.215871],[6.867001,5.215826],[6.86705,5.215766]]]}},{"type":"Feature","properties":{"h":3.0,"on_route":false},"geometry":{"type":"Polygon","coordinates":[[[6.866589,5.214972],[6.866558,5.21505],[6.866454,5.215009],[6.866486,5.21493],[6.866589,5.214972]]]}},{"type":"Feature","properties":{"h":3.0,"on_route":false},"geometry":{"type":"Polygon","coordinates":[[[6.867183,5.215296],[6.867118,5.215391],[6.867021,5.215324],[6.867086,5.215229],[6.867183,5.215296]]]}},{"type":"Feature","properties":{"h":3.0,"on_route":false},"geometry":{"type":"Polygon","coordinates":[[[6.865695,5.215253],[6.865747,5.215385],[6.865709,5.2154],[6.865657,5.215267],[6.865695,5.215253]]]}},{"type":"Feature","properties":{"h":3.0,"on_route":true},"geometry":{"type":"Polygon","coordinates":[[[6.868679,5.218351],[6.868686,5.21841],[6.868616,5.218419],[6.868608,5.218359],[6.868679,5.218351]]]}},{"type":"Feature","properties":{"h":3.0,"on_route":false},"geometry":{"type":"Polygon","coordinates":[[[6.86631,5.215195],[6.866293,5.21524],[6.866212,5.215208],[6.866229,5.215163],[6.86631,5.215195]]]}},{"type":"Feature","properties":{"h":3.0,"on_route":false},"geometry":{"type":"Polygon","coordinates":[[[6.865854,5.217261],[6.865849,5.217291],[6.865822,5.217287],[6.865826,5.217256],[6.865854,5.217261]]]}},{"type":"Feature","properties":{"h":3.0,"on_route":false},"geometry":{"type":"Polygon","coordinates":[[[6.866196,5.217332],[6.866115,5.217512],[6.866009,5.217465],[6.866057,5.217358],[6.866036,5.217349],[6.866056,5.217305],[6.866077,5.217314],[6.866091,5.217284],[6.866196,5.217332]]]}},{"type":"Feature","properties":{"h":3.0,"on_route":false},"geometry":{"type":"Polygon","coordinates":[[[6.866477,5.216542],[6.866438,5.21652],[6.866512,5.216385],[6.866552,5.216407],[6.866477,5.216542]]]}},{"type":"Feature","properties":{"h":3.0,"on_route":false},"geometry":{"type":"Polygon","coordinates":[[[6.866988,5.218775],[6.866927,5.218874],[6.866811,5.218803],[6.866871,5.218703],[6.866988,5.218775]]]}},{"type":"Feature","properties":{"h":3.0,"on_route":false},"geometry":{"type":"Polygon","coordinates":[[[6.867258,5.214507],[6.86713,5.214543],[6.867097,5.214426],[6.867224,5.214389],[6.867258,5.214507]]]}},{"type":"Feature","properties":{"h":3.0,"on_route":false},"geometry":{"type":"Polygon","coordinates":[[[6.867945,5.219715],[6.867931,5.219672],[6.86783,5.219704],[6.86781,5.219638],[6.86798,5.219585],[6.868013,5.219693],[6.867945,5.219715]]]}},{"type":"Feature","properties":{"h":3.0,"on_route":false},"geometry":{"type":"Polygon","coordinates":[[[6.869928,5.221795],[6.869926,5.221824],[6.869899,5.221822],[6.869901,5.221794],[6.869928,5.221795]]]}},{"type":"Feature","properties":{"h":3.0,"on_route":false},"geometry":{"type":"Polygon","coordinates":[[[6.869708,5.221926],[6.869628,5.221959],[6.869574,5.221827],[6.869655,5.221795],[6.869708,5.221926]]]}},{"type":"Feature","properties":{"h":3.0,"on_route":false},"geometry":{"type":"Polygon","coordinates":[[[6.866504,5.215318],[6.866481,5.21538],[6.866374,5.215339],[6.866398,5.215277],[6.866504,5.215318]]]}},{"type":"Feature","properties":{"h":3.0,"on_route":false},"geometry":{"type":"Polygon","coordinates":[[[6.865869,5.215252],[6.865869,5.215276],[6.865845,5.215276],[6.865844,5.215306],[6.865869,5.215306],[6.865869,5.215348],[6.865756,5.215348],[6.865756,5.215306],[6.865733,5.215306],[6.865733,5.215252],[6.865869,5.215252]]]}},{"type":"Feature","properties":{"h":3.0,"on_route":false},"geometry":{"type":"Polygon","coordinates":[[[6.865208,5.217062],[6.865211,5.217042],[6.865233,5.217046],[6.865205,5.217211],[6.86509,5.217192],[6.865115,5.217046],[6.865208,5.217062]]]}},{"type":"Feature","properties":{"h":3.0,"on_route":false},"geometry":{"type":"Polygon","coordinates":[[[6.866937,5.215189],[6.866881,5.215287],[6.866848,5.215268],[6.86686,5.215247],[6.866821,5.215224],[6.866865,5.215147],[6.866937,5.215189]]]}},{"type":"Feature","properties":{"h":3.0,"on_route":false},"geometry":{"type":"Polygon","coordinates":[[[6.868583,5.217428],[6.868595,5.217482],[6.868557,5.217491],[6.868545,5.217436],[6.868583,5.217428]]]}},{"type":"Feature","properties":{"h":3.0,"on_route":true},"geometry":{"type":"Polygon","coordinates":[[[6.868351,5.218066],[6.868233,5.21814],[6.868149,5.218005],[6.868267,5.21793],[6.868351,5.218066]]]}},{"type":"Feature","properties":{"h":3.0,"on_route":false},"geometry":{"type":"Polygon","coordinates":[[[6.866648,5.215945],[6.866614,5.215926],[6.866661,5.215842],[6.866695,5.215861],[6.866648,5.215945]]]}},{"type":"Feature","properties":{"h":3.0,"on_route":false},"geometry":{"type":"Polygon","coordinates":[[[6.865269,5.21615],[6.865212,5.21618],[6.865121,5.216003],[6.865178,5.215974],[6.865269,5.21615]]]}},{"type":"Feature","properties":{"h":3.0,"on_route":false},"geometry":{"type":"Polygon","coordinates":[[[6.865055,5.216342],[6.865068,5.216381],[6.865163,5.216348],[6.86518,5.216397],[6.865038,5.216446],[6.865008,5.216358],[6.865055,5.216342]]]}},{"type":"Feature","properties":{"h":3.0,"on_route":false},"geometry":{"type":"Polygon","coordinates":[[[6.866108,5.216743],[6.866076,5.216976],[6.865925,5.216955],[6.86593,5.216923],[6.865966,5.216927],[6.86597,5.216892],[6.865934,5.216887],[6.865944,5.216813],[6.866029,5.216824],[6.866041,5.216734],[6.866108,5.216743]]]}},{"type":"Feature","properties":{"h":3.0,"on_route":false},"geometry":{"type":"Polygon","coordinates":[[[6.866827,5.215823],[6.866792,5.215797],[6.866833,5.215741],[6.866868,5.215766],[6.866827,5.215823]]]}},{"type":"Feature","properties":{"h":3.0,"on_route":false},"geometry":{"type":"Polygon","coordinates":[[[6.866794,5.216523],[6.866787,5.216535],[6.866835,5.216561],[6.866785,5.216656],[6.866542,5.216526],[6.8666,5.216419],[6.866794,5.216523]]]}},{"type":"Feature","properties":{"h":3.0,"on_route":false},"geometry":{"type":"Polygon","coordinates":[[[6.86521,5.217963],[6.865206,5.218007],[6.865151,5.218003],[6.865155,5.217959],[6.86521,5.217963]]]}},{"type":"Feature","properties":{"h":3.0,"on_route":false},"geometry":{"type":"Polygon","coordinates":[[[6.866405,5.216324],[6.866396,5.216351],[6.866472,5.216376],[6.866436,5.216486],[6.866386,5.216469],[6.866393,5.216446],[6.86634,5.216429],[6.866333,5.216451],[6.866274,5.216432],[6.866292,5.216377],[6.866277,5.216371],[6.866295,5.216317],[6.86631,5.216323],[6.866319,5.216296],[6.866405,5.216324]]]}},{"type":"Feature","properties":{"h":3.0,"on_route":false},"geometry":{"type":"Polygon","coordinates":[[[6.865961,5.215062],[6.865993,5.215146],[6.865927,5.215172],[6.865895,5.215088],[6.865961,5.215062]]]}},{"type":"Feature","properties":{"h":3.0,"on_route":false},"geometry":{"type":"Polygon","coordinates":[[[6.870873,5.216418],[6.870839,5.216404],[6.870859,5.216355],[6.870893,5.216369],[6.870873,5.216418]]]}},{"type":"Feature","properties":{"h":3.0,"on_route":false},"geometry":{"type":"Polygon","coordinates":[[[6.866,5.215605],[6.865948,5.215625],[6.865907,5.21552],[6.865959,5.2155],[6.866,5.215605]]]}},{"type":"Feature","properties":{"h":3.0,"on_route":false},"geometry":{"type":"Polygon","coordinates":[[[6.867096,5.216452],[6.867001,5.216399],[6.867113,5.216192],[6.867209,5.216244],[6.867096,5.216452]]]}},{"type":"Feature","properties":{"h":3.0,"on_route":false},"geometry":{"type":"Polygon","coordinates":[[[6.867145,5.214663],[6.867126,5.21473],[6.867086,5.214719],[6.867105,5.214652],[6.867145,5.214663]]]}},{"type":"Feature","properties":{"h":3.0,"on_route":false},"geometry":{"type":"Polygon","coordinates":[[[6.865953,5.217022],[6.865949,5.217061],[6.865918,5.217057],[6.865922,5.217019],[6.865953,5.217022]]]}},{"type":"Feature","properties":{"h":3.0,"on_route":false},"geometry":{"type":"Polygon","coordinates":[[[6.865833,5.217073],[6.865827,5.217121],[6.865712,5.217107],[6.865718,5.217059],[6.865833,5.217073]]]}},{"type":"Feature","properties":{"h":3.0,"on_route":false},"geometry":{"type":"Polygon","coordinates":[[[6.86592,5.215156],[6.865917,5.215198],[6.865887,5.215196],[6.86589,5.215153],[6.86592,5.215156]]]}},{"type":"Feature","properties":{"h":3.0,"on_route":false},"geometry":{"type":"Polygon","coordinates":[[[6.867811,5.215571],[6.867814,5.215599],[6.86779,5.215601],[6.867787,5.215573],[6.867811,5.215571]]]}},{"type":"Feature","properties":{"h":3.0,"on_route":false},"geometry":{"type":"Polygon","coordinates":[[[6.865943,5.216823],[6.865925,5.216955],[6.865838,5.216943],[6.865856,5.216811],[6.865943,5.216823]]]}},{"type":"Feature","properties":{"h":3.0,"on_route":false},"geometry":{"type":"Polygon","coordinates":[[[6.867021,5.215324],[6.866989,5.215301],[6.867053,5.215207],[6.867086,5.215229],[6.867021,5.215324]]]}},{"type":"Feature","properties":{"h":3.0,"on_route":false},"geometry":{"type":"Polygon","coordinates":[[[6.870391,5.215823],[6.870385,5.215845],[6.870458,5.215867],[6.87043,5.215964],[6.870357,5.215942],[6.87035,5.215962],[6.870302,5.215948],[6.870308,5.215928],[6.870206,5.215898],[6.870241,5.215779],[6.870391,5.215823]]]}},{"type":"Feature","properties":{"h":3.0,"on_route":false},"geometry":{"type":"Polygon","coordinates":[[[6.869518,5.215422],[6.86951,5.21548],[6.869467,5.215474],[6.869475,5.215416],[6.869518,5.215422]]]}},{"type":"Feature","properties":{"h":3.0,"on_route":false},"geometry":{"type":"Polygon","coordinates":[[[6.866641,5.219079],[6.866651,5.219122],[6.866696,5.219111],[6.866743,5.219309],[6.866669,5.219327],[6.866664,5.219307],[6.866612,5.21932],[6.866559,5.219099],[6.866641,5.219079]]]}},{"type":"Feature","properties":{"h":3.0,"on_route":false},"geometry":{"type":"Polygon","coordinates":[[[6.867149,5.217947],[6.867069,5.218107],[6.866974,5.218059],[6.867054,5.2179],[6.867149,5.217947]]]}},{"type":"Feature","properties":{"h":3.0,"on_route":false},"geometry":{"type":"Polygon","coordinates":[[[6.86746,5.215594],[6.867392,5.215661],[6.867348,5.215617],[6.867416,5.215549],[6.86746,5.215594]]]}},{"type":"Feature","properties":{"h":3.0,"on_route":false},"geometry":{"type":"Polygon","coordinates":[[[6.870935,5.215111],[6.870925,5.215131],[6.870978,5.215154],[6.870936,5.215251],[6.870829,5.215204],[6.870871,5.215107],[6.870893,5.215117],[6.870902,5.215096],[6.870935,5.215111]]]}},{"type":"Feature","properties":{"h":3.0,"on_route":false},"geometry":{"type":"Polygon","coordinates":[[[6.869265,5.217391],[6.869221,5.217412],[6.869195,5.217355],[6.869239,5.217334],[6.869265,5.217391]]]}},{"type":"Feature","properties":{"h":3.0,"on_route":false},"geometry":{"type":"Polygon","coordinates":[[[6.868561,5.215166],[6.868497,5.215174],[6.868506,5.215243],[6.86855,5.215237],[6.868556,5.215281],[6.86841,5.215301],[6.868404,5.215257],[6.868382,5.21526],[6.868372,5.215191],[6.868395,5.215188],[6.868389,5.215145],[6.868555,5.215122],[6.868561,5.215166]]]}},{"type":"Feature","properties":{"h":3.0,"on_route":false},"geometry":{"type":"Polygon","coordinates":[[[6.865944,5.217185],[6.865925,5.217239],[6.865816,5.2172],[6.865835,5.217146],[6.865944,5.217185]]]}},{"type":"Feature","properties":{"h":3.0,"on_route":false},"geometry":{"type":"Polygon","coordinates":[[[6.866955,5.216072],[6.866942,5.216143],[6.866861,5.216128],[6.866875,5.216056],[6.866955,5.216072]]]}},{"type":"Feature","properties":{"h":3.0,"on_route":false},"geometry":{"type":"Polygon","coordinates":[[[6.869579,5.218197],[6.86959,5.218333],[6.869459,5.218344],[6.869455,5.218297],[6.869432,5.218299],[6.869427,5.218243],[6.869451,5.218241],[6.869448,5.218208],[6.869579,5.218197]]]}},{"type":"Feature","properties":{"h":3.0,"on_route":false},"geometry":{"type":"Polygon","coordinates":[[[6.866738,5.215507],[6.866698,5.215541],[6.866673,5.215511],[6.866713,5.215478],[6.866738,5.215507]]]}},{"type":"Feature","properties":{"h":3.0,"on_route":false},"geometry":{"type":"Polygon","coordinates":[[[6.865945,5.215929],[6.865829,5.215979],[6.865774,5.215851],[6.865891,5.215801],[6.865945,5.215929]]]}},{"type":"Feature","properties":{"h":3.0,"on_route":false},"geometry":{"type":"Polygon","coordinates":[[[6.870243,5.215558],[6.870186,5.21572],[6.87008,5.215683],[6.870137,5.215521],[6.870243,5.215558]]]}},{"type":"Feature","properties":{"h":3.0,"on_route":false},"geometry":{"type":"Polygon","coordinates":[[[6.865521,5.217833],[6.865504,5.21794],[6.865464,5.217933],[6.865461,5.217954],[6.865383,5.217941],[6.865386,5.217921],[6.865351,5.217915],[6.865368,5.217808],[6.865521,5.217833]]]}},{"type":"Feature","properties":{"h":3.0,"on_route":false},"geometry":{"type":"Polygon","coordinates":[[[6.866454,5.21514],[6.866436,5.215184],[6.866392,5.215167],[6.86641,5.215122],[6.866454,5.21514]]]}},{"type":"Feature","properties":{"h":3.0,"on_route":false},"geometry":{"type":"Polygon","coordinates":[[[6.866767,5.21542],[6.866716,5.215454],[6.866696,5.215424],[6.866747,5.21539],[6.866767,5.21542]]]}},{"type":"Feature","properties":{"h":3.0,"on_route":false},"geometry":{"type":"Polygon","coordinates":[[[6.867009,5.216965],[6.866949,5.217151],[6.866855,5.21712],[6.866915,5.216935],[6.867009,5.216965]]]}},{"type":"Feature","properties":{"h":3.0,"on_route":false},"geometry":{"type":"Polygon","coordinates":[[[6.865145,5.216541],[6.86515,5.216576],[6.865114,5.21658],[6.865109,5.216545],[6.865145,5.216541]]]}},{"type":"Feature","properties":{"h":3.0,"on_route":false},"geometry":{"type":"Polygon","coordinates":[[[6.866198,5.215091],[6.86612,5.215211],[6.866067,5.215177],[6.866145,5.215056],[6.866198,5.215091]]]}},{"type":"Feature","properties":{"h":3.0,"on_route":false},"geometry":{"type":"Polygon","coordinates":[[[6.867088,5.214513],[6.867131,5.214613],[6.867083,5.214634],[6.867041,5.214534],[6.867088,5.214513]]]}},{"type":"Feature","properties":{"h":3.0,"on_route":false},"geometry":{"type":"Polygon","coordinates":[[[6.867028,5.214885],[6.866991,5.214864],[6.867053,5.214754],[6.86709,5.214775],[6.867028,5.214885]]]}},{"type":"Feature","properties":{"h":3.0,"on_route":false},"geometry":{"type":"Polygon","coordinates":[[[6.86556,5.215761],[6.86551,5.21579],[6.865495,5.215763],[6.865544,5.215734],[6.86556,5.215761]]]}},{"type":"Feature","properties":{"h":3.0,"on_route":false},"geometry":{"type":"Polygon","coordinates":[[[6.866016,5.21703],[6.865996,5.217202],[6.865943,5.217196],[6.865963,5.217024],[6.866016,5.21703]]]}},{"type":"Feature","properties":{"h":3.0,"on_route":false},"geometry":{"type":"Polygon","coordinates":[[[6.869308,5.221756],[6.869236,5.221807],[6.869179,5.221728],[6.869208,5.221707],[6.869186,5.221677],[6.86923,5.221646],[6.869308,5.221756]]]}},{"type":"Feature","properties":{"h":3.0,"on_route":false},"geometry":{"type":"Polygon","coordinates":[[[6.865149,5.217244],[6.86512,5.217418],[6.864967,5.217392],[6.864996,5.217218],[6.865149,5.217244]]]}},{"type":"Feature","properties":{"h":3.0,"on_route":false},"geometry":{"type":"Polygon","coordinates":[[[6.869165,5.214347],[6.869157,5.214476],[6.869112,5.214473],[6.869121,5.214344],[6.869165,5.214347]]]}},{"type":"Feature","properties":{"h":3.0,"on_route":false},"geometry":{"type":"Polygon","coordinates":[[[6.870804,5.221014],[6.870836,5.221008],[6.870855,5.221109],[6.870741,5.221131],[6.870721,5.221031],[6.870751,5.221025],[6.870745,5.220994],[6.870798,5.220983],[6.870804,5.221014]]]}},{"type":"Feature","properties":{"h":3.0,"on_route":false},"geometry":{"type":"Polygon","coordinates":[[[6.868963,5.21534],[6.868914,5.215446],[6.868787,5.215386],[6.868835,5.21528],[6.868963,5.21534]]]}},{"type":"Feature","properties":{"h":3.0,"on_route":false},"geometry":{"type":"Polygon","coordinates":[[[6.867642,5.217813],[6.867521,5.217839],[6.8675,5.21774],[6.867621,5.217714],[6.867642,5.217813]]]}},{"type":"Feature","properties":{"h":3.0,"on_route":false},"geometry":{"type":"Polygon","coordinates":[[[6.866962,5.215374],[6.866917,5.215441],[6.866855,5.215398],[6.8669,5.215332],[6.866962,5.215374]]]}},{"type":"Feature","properties":{"h":3.0,"on_route":false},"geometry":{"type":"Polygon","coordinates":[[[6.867019,5.215741],[6.867,5.215765],[6.867031,5.215789],[6.866984,5.215848],[6.866859,5.215747],[6.866924,5.215665],[6.867019,5.215741]]]}},{"type":"Feature","properties":{"h":3.0,"on_route":false},"geometry":{"type":"Polygon","coordinates":[[[6.865688,5.216807],[6.86567,5.216902],[6.865598,5.216888],[6.865616,5.216793],[6.865688,5.216807]]]}},{"type":"Feature","properties":{"h":3.0,"on_route":false},"geometry":{"type":"Polygon","coordinates":[[[6.869185,5.214265],[6.869181,5.214331],[6.86911,5.214326],[6.869101,5.214451],[6.868974,5.214442],[6.868987,5.214251],[6.869185,5.214265]]]}},{"type":"Feature","properties":{"h":3.0,"on_route":false},"geometry":{"type":"Polygon","coordinates":[[[6.869695,5.220835],[6.869672,5.220844],[6.869627,5.220734],[6.869651,5.220725],[6.869695,5.220835]]]}},{"type":"Feature","properties":{"h":3.0,"on_route":false},"geometry":{"type":"Polygon","coordinates":[[[6.867064,5.215721],[6.867023,5.215684],[6.867061,5.215643],[6.867029,5.215613],[6.867094,5.215541],[6.867167,5.215608],[6.867064,5.215721]]]}},{"type":"Feature","properties":{"h":3.0,"on_route":false},"geometry":{"type":"Polygon","coordinates":[[[6.868967,5.214748],[6.868969,5.214775],[6.868997,5.214773],[6.869002,5.214821],[6.868974,5.214824],[6.868979,5.214887],[6.868897,5.214895],[6.868885,5.214756],[6.868967,5.214748]]]}},{"type":"Feature","properties":{"h":3.0,"on_route":false},"geometry":{"type":"Polygon","coordinates":[[[6.869495,5.219097],[6.869541,5.219239],[6.86948,5.219259],[6.869433,5.219118],[6.869495,5.219097]]]}},{"type":"Feature","properties":{"h":3.0,"on_route":false},"geometry":{"type":"Polygon","coordinates":[[[6.86597,5.216001],[6.865905,5.216032],[6.865884,5.215987],[6.865949,5.215957],[6.86597,5.216001]]]}},{"type":"Feature","properties":{"h":3.0,"on_route":false},"geometry":{"type":"Polygon","coordinates":[[[6.867968,5.217837],[6.867875,5.217874],[6.867866,5.217851],[6.867828,5.217865],[6.867793,5.217776],[6.867924,5.217725],[6.867968,5.217837]]]}},{"type":"Feature","properties":{"h":3.0,"on_route":false},"geometry":{"type":"Polygon","coordinates":[[[6.867554,5.21575],[6.867467,5.21587],[6.867396,5.215819],[6.867483,5.215698],[6.867554,5.21575]]]}},{"type":"Feature","properties":{"h":3.0,"on_route":false},"geometry":{"type":"Polygon","coordinates":[[[6.865819,5.217136],[6.865814,5.217182],[6.865777,5.217177],[6.865782,5.217132],[6.865819,5.217136]]]}},{"type":"Feature","properties":{"h":3.0,"on_route":false},"geometry":{"type":"Polygon","coordinates":[[[6.868171,5.220061],[6.868179,5.220109],[6.868145,5.220114],[6.868137,5.220067],[6.868171,5.220061]]]}},{"type":"Feature","properties":{"h":3.0,"on_route":false},"geometry":{"type":"Polygon","coordinates":[[[6.866643,5.217297],[6.866563,5.217272],[6.866573,5.21724],[6.86657,5.217239],[6.86663,5.217049],[6.866713,5.217076],[6.866643,5.217297]]]}},{"type":"Feature","properties":{"h":3.0,"on_route":false},"geometry":{"type":"Polygon","coordinates":[[[6.86643,5.214998],[6.866383,5.215112],[6.866267,5.215064],[6.866313,5.214951],[6.86643,5.214998]]]}},{"type":"Feature","properties":{"h":3.0,"on_route":false},"geometry":{"type":"Polygon","coordinates":[[[6.865261,5.2167],[6.865269,5.216809],[6.865222,5.216813],[6.865214,5.216703],[6.865261,5.2167]]]}},{"type":"Feature","properties":{"h":3.0,"on_route":false},"geometry":{"type":"Polygon","coordinates":[[[6.868306,5.218587],[6.8682,5.218634],[6.868175,5.218578],[6.868281,5.218531],[6.868306,5.218587]]]}},{"type":"Feature","properties":{"h":3.0,"on_route":false},"geometry":{"type":"Polygon","coordinates":[[[6.866668,5.215371],[6.866654,5.215411],[6.866595,5.21539],[6.866609,5.215349],[6.866668,5.215371]]]}},{"type":"Feature","properties":{"h":3.0,"on_route":false},"geometry":{"type":"Polygon","coordinates":[[[6.865346,5.216099],[6.865275,5.21613],[6.865227,5.216019],[6.865298,5.215988],[6.865346,5.216099]]]}},{"type":"Feature","properties":{"h":3.0,"on_route":false},"geometry":{"type":"Polygon","coordinates":[[[6.865785,5.215796],[6.86567,5.215865],[6.865595,5.215741],[6.865711,5.215672],[6.865785,5.215796]]]}},{"type":"Feature","properties":{"h":3.0,"on_route":false},"geometry":{"type":"Polygon","coordinates":[[[6.870707,5.220656],[6.870729,5.22074],[6.870686,5.220752],[6.870663,5.220668],[6.870707,5.220656]]]}},{"type":"Feature","properties":{"h":3.0,"on_route":false},"geometry":{"type":"Polygon","coordinates":[[[6.86725,5.214674],[6.867242,5.214724],[6.86715,5.214711],[6.867157,5.214661],[6.86725,5.214674]]]}},{"type":"Feature","properties":{"h":3.0,"on_route":false},"geometry":{"type":"Polygon","coordinates":[[[6.865368,5.217808],[6.865351,5.217915],[6.86524,5.217897],[6.865258,5.21779],[6.865368,5.217808]]]}},{"type":"Feature","properties":{"h":3.0,"on_route":false},"geometry":{"type":"Polygon","coordinates":[[[6.866704,5.21582],[6.86669,5.215843],[6.866645,5.215816],[6.86666,5.215792],[6.866704,5.21582]]]}},{"type":"Feature","properties":{"h":3.0,"on_route":false},"geometry":{"type":"Polygon","coordinates":[[[6.866072,5.217542],[6.866054,5.217584],[6.865977,5.217551],[6.865994,5.217509],[6.866072,5.217542]]]}},{"type":"Feature","properties":{"h":3.0,"on_route":false},"geometry":{"type":"Polygon","coordinates":[[[6.865784,5.215549],[6.865678,5.215591],[6.865659,5.215543],[6.865766,5.215502],[6.865784,5.215549]]]}},{"type":"Feature","properties":{"h":3.0,"on_route":false},"geometry":{"type":"Polygon","coordinates":[[[6.866745,5.2152],[6.866735,5.215234],[6.866698,5.215224],[6.866708,5.21519],[6.866745,5.2152]]]}},{"type":"Feature","properties":{"h":3.0,"on_route":false},"geometry":{"type":"Polygon","coordinates":[[[6.869575,5.2218],[6.869539,5.221815],[6.86951,5.221746],[6.869545,5.221731],[6.869575,5.2218]]]}},{"type":"Feature","properties":{"h":3.0,"on_route":false},"geometry":{"type":"Polygon","coordinates":[[[6.870267,5.215736],[6.870221,5.215718],[6.870285,5.215557],[6.870331,5.215575],[6.870267,5.215736]]]}},{"type":"Feature","properties":{"h":3.0,"on_route":false},"geometry":{"type":"Polygon","coordinates":[[[6.866425,5.215179],[6.866412,5.215212],[6.866381,5.2152],[6.866393,5.215167],[6.866425,5.215179]]]}}]}