{"type":"FeatureCollection","features":[{"type":"Feature","properties":{"h":3.0,"on_route":false},"geometry":{"type":"Polygon","coordinates":[[[6.95916,4.917923],[6.959155,4.917949],[6.95913,4.917945],[6.959135,4.917919],[6.95916,4.917923]]]}},{"type":"Feature","properties":{"h":3.0,"on_route":false},"geometry":{"type":"Polygon","coordinates":[[[6.962778,4.91966],[6.962771,4.919701],[6.96273,4.919694],[6.962737,4.919654],[6.962778,4.91966]]]}},{"type":"Feature","properties":{"h":3.0,"on_route":false},"geometry":{"type":"Polygon","coordinates":[[[6.959536,4.917289],[6.959514,4.917366],[6.95941,4.917337],[6.959431,4.91726],[6.959536,4.917289]]]}},{"type":"Feature","properties":{"h":3.0,"on_route":false},"geometry":{"type":"Polygon","coordinates":[[[6.964318,4.917736],[6.964307,4.917767],[6.964278,4.917757],[6.964289,4.917726],[6.964318,4.917736]]]}},{"type":"Feature","properties":{"h":3.0,"on_route":false},"geometry":{"type":"Polygon","coordinates":[[[6.963089,4.918864],[6.963074,4.91891],[6.963043,4.918901],[6.963058,4.918854],[6.963089,4.918864]]]}},{"type":"Feature","properties":{"h":3.0,"on_route":false},"geometry":{"type":"Polygon","coordinates":[[[6.959878,4.918607],[6.95984,4.918639],[6.959793,4.918584],[6.959831,4.918551],[6.959878,4.918607]]]}},{"type":"Feature","properties":{"h":3.0,"on_route":false},"geometry":{"type":"Polygon","coordinates":[[[6.959046,4.918705],[6.959035,4.918725],[6.95896,4.918682],[6.958971,4.918662],[6.959046,4.918705]]]}},{"type":"Feature","properties":{"h":3.0,"on_route":false},"geometry":{"type":"Polygon","coordinates":[[[6.962903,4.919518],[6.962885,4.919572],[6.962844,4.919558],[6.962861,4.919505],[6.962903,4.919518]]]}},{"type":"Feature","properties":{"h":3.0,"on_route":false},"geometry":{"type":"Polygon","coordinates":[[[6.96299,4.914353],[6.962953,4.914491],[6.962891,4.914474],[6.962928,4.914336],[6.96299,4.914353]]]}},{"type":"Feature","properties":{"h":3.0,"on_route":false},"geometry":{"type":"Polygon","coordinates":[[[6.959545,4.91784],[6.959527,4.917907],[6.959487,4.917897],[6.959505,4.917829],[6.959545,4.91784]]]}},{"type":"Feature","properties":{"h":3.0,"on_route":false},"geometry":{"type":"Polygon","coordinates":[[[6.961277,4.920553],[6.961259,4.920588],[6.961202,4.920558],[6.961221,4.920523],[6.961277,4.920553]]]}},{"type":"Feature","properties":{"h":3.0,"on_route":false},"geometry":{"type":"Polygon","coordinates":[[[6.962885,4.919572],[6.962859,4.919654],[6.962817,4.919641],[6.962844,4.919558],[6.962885,4.919572]]]}},{"type":"Feature","properties":{"h":3.0,"on_route":false},"geometry":{"type":"Polygon","coordinates":[[[6.95906,4.918608],[6.959122,4.918651],[6.959109,4.91867],[6.959047,4.918627],[6.95906,4.918608]]]}},{"type":"Feature","properties":{"h":3.0,"on_route":false},"geometry":{"type":"Polygon","coordinates":[[[6.959195,4.918867],[6.959168,4.91886],[6.959179,4.918814],[6.959206,4.91882],[6.959195,4.918867]]]}},{"type":"Feature","properties":{"h":3.0,"on_route":false},"geometry":{"type":"Polygon","coordinates":[[[6.959413,4.918008],[6.959397,4.918045],[6.959367,4.918031],[6.959383,4.917995],[6.959413,4.918008]]]}},{"type":"Feature","properties":{"h":3.0,"on_route":false},"geometry":{"type":"Polygon","coordinates":[[[6.963549,4.919801],[6.963544,4.919844],[6.963501,4.919838],[6.963507,4.919795],[6.963549,4.919801]]]}},{"type":"Feature","properties":{"h":3.0,"on_route":false},"geometry":{"type":"Polygon","coordinates":[[[6.95833,4.920911],[6.958339,4.920887],[6.958611,4.920987],[6.958537,4.92119],[6.958235,4.921079],[6.9583,4.9209],[6.95833,4.920911]]]}},{"type":"Feature","properties":{"h":3.0,"on_route":false},"geometry":{"type":"Polygon","coordinates":[[[6.961029,4.915152],[6.961005,4.915288],[6.960961,4.91528],[6.960985,4.915145],[6.961029,4.915152]]]}},{"type":"Feature","properties":{"h":3.0,"on_route":false},"geometry":{"type":"Polygon","coordinates":[[[6.963986,4.915503],[6.963981,4.91553],[6.963951,4.915525],[6.963956,4.915498],[6.963986,4.915503]]]}},{"type":"Feature","properties":{"h":3.0,"on_route":false},"geometry":{"type":"Polygon","coordinates":[[[6.959997,4.918793],[6.95994,4.918826],[6.95987,4.918704],[6.959928,4.918671],[6.959997,4.918793]]]}},{"type":"Feature","properties":{"h":3.0,"on_route":false},"geometry":{"type":"Polygon","coordinates":[[[6.959128,4.921409],[6.959123,4.921455],[6.959085,4.921451],[6.95909,4.921405],[6.959128,4.921409]]]}},{"type":"Feature","properties":{"h":3.0,"on_route":false},"geometry":{"type":"Polygon","coordinates":[[[6.964002,4.919014],[6.963941,4.919106],[6.963907,4.919084],[6.963968,4.918992],[6.964002,4.919014]]]}},{"type":"Feature","properties":{"h":3.0,"on_route":false},"geometry":{"type":"Polygon","coordinates":[[[6.958957,4.921352],[6.958948,4.921397],[6.958863,4.92138],[6.958872,4.921335],[6.958957,4.921352]]]}},{"type":"Feature","properties":{"h":3.0,"on_route":false},"geometry":{"type":"Polygon","coordinates":[[[6.965055,4.919142],[6.965054,4.919161],[6.965028,4.919159],[6.96503,4.91914],[6.965055,4.919142]]]}},{"type":"Feature","properties":{"h":3.0,"on_route":false},"geometry":{"type":"Polygon","coordinates":[[[6.959086,4.918677],[6.95907,4.918693],[6.959009,4.918634],[6.959024,4.918618],[6.959086,4.918677]]]}},{"type":"Feature","properties":{"h":3.0,"on_route":false},"geometry":{"type":"Polygon","coordinates":[[[6.96313,4.91878],[6.963095,4.918863],[6.963062,4.918848],[6.963097,4.918766],[6.96313,4.91878]]]}},{"type":"Feature","properties":{"h":3.0,"on_route":false},"geometry":{"type":"Polygon","coordinates":[[[6.964362,4.919357],[6.96437,4.919328],[6.964581,4.919389],[6.964561,4.919458],[6.964293,4.91938],[6.964305,4.91934],[6.964362,4.919357]]]}},{"type":"Feature","properties":{"h":3.0,"on_route":false},"geometry":{"type":"Polygon","coordinates":[[[6.957881,4.920734],[6.957825,4.920932],[6.957465,4.920829],[6.957513,4.920662],[6.957541,4.92067],[6.957549,4.92064],[6.957881,4.920734]]]}},{"type":"Feature","properties":{"h":3.0,"on_route":false},"geometry":{"type":"Polygon","coordinates":[[[6.960148,4.919075],[6.960064,4.919127],[6.959992,4.919009],[6.960076,4.918958],[6.960148,4.919075]]]}},{"type":"Feature","properties":{"h":3.0,"on_route":false},"geometry":{"type":"Polygon","coordinates":[[[6.960957,4.915139],[6.960934,4.915274],[6.96089,4.915267],[6.960913,4.915132],[6.960957,4.915139]]]}},{"type":"Feature","properties":{"h":3.0,"on_route":false},"geometry":{"type":"Polygon","coordinates":[[[6.962732,4.919648],[6.962732,4.919689],[6.962675,4.919689],[6.962675,4.919648],[6.962732,4.919648]]]}},{"type":"Feature","properties":{"h":3.0,"on_route":false},"geometry":{"type":"Polygon","coordinates":[[[6.963014,4.918878],[6.962951,4.919014],[6.962769,4.918929],[6.962831,4.918793],[6.963014,4.918878]]]}},{"type":"Feature","properties":{"h":3.0,"on_route":false},"geometry":{"type":"Polygon","coordinates":[[[6.959627,4.921566],[6.959615,4.921609],[6.959479,4.921569],[6.959492,4.921526],[6.959627,4.921566]]]}},{"type":"Feature","properties":{"h":3.0,"on_route":false},"geometry":{"type":"Polygon","coordinates":[[[6.958273,4.920846],[6.958217,4.921044],[6.957857,4.920941],[6.957913,4.920744],[6.958273,4.920846]]]}},{"type":"Feature","properties":{"h":3.0,"on_route":false},"geometry":{"type":"Polygon","coordinates":[[[6.962742,4.920159],[6.962738,4.92021],[6.962667,4.920204],[6.962671,4.920153],[6.962742,4.920159]]]}},{"type":"Feature","properties":{"h":3.0,"on_route":false},"geometry":{"type":"Polygon","coordinates":[[[6.960465,4.920141],[6.960443,4.920207],[6.960321,4.920165],[6.960344,4.920099],[6.960465,4.920141]]]}},{"type":"Feature","properties":{"h":3.0,"on_route":false},"geometry":{"type":"Polygon","coordinates":[[[6.959754,4.918457],[6.959697,4.918501],[6.959669,4.918465],[6.959726,4.918421],[6.959754,4.918457]]]}},{"type":"Feature","properties":{"h":3.0,"on_route":false},"geometry":{"type":"Polygon","coordinates":[[[6.959233,4.918336],[6.959219,4.918358],[6.959143,4.918308],[6.959157,4.918286],[6.959233,4.918336]]]}},{"type":"Feature","properties":{"h":3.0,"on_route":false},"geometry":{"type":"Polygon","coordinates":[[[6.958966,4.918387],[6.958951,4.918407],[6.958896,4.918366],[6.958911,4.918346],[6.958966,4.918387]]]}},{"type":"Feature","properties":{"h":3.0,"on_route":false},"geometry":{"type":"Polygon","coordinates":[[[6.962323,4.919613],[6.962313,4.91965],[6.962348,4.919659],[6.962338,4.9197],[6.962198,4.919664],[6.962219,4.919585],[6.962323,4.919613]]]}},{"type":"Feature","properties":{"h":3.0,"on_route":false},"geometry":{"type":"Polygon","coordinates":[[[6.963411,4.918289],[6.963437,4.918451],[6.963457,4.918448],[6.963451,4.918415],[6.963581,4.918394],[6.963575,4.91836],[6.963604,4.918355],[6.963617,4.918433],[6.963565,4.918442],[6.963571,4.918477],[6.963447,4.918497],[6.963452,4.918525],[6.963384,4.918537],[6.963345,4.9183],[6.963411,4.918289]]]}},{"type":"Feature","properties":{"h":3.0,"on_route":false},"geometry":{"type":"Polygon","coordinates":[[[6.963494,4.918999],[6.963499,4.919115],[6.963431,4.919118],[6.963426,4.919002],[6.963494,4.918999]]]}},{"type":"Feature","properties":{"h":3.0,"on_route":false},"geometry":{"type":"Polygon","coordinates":[[[6.960881,4.915338],[6.960871,4.915385],[6.960841,4.915379],[6.960851,4.915332],[6.960881,4.915338]]]}},{"type":"Feature","properties":{"h":3.0,"on_route":false},"geometry":{"type":"Polygon","coordinates":[[[6.959496,4.918129],[6.959459,4.91816],[6.959367,4.918051],[6.959404,4.91802],[6.959496,4.918129]]]}},{"type":"Feature","properties":{"h":3.0,"on_route":false},"geometry":{"type":"Polygon","coordinates":[[[6.957666,4.917637],[6.957652,4.917678],[6.957794,4.917726],[6.957386,4.918924],[6.956768,4.918712],[6.956733,4.918816],[6.95623,4.918643],[6.956342,4.918316],[6.956307,4.918304],[6.956375,4.918104],[6.95667,4.918205],[6.956948,4.91739],[6.957666,4.917637]]]}},{"type":"Feature","properties":{"h":3.0,"on_route":false},"geometry":{"type":"Polygon","coordinates":[[[6.959604,4.915149],[6.959599,4.915174],[6.959576,4.915171],[6.95958,4.915145],[6.959604,4.915149]]]}},{"type":"Feature","properties":{"h":3.0,"on_route":false},"geometry":{"type":"Polygon","coordinates":[[[6.960493,4.920376],[6.960463,4.920372],[6.960471,4.920315],[6.960501,4.920319],[6.960493,4.920376]]]}},{"type":"Feature","properties":{"h":3.0,"on_route":false},"geometry":{"type":"Polygon","coordinates":[[[6.960708,4.919712],[6.960694,4.919761],[6.960669,4.919754],[6.960683,4.919704],[6.960708,4.919712]]]}},{"type":"Feature","properties":{"h":3.0,"on_route":false},"geometry":{"type":"Polygon","coordinates":[[[6.959167,4.918571],[6.959148,4.918599],[6.959071,4.918544],[6.95909,4.918517],[6.959167,4.918571]]]}},{"type":"Feature","properties":{"h":3.0,"on_route":false},"geometry":{"type":"Polygon","coordinates":[[[6.964062,4.91892],[6.96404,4.918963],[6.963997,4.918941],[6.964019,4.918898],[6.964062,4.91892]]]}},{"type":"Feature","properties":{"h":3.0,"on_route":false},"geometry":{"type":"Polygon","coordinates":[[[6.963437,4.91979],[6.963429,4.919836],[6.963393,4.91983],[6.963401,4.919784],[6.963437,4.91979]]]}},{"type":"Feature","properties":{"h":3.0,"on_route":false},"geometry":{"type":"Polygon","coordinates":[[[6.962412,4.920492],[6.962387,4.920585],[6.962169,4.920525],[6.962194,4.920432],[6.962412,4.920492]]]}},{"type":"Feature","properties":{"h":3.0,"on_route":false},"geometry":{"type":"Polygon","coordinates":[[[6.960613,4.920393],[6.960608,4.920421],[6.960578,4.920416],[6.960583,4.920388],[6.960613,4.920393]]]}},{"type":"Feature","properties":{"h":3.0,"on_route":false},"geometry":{"type":"Polygon","coordinates":[[[6.957769,4.919242],[6.957751,4.919309],[6.957705,4.919296],[6.957723,4.91923],[6.957769,4.919242]]]}},{"type":"Feature","properties":{"h":3.0,"on_route":false},"geometry":{"type":"Polygon","coordinates":[[[6.962455,4.918849],[6.962433,4.918909],[6.962386,4.918892],[6.962408,4.918832],[6.962455,4.918849]]]}},{"type":"Feature","properties":{"h":3.0,"on_route":false},"geometry":{"type":"Polygon","coordinates":[[[6.964888,4.915366],[6.964849,4.915617],[6.964754,4.915602],[6.964793,4.915351],[6.964888,4.915366]]]}},{"type":"Feature","properties":{"h":3.0,"on_route":false},"geometry":{"type":"Polygon","coordinates":[[[6.959244,4.921419],[6.959232,4.921478],[6.959175,4.921466],[6.959188,4.921408],[6.959244,4.921419]]]}},{"type":"Feature","properties":{"h":3.0,"on_route":false},"geometry":{"type":"Polygon","coordinates":[[[6.959034,4.921504],[6.959001,4.921486],[6.959043,4.921412],[6.959076,4.92143],[6.959034,4.921504]]]}},{"type":"Feature","properties":{"h":3.0,"on_route":false},"geometry":{"type":"Polygon","coordinates":[[[6.958181,4.917123],[6.958167,4.917314],[6.958062,4.917307],[6.958076,4.917115],[6.958181,4.917123]]]}},{"type":"Feature","properties":{"h":3.0,"on_route":false},"geometry":{"type":"Polygon","coordinates":[[[6.963803,4.91905],[6.963765,4.919099],[6.963673,4.919029],[6.963711,4.918979],[6.963803,4.91905]]]}}]}