{"type":"FeatureCollection","features":[{"type":"Feature","properties":{"h":3.0,"on_route":false},"geometry":{"type":"Polygon","coordinates":[[[7.035547,4.820059],[7.035518,4.820143],[7.035288,4.820064],[7.035317,4.81998],[7.035547,4.820059]]]}},{"type":"Feature","properties":{"h":3.0,"on_route":false},"geometry":{"type":"Polygon","coordinates":[[[7.032968,4.817349],[7.032954,4.817379],[7.032909,4.817358],[7.032922,4.817328],[7.032968,4.817349]]]}},{"type":"Feature","properties":{"h":3.0,"on_route":false},"geometry":{"type":"Polygon","coordinates":[[[7.03307,4.819565],[7.033032,4.81964],[7.03285,4.819547],[7.032888,4.819472],[7.03307,4.819565]]]}},{"type":"Feature","properties":{"h":3.0,"on_route":false},"geometry":{"type":"Polygon","coordinates":[[[7.035215,4.820551],[7.035194,4.820544],[7.035182,4.820581],[7.035082,4.820547],[7.035188,4.820224],[7.035232,4.820239],[7.035244,4.820204],[7.035321,4.820229],[7.035215,4.820551]]]}},{"type":"Feature","properties":{"h":3.0,"on_route":false},"geometry":{"type":"Polygon","coordinates":[[[7.034018,4.819631],[7.033989,4.819687],[7.033946,4.819664],[7.033974,4.819608],[7.034018,4.819631]]]}},{"type":"Feature","properties":{"h":3.0,"on_route":false},"geometry":{"type":"Polygon","coordinates":[[[7.035557,4.821117],[7.035506,4.821101],[7.035602,4.8208],[7.035653,4.820817],[7.035557,4.821117]]]}},{"type":"Feature","properties":{"h":3.0,"on_route":false},"geometry":{"type":"Polygon","coordinates":[[[7.03372,4.81744],[7.033685,4.817419],[7.033722,4.817356],[7.033757,4.817377],[7.03372,4.81744]]]}},{"type":"Feature","properties":{"h":3.0,"on_route":false},"geometry":{"type":"Polygon","coordinates":[[[7.035529,4.820881],[7.035515,4.820932],[7.035412,4.820902],[7.035427,4.820852],[7.035529,4.820881]]]}},{"type":"Feature","properties":{"h":3.0,"on_route":false},"geometry":{"type":"Polygon","coordinates":[[[7.03304,4.819804],[7.033022,4.819829],[7.032897,4.819743],[7.032915,4.819718],[7.03304,4.819804]]]}},{"type":"Feature","properties":{"h":3.0,"on_route":false},"geometry":{"type":"Polygon","coordinates":[[[7.033157,4.821348],[7.033126,4.821578],[7.033071,4.821571],[7.033102,4.821341],[7.033157,4.821348]]]}},{"type":"Feature","properties":{"h":3.0,"on_route":false},"geometry":{"type":"Polygon","coordinates":[[[7.032132,4.81973],[7.03213,4.819847],[7.032088,4.819846],[7.03209,4.819729],[7.032132,4.81973]]]}},{"type":"Feature","properties":{"h":3.0,"on_route":false},"geometry":{"type":"Polygon","coordinates":[[[7.036642,4.815314],[7.036559,4.81526],[7.036662,4.8151],[7.036745,4.815154],[7.036642,4.815314]]]}},{"type":"Feature","properties":{"h":3.0,"on_route":false},"geometry":{"type":"Polygon","coordinates":[[[7.034947,4.818772],[7.03493,4.81876],[7.034987,4.818678],[7.035004,4.81869],[7.034947,4.818772]]]}},{"type":"Feature","properties":{"h":3.0,"on_route":false},"geometry":{"type":"Polygon","coordinates":[[[7.035611,4.819999],[7.03559,4.820081],[7.035548,4.82007],[7.035569,4.819988],[7.035611,4.819999]]]}},{"type":"Feature","properties":{"h":3.0,"on_route":false},"geometry":{"type":"Polygon","coordinates":[[[7.039361,4.816498],[7.039221,4.81686],[7.039097,4.816812],[7.039237,4.81645],[7.039361,4.816498]]]}},{"type":"Feature","properties":{"h":3.0,"on_route":false},"geometry":{"type":"Polygon","coordinates":[[[7.038511,4.821386],[7.038484,4.821381],[7.03851,4.821262],[7.038537,4.821268],[7.038511,4.821386]]]}},{"type":"Feature","properties":{"h":3.0,"on_route":false},"geometry":{"type":"Polygon","coordinates":[[[7.035893,4.821129],[7.035796,4.82145],[7.035561,4.821378],[7.035658,4.821058],[7.035893,4.821129]]]}},{"type":"Feature","properties":{"h":3.0,"on_route":false},"geometry":{"type":"Polygon","coordinates":[[[7.035647,4.819753],[7.035637,4.819801],[7.035608,4.819795],[7.035619,4.819747],[7.035647,4.819753]]]}},{"type":"Feature","properties":{"h":3.0,"on_route":false},"geometry":{"type":"Polygon","coordinates":[[[7.037671,4.821792],[7.037661,4.821848],[7.037637,4.821844],[7.037647,4.821788],[7.037671,4.821792]]]}},{"type":"Feature","properties":{"h":3.0,"on_route":false},"geometry":{"type":"Polygon","coordinates":[[[7.035513,4.815575],[7.035537,4.815592],[7.035414,4.815768],[7.035378,4.815743],[7.03548,4.815596],[7.035492,4.815605],[7.035513,4.815575]]]}},{"type":"Feature","properties":{"h":3.0,"on_route":false},"geometry":{"type":"Polygon","coordinates":[[[7.039523,4.818797],[7.039488,4.818901],[7.039421,4.818878],[7.039455,4.818774],[7.039523,4.818797]]]}},{"type":"Feature","properties":{"h":3.0,"on_route":true},"geometry":{"type":"Polygon","coordinates":[[[7.036309,4.818173],[7.036123,4.818657],[7.035957,4.818593],[7.036144,4.818109],[7.036309,4.818173]]]}},{"type":"Feature","properties":{"h":3.0,"on_route":false},"geometry":{"type":"Polygon","coordinates":[[[7.033161,4.818782],[7.033512,4.819014],[7.033396,4.81919],[7.033045,4.818957],[7.033161,4.818782]]]}},{"type":"Feature","properties":{"h":3.0,"on_route":false},"geometry":{"type":"Polygon","coordinates":[[[7.034315,4.819539],[7.03431,4.819581],[7.034273,4.819577],[7.034277,4.819535],[7.034315,4.819539]]]}},{"type":"Feature","properties":{"h":3.0,"on_route":false},"geometry":{"type":"Polygon","coordinates":[[[7.036971,4.821362],[7.036789,4.821289],[7.036712,4.821481],[7.036622,4.821445],[7.036778,4.821057],[7.036806,4.821068],[7.036858,4.820939],[7.03692,4.820964],[7.036947,4.820896],[7.037129,4.82097],[7.036971,4.821362]]]}},{"type":"Feature","properties":{"h":3.0,"on_route":false},"geometry":{"type":"Polygon","coordinates":[[[7.038293,4.816958],[7.038172,4.816911],[7.038291,4.816601],[7.038412,4.816648],[7.038293,4.816958]]]}},{"type":"Feature","properties":{"h":3.0,"on_route":false},"geometry":{"type":"Polygon","coordinates":[[[7.036001,4.816842],[7.035977,4.816827],[7.036007,4.816779],[7.036031,4.816794],[7.036001,4.816842]]]}},{"type":"Feature","properties":{"h":3.0,"on_route":false},"geometry":{"type":"Polygon","coordinates":[[[7.033607,4.820547],[7.033586,4.82053],[7.033657,4.820441],[7.033678,4.820457],[7.033607,4.820547]]]}},{"type":"Feature","properties":{"h":3.0,"on_route":false},"geometry":{"type":"Polygon","coordinates":[[[7.031928,4.819413],[7.031843,4.819411],[7.031844,4.819387],[7.031929,4.819389],[7.031928,4.819413]]]}},{"type":"Feature","properties":{"h":3.0,"on_route":false},"geometry":{"type":"Polygon","coordinates":[[[7.034593,4.819183],[7.034543,4.819259],[7.034477,4.819216],[7.034528,4.819139],[7.034593,4.819183]]]}},{"type":"Feature","properties":{"h":3.0,"on_route":false},"geometry":{"type":"Polygon","coordinates":[[[7.032633,4.819039],[7.032619,4.819082],[7.032568,4.819066],[7.032582,4.819022],[7.032633,4.819039]]]}},{"type":"Feature","properties":{"h":3.0,"on_route":false},"geometry":{"type":"Polygon","coordinates":[[[7.032188,4.820144],[7.032185,4.820173],[7.032135,4.820169],[7.032137,4.820139],[7.032188,4.820144]]]}},{"type":"Feature","properties":{"h":3.0,"on_route":false},"geometry":{"type":"Polygon","coordinates":[[[7.032476,4.820668],[7.032396,4.820744],[7.032289,4.820631],[7.03237,4.820555],[7.032476,4.820668]]]}},{"type":"Feature","properties":{"h":3.0,"on_route":false},"geometry":{"type":"Polygon","coordinates":[[[7.032803,4.817143],[7.032527,4.817593],[7.032067,4.81731],[7.032217,4.817065],[7.032294,4.817112],[7.032419,4.816907],[7.032803,4.817143]]]}},{"type":"Feature","properties":{"h":3.0,"on_route":false},"geometry":{"type":"Polygon","coordinates":[[[7.036232,4.815722],[7.036201,4.815772],[7.036164,4.815749],[7.036195,4.815699],[7.036232,4.815722]]]}},{"type":"Feature","properties":{"h":3.0,"on_route":false},"geometry":{"type":"Polygon","coordinates":[[[7.035316,4.819973],[7.035289,4.820056],[7.035242,4.82004],[7.03527,4.819958],[7.035316,4.819973]]]}},{"type":"Feature","properties":{"h":3.0,"on_route":false},"geometry":{"type":"Polygon","coordinates":[[[7.039464,4.817223],[7.03943,4.817312],[7.039069,4.817173],[7.039102,4.817084],[7.039464,4.817223]]]}},{"type":"Feature","properties":{"h":3.0,"on_route":false},"geometry":{"type":"Polygon","coordinates":[[[7.039185,4.820359],[7.03905,4.820717],[7.038969,4.820687],[7.038918,4.820823],[7.038728,4.820752],[7.038779,4.820615],[7.038698,4.820585],[7.038833,4.820226],[7.039185,4.820359]]]}},{"type":"Feature","properties":{"h":3.0,"on_route":false},"geometry":{"type":"Polygon","coordinates":[[[7.0381,4.81496],[7.038083,4.814997],[7.038049,4.814981],[7.038067,4.814944],[7.0381,4.81496]]]}},{"type":"Feature","properties":{"h":3.0,"on_route":false},"geometry":{"type":"Polygon","coordinates":[[[7.034382,4.820078],[7.034387,4.820063],[7.034651,4.820148],[7.034609,4.820278],[7.034272,4.820169],[7.034309,4.820054],[7.034382,4.820078]]]}},{"type":"Feature","properties":{"h":3.0,"on_route":false},"geometry":{"type":"Polygon","coordinates":[[[7.035427,4.820796],[7.035535,4.820833],[7.035528,4.820856],[7.03542,4.820819],[7.035427,4.820796]]]}},{"type":"Feature","properties":{"h":3.0,"on_route":false},"geometry":{"type":"Polygon","coordinates":[[[7.035374,4.814169],[7.035338,4.814246],[7.035091,4.814131],[7.035127,4.814054],[7.035374,4.814169]]]}},{"type":"Feature","properties":{"h":3.0,"on_route":true},"geometry":{"type":"Polygon","coordinates":[[[7.036794,4.819443],[7.036753,4.819427],[7.036791,4.819331],[7.036832,4.819347],[7.036794,4.819443]]]}},{"type":"Feature","properties":{"h":3.0,"on_route":false},"geometry":{"type":"Polygon","coordinates":[[[7.032463,4.816855],[7.032359,4.816794],[7.032497,4.816556],[7.032601,4.816617],[7.032463,4.816855]]]}},{"type":"Feature","properties":{"h":3.0,"on_route":false},"geometry":{"type":"Polygon","coordinates":[[[7.033579,4.821342],[7.033557,4.821423],[7.033485,4.821402],[7.033508,4.821322],[7.033579,4.821342]]]}},{"type":"Feature","properties":{"h":3.0,"on_route":false},"geometry":{"type":"Polygon","coordinates":[[[7.037567,4.817924],[7.037537,4.817912],[7.037579,4.817801],[7.037609,4.817813],[7.037567,4.817924]]]}},{"type":"Feature","properties":{"h":3.0,"on_route":false},"geometry":{"type":"Polygon","coordinates":[[[7.035419,4.814422],[7.035372,4.814515],[7.035203,4.81443],[7.03525,4.814337],[7.035419,4.814422]]]}},{"type":"Feature","properties":{"h":3.0,"on_route":false},"geometry":{"type":"Polygon","coordinates":[[[7.033147,4.819046],[7.033112,4.819105],[7.033067,4.819077],[7.033102,4.819019],[7.033147,4.819046]]]}},{"type":"Feature","properties":{"h":3.0,"on_route":false},"geometry":{"type":"Polygon","coordinates":[[[7.039161,4.816063],[7.039137,4.816055],[7.039174,4.815958],[7.039197,4.815966],[7.039161,4.816063]]]}},{"type":"Feature","properties":{"h":3.0,"on_route":false},"geometry":{"type":"Polygon","coordinates":[[[7.034961,4.816928],[7.034977,4.816906],[7.035202,4.817063],[7.035187,4.817085],[7.035873,4.817562],[7.035714,4.817791],[7.035618,4.817724],[7.035669,4.817651],[7.035333,4.817417],[7.035282,4.817491],[7.035045,4.817326],[7.035096,4.817252],[7.034775,4.817029],[7.034882,4.816874],[7.034961,4.816928]]]}},{"type":"Feature","properties":{"h":3.0,"on_route":false},"geometry":{"type":"Polygon","coordinates":[[[7.038389,4.817784],[7.03838,4.817823],[7.038336,4.817813],[7.038345,4.817773],[7.038389,4.817784]]]}},{"type":"Feature","properties":{"h":3.0,"on_route":false},"geometry":{"type":"Polygon","coordinates":[[[7.032566,4.819472],[7.032518,4.819573],[7.032459,4.819544],[7.032508,4.819444],[7.032566,4.819472]]]}},{"type":"Feature","properties":{"h":3.0,"on_route":false},"geometry":{"type":"Polygon","coordinates":[[[7.038476,4.817962],[7.038462,4.818009],[7.03841,4.817994],[7.038424,4.817947],[7.038476,4.817962]]]}},{"type":"Feature","properties":{"h":3.0,"on_route":false},"geometry":{"type":"Polygon","coordinates":[[[7.03623,4.81762],[7.036186,4.817631],[7.036179,4.817604],[7.036222,4.817593],[7.03623,4.81762]]]}},{"type":"Feature","properties":{"h":3.0,"on_route":false},"geometry":{"type":"Polygon","coordinates":[[[7.033626,4.820327],[7.0336,4.820365],[7.033523,4.820313],[7.033548,4.820275],[7.033626,4.820327]]]}},{"type":"Feature","properties":{"h":3.0,"on_route":false},"geometry":{"type":"Polygon","coordinates":[[[7.033343,4.816048],[7.033321,4.816102],[7.033277,4.816084],[7.033298,4.81603],[7.033343,4.816048]]]}},{"type":"Feature","properties":{"h":3.0,"on_route":false},"geometry":{"type":"Polygon","coordinates":[[[7.034388,4.816413],[7.034371,4.816448],[7.034283,4.816403],[7.0343,4.816368],[7.034388,4.816413]]]}},{"type":"Feature","properties":{"h":3.0,"on_route":false},"geometry":{"type":"Polygon","coordinates":[[[7.034465,4.819097],[7.034382,4.819223],[7.034274,4.819152],[7.034357,4.819026],[7.034465,4.819097]]]}},{"type":"Feature","properties":{"h":3.0,"on_route":false},"geometry":{"type":"Polygon","coordinates":[[[7.035622,4.820222],[7.035607,4.820275],[7.03554,4.820256],[7.035555,4.820203],[7.035622,4.820222]]]}},{"type":"Feature","properties":{"h":3.0,"on_route":false},"geometry":{"type":"Polygon","coordinates":[[[7.031905,4.819159],[7.031914,4.819285],[7.031869,4.819288],[7.03186,4.819163],[7.031905,4.819159]]]}},{"type":"Feature","properties":{"h":3.0,"on_route":true},"geometry":{"type":"Polygon","coordinates":[[[7.036755,4.818904],[7.036591,4.818841],[7.036774,4.818357],[7.036938,4.81842],[7.036755,4.818904]]]}},{"type":"Feature","properties":{"h":3.0,"on_route":false},"geometry":{"type":"Polygon","coordinates":[[[7.037567,4.817924],[7.037543,4.817986],[7.037513,4.817974],[7.037537,4.817912],[7.037567,4.817924]]]}},{"type":"Feature","properties":{"h":3.0,"on_route":false},"geometry":{"type":"Polygon","coordinates":[[[7.03493,4.815025],[7.034895,4.815093],[7.034531,4.814903],[7.034566,4.814835],[7.03493,4.815025]]]}},{"type":"Feature","properties":{"h":3.0,"on_route":false},"geometry":{"type":"Polygon","coordinates":[[[7.035696,4.81569],[7.035713,4.815666],[7.035782,4.815714],[7.035765,4.815739],[7.036156,4.816012],[7.036173,4.815988],[7.036294,4.816073],[7.036133,4.816303],[7.036117,4.816292],[7.036107,4.816308],[7.035983,4.816221],[7.035993,4.816206],[7.035841,4.816099],[7.03583,4.816114],[7.035644,4.815983],[7.035629,4.816004],[7.035453,4.815881],[7.035478,4.815845],[7.035376,4.815773],[7.035397,4.815743],[7.035421,4.81576],[7.035543,4.815583],[7.035696,4.81569]]]}},{"type":"Feature","properties":{"h":3.0,"on_route":false},"geometry":{"type":"Polygon","coordinates":[[[7.037624,4.821025],[7.037614,4.821065],[7.037579,4.821057],[7.037588,4.821017],[7.037624,4.821025]]]}},{"type":"Feature","properties":{"h":3.0,"on_route":false},"geometry":{"type":"Polygon","coordinates":[[[7.034008,4.81628],[7.033944,4.816392],[7.033365,4.81606],[7.033429,4.815949],[7.034008,4.81628]]]}},{"type":"Feature","properties":{"h":3.0,"on_route":false},"geometry":{"type":"Polygon","coordinates":[[[7.037159,4.815915],[7.037142,4.815951],[7.037112,4.815936],[7.037129,4.8159],[7.037159,4.815915]]]}},{"type":"Feature","properties":{"h":3.0,"on_route":false},"geometry":{"type":"Polygon","coordinates":[[[7.032475,4.819613],[7.032447,4.819675],[7.032346,4.819629],[7.032375,4.819567],[7.032475,4.819613]]]}},{"type":"Feature","properties":{"h":3.0,"on_route":false},"geometry":{"type":"Polygon","coordinates":[[[7.038648,4.817433],[7.038709,4.817446],[7.038705,4.817468],[7.038643,4.817456],[7.038648,4.817433]]]}},{"type":"Feature","properties":{"h":3.0,"on_route":false},"geometry":{"type":"Polygon","coordinates":[[[7.036595,4.818171],[7.036587,4.818195],[7.036487,4.818158],[7.036496,4.818135],[7.036595,4.818171]]]}},{"type":"Feature","properties":{"h":3.0,"on_route":false},"geometry":{"type":"Polygon","coordinates":[[[7.03469,4.819984],[7.034685,4.820023],[7.034617,4.820013],[7.034622,4.819975],[7.03469,4.819984]]]}},{"type":"Feature","properties":{"h":3.0,"on_route":false},"geometry":{"type":"Polygon","coordinates":[[[7.034607,4.816533],[7.03459,4.816575],[7.034557,4.816562],[7.034574,4.81652],[7.034607,4.816533]]]}},{"type":"Feature","properties":{"h":3.0,"on_route":false},"geometry":{"type":"Polygon","coordinates":[[[7.035244,4.820204],[7.0352,4.820189],[7.035243,4.820058],[7.035287,4.820072],[7.035244,4.820204]]]}},{"type":"Feature","properties":{"h":3.0,"on_route":false},"geometry":{"type":"Polygon","coordinates":[[[7.033513,4.818621],[7.033498,4.818641],[7.033518,4.818655],[7.033412,4.818807],[7.033381,4.818785],[7.03337,4.818801],[7.033266,4.818728],[7.033398,4.818539],[7.033513,4.818621]]]}},{"type":"Feature","properties":{"h":3.0,"on_route":false},"geometry":{"type":"Polygon","coordinates":[[[7.037428,4.818275],[7.037391,4.818259],[7.037445,4.818137],[7.037482,4.818153],[7.037428,4.818275]]]}},{"type":"Feature","properties":{"h":3.0,"on_route":false},"geometry":{"type":"Polygon","coordinates":[[[7.034308,4.820451],[7.034295,4.820494],[7.03426,4.820483],[7.034272,4.820441],[7.034308,4.820451]]]}},{"type":"Feature","properties":{"h":3.0,"on_route":false},"geometry":{"type":"Polygon","coordinates":[[[7.037074,4.819161],[7.037062,4.819187],[7.036989,4.819155],[7.037001,4.819128],[7.037074,4.819161]]]}},{"type":"Feature","properties":{"h":3.0,"on_route":false},"geometry":{"type":"Polygon","coordinates":[[[7.032853,4.816379],[7.032793,4.816474],[7.03289,4.816536],[7.032801,4.816678],[7.032531,4.816508],[7.032575,4.816438],[7.032553,4.816423],[7.032658,4.816256],[7.032853,4.816379]]]}},{"type":"Feature","properties":{"h":3.0,"on_route":false},"geometry":{"type":"Polygon","coordinates":[[[7.035738,4.815619],[7.035663,4.815564],[7.035798,4.815375],[7.035874,4.815429],[7.035738,4.815619]]]}},{"type":"Feature","properties":{"h":3.0,"on_route":false},"geometry":{"type":"Polygon","coordinates":[[[7.035619,4.817993],[7.035606,4.818024],[7.03556,4.818005],[7.035572,4.817974],[7.035619,4.817993]]]}},{"type":"Feature","properties":{"h":3.0,"on_route":false},"geometry":{"type":"Polygon","coordinates":[[[7.039386,4.817988],[7.039328,4.817966],[7.039449,4.81764],[7.039507,4.817662],[7.039386,4.817988]]]}},{"type":"Feature","properties":{"h":3.0,"on_route":true},"geometry":{"type":"Polygon","coordinates":[[[7.037156,4.81945],[7.037097,4.819605],[7.036961,4.819553],[7.036974,4.819519],[7.037001,4.819529],[7.037033,4.819444],[7.037007,4.819433],[7.037021,4.819398],[7.037156,4.81945]]]}},{"type":"Feature","properties":{"h":3.0,"on_route":false},"geometry":{"type":"Polygon","coordinates":[[[7.037087,4.81836],[7.037076,4.81839],[7.036975,4.818353],[7.036986,4.818322],[7.037087,4.81836]]]}},{"type":"Feature","properties":{"h":3.0,"on_route":false},"geometry":{"type":"Polygon","coordinates":[[[7.032518,4.819314],[7.032502,4.819355],[7.032387,4.819311],[7.032403,4.819269],[7.032518,4.819314]]]}},{"type":"Feature","properties":{"h":3.0,"on_route":false},"geometry":{"type":"Polygon","coordinates":[[[7.037062,4.820723],[7.037049,4.82075],[7.036953,4.820707],[7.036965,4.82068],[7.037062,4.820723]]]}},{"type":"Feature","properties":{"h":3.0,"on_route":false},"geometry":{"type":"Polygon","coordinates":[[[7.034843,4.816237],[7.034795,4.816204],[7.034888,4.816067],[7.034936,4.8161],[7.034843,4.816237]]]}},{"type":"Feature","properties":{"h":3.0,"on_route":false},"geometry":{"type":"Polygon","coordinates":[[[7.032147,4.817365],[7.032041,4.817541],[7.031958,4.817491],[7.032064,4.817315],[7.032147,4.817365]]]}},{"type":"Feature","properties":{"h":3.0,"on_route":false},"geometry":{"type":"Polygon","coordinates":[[[7.036888,4.820671],[7.036813,4.820899],[7.036679,4.820855],[7.036754,4.820627],[7.036888,4.820671]]]}},{"type":"Feature","properties":{"h":3.0,"on_route":false},"geometry":{"type":"Polygon","coordinates":[[[7.037974,4.817843],[7.037935,4.817952],[7.037714,4.817871],[7.037753,4.817762],[7.037974,4.817843]]]}},{"type":"Feature","properties":{"h":3.0,"on_route":false},"geometry":{"type":"Polygon","coordinates":[[[7.03858,4.818097],[7.038548,4.818183],[7.03849,4.818161],[7.038522,4.818075],[7.03858,4.818097]]]}},{"type":"Feature","properties":{"h":3.0,"on_route":false},"geometry":{"type":"Polygon","coordinates":[[[7.035632,4.81789],[7.035522,4.818049],[7.034769,4.817522],[7.034879,4.817363],[7.035632,4.81789]]]}},{"type":"Feature","properties":{"h":3.0,"on_route":true},"geometry":{"type":"Polygon","coordinates":[[[7.037606,4.819356],[7.037498,4.819638],[7.037346,4.819579],[7.037454,4.819297],[7.037606,4.819356]]]}},{"type":"Feature","properties":{"h":3.0,"on_route":false},"geometry":{"type":"Polygon","coordinates":[[[7.035448,4.816371],[7.035386,4.816465],[7.035246,4.816372],[7.035308,4.816278],[7.035448,4.816371]]]}},{"type":"Feature","properties":{"h":3.0,"on_route":false},"geometry":{"type":"Polygon","coordinates":[[[7.037936,4.814644],[7.037821,4.814808],[7.037804,4.814795],[7.037645,4.815022],[7.037446,4.814882],[7.037719,4.814491],[7.037936,4.814644]]]}},{"type":"Feature","properties":{"h":3.0,"on_route":false},"geometry":{"type":"Polygon","coordinates":[[[7.037853,4.817141],[7.037817,4.817128],[7.037853,4.817026],[7.037889,4.817039],[7.037853,4.817141]]]}},{"type":"Feature","properties":{"h":3.0,"on_route":false},"geometry":{"type":"Polygon","coordinates":[[[7.033887,4.821467],[7.033883,4.821594],[7.033854,4.821593],[7.033859,4.821466],[7.033887,4.821467]]]}},{"type":"Feature","properties":{"h":3.0,"on_route":false},"geometry":{"type":"Polygon","coordinates":[[[7.035876,4.819452],[7.035761,4.819867],[7.035689,4.819847],[7.035803,4.819432],[7.035876,4.819452]]]}},{"type":"Feature","properties":{"h":3.0,"on_route":true},"geometry":{"type":"Polygon","coordinates":[[[7.03865,4.819474],[7.038615,4.819567],[7.038544,4.81954],[7.038579,4.819447],[7.03865,4.819474]]]}},{"type":"Feature","properties":{"h":3.0,"on_route":false},"geometry":{"type":"Polygon","coordinates":[[[7.0333,4.815755],[7.033273,4.815809],[7.033235,4.81579],[7.033262,4.815736],[7.0333,4.815755]]]}},{"type":"Feature","properties":{"h":3.0,"on_route":false},"geometry":{"type":"Polygon","coordinates":[[[7.038666,4.818162],[7.038654,4.818196],[7.038675,4.818204],[7.03858,4.818454],[7.03848,4.818416],[7.038588,4.818132],[7.038666,4.818162]]]}},{"type":"Feature","properties":{"h":3.0,"on_route":false},"geometry":{"type":"Polygon","coordinates":[[[7.037955,4.817954],[7.037948,4.817998],[7.037912,4.817992],[7.037919,4.817948],[7.037955,4.817954]]]}},{"type":"Feature","properties":{"h":3.0,"on_route":false},"geometry":{"type":"Polygon","coordinates":[[[7.03576,4.819062],[7.035748,4.819095],[7.035669,4.819067],[7.03568,4.819034],[7.03576,4.819062]]]}},{"type":"Feature","properties":{"h":3.0,"on_route":false},"geometry":{"type":"Polygon","coordinates":[[[7.039683,4.8173],[7.039698,4.817259],[7.039712,4.817265],[7.039718,4.817249],[7.039837,4.817294],[7.039843,4.817276],[7.039906,4.8173],[7.039899,4.817318],[7.039946,4.817336],[7.039953,4.817318],[7.039975,4.817326],[7.039962,4.81736],[7.04022,4.817459],[7.040163,4.817611],[7.040191,4.817622],[7.040189,4.817626],[7.040191,4.817626],[7.039837,4.818554],[7.039293,4.818347],[7.039612,4.817504],[7.039579,4.817492],[7.039585,4.817474],[7.039579,4.817472],[7.039651,4.817288],[7.039683,4.8173]]]}},{"type":"Feature","properties":{"h":3.0,"on_route":false},"geometry":{"type":"Polygon","coordinates":[[[7.032842,4.817197],[7.032826,4.817229],[7.032782,4.817207],[7.032798,4.817175],[7.032842,4.817197]]]}},{"type":"Feature","properties":{"h":3.0,"on_route":false},"geometry":{"type":"Polygon","coordinates":[[[7.038628,4.817093],[7.038595,4.817197],[7.038521,4.817173],[7.038554,4.817069],[7.038628,4.817093]]]}},{"type":"Feature","properties":{"h":3.0,"on_route":false},"geometry":{"type":"Polygon","coordinates":[[[7.034383,4.814399],[7.034434,4.81443],[7.034421,4.814452],[7.03437,4.81442],[7.034383,4.814399]]]}},{"type":"Feature","properties":{"h":3.0,"on_route":false},"geometry":{"type":"Polygon","coordinates":[[[7.039139,4.818773],[7.039107,4.818859],[7.039066,4.818843],[7.039098,4.818758],[7.039139,4.818773]]]}},{"type":"Feature","properties":{"h":3.0,"on_route":false},"geometry":{"type":"Polygon","coordinates":[[[7.031931,4.819481],[7.031846,4.819487],[7.031844,4.819454],[7.031929,4.819448],[7.031931,4.819481]]]}},{"type":"Feature","properties":{"h":3.0,"on_route":false},"geometry":{"type":"Polygon","coordinates":[[[7.036247,4.816657],[7.036474,4.816328],[7.036676,4.816469],[7.036486,4.816744],[7.036565,4.816799],[7.036427,4.816997],[7.035637,4.816446],[7.035738,4.816302],[7.036247,4.816657]]]}},{"type":"Feature","properties":{"h":3.0,"on_route":false},"geometry":{"type":"Polygon","coordinates":[[[7.032131,4.8177],[7.032118,4.81773],[7.032061,4.817704],[7.032074,4.817675],[7.032131,4.8177]]]}},{"type":"Feature","properties":{"h":3.0,"on_route":false},"geometry":{"type":"Polygon","coordinates":[[[7.03909,4.815684],[7.039067,4.815743],[7.038966,4.815703],[7.038989,4.815645],[7.03909,4.815684]]]}},{"type":"Feature","properties":{"h":3.0,"on_route":true},"geometry":{"type":"Polygon","coordinates":[[[7.037902,4.820061],[7.037928,4.819992],[7.038208,4.8201],[7.03811,4.820356],[7.037613,4.820165],[7.037685,4.819977],[7.037902,4.820061]]]}},{"type":"Feature","properties":{"h":3.0,"on_route":false},"geometry":{"type":"Polygon","coordinates":[[[7.034414,4.814763],[7.03437,4.814853],[7.034291,4.814814],[7.034335,4.814724],[7.034414,4.814763]]]}},{"type":"Feature","properties":{"h":3.0,"on_route":false},"geometry":{"type":"Polygon","coordinates":[[[7.034063,4.817934],[7.033975,4.81787],[7.034019,4.81781],[7.033991,4.81779],[7.034031,4.817735],[7.034058,4.817755],[7.034107,4.817689],[7.034194,4.817754],[7.034063,4.817934]]]}},{"type":"Feature","properties":{"h":3.0,"on_route":false},"geometry":{"type":"Polygon","coordinates":[[[7.034291,4.818202],[7.03433,4.818145],[7.034431,4.818215],[7.034292,4.818417],[7.033832,4.818099],[7.033932,4.817954],[7.034291,4.818202]]]}},{"type":"Feature","properties":{"h":3.0,"on_route":false},"geometry":{"type":"Polygon","coordinates":[[[7.032617,4.8202],[7.032563,4.820158],[7.032634,4.820066],[7.032688,4.820108],[7.032617,4.8202]]]}},{"type":"Feature","properties":{"h":3.0,"on_route":false},"geometry":{"type":"Polygon","coordinates":[[[7.037051,4.816115],[7.037032,4.816147],[7.036986,4.816119],[7.037005,4.816087],[7.037051,4.816115]]]}},{"type":"Feature","properties":{"h":3.0,"on_route":false},"geometry":{"type":"Polygon","coordinates":[[[7.034271,4.819589],[7.034256,4.819623],[7.034201,4.819598],[7.034215,4.819565],[7.034271,4.819589]]]}},{"type":"Feature","properties":{"h":3.0,"on_route":false},"geometry":{"type":"Polygon","coordinates":[[[7.034204,4.818067],[7.034315,4.818143],[7.0343,4.818164],[7.03419,4.818089],[7.034204,4.818067]]]}},{"type":"Feature","properties":{"h":3.0,"on_route":false},"geometry":{"type":"Polygon","coordinates":[[[7.03413,4.814944],[7.033914,4.815361],[7.033259,4.81502],[7.033476,4.814602],[7.03413,4.814944]]]}},{"type":"Feature","properties":{"h":3.0,"on_route":false},"geometry":{"type":"Polygon","coordinates":[[[7.034086,4.817992],[7.034074,4.818013],[7.033973,4.817951],[7.033986,4.81793],[7.034086,4.817992]]]}},{"type":"Feature","properties":{"h":3.0,"on_route":false},"geometry":{"type":"Polygon","coordinates":[[[7.035727,4.818447],[7.035719,4.818464],[7.035675,4.818444],[7.035683,4.818427],[7.035727,4.818447]]]}},{"type":"Feature","properties":{"h":3.0,"on_route":false},"geometry":{"type":"Polygon","coordinates":[[[7.032782,4.819022],[7.032658,4.819282],[7.032561,4.819235],[7.032686,4.818976],[7.032782,4.819022]]]}},{"type":"Feature","properties":{"h":3.0,"on_route":false},"geometry":{"type":"Polygon","coordinates":[[[7.037441,4.821927],[7.037386,4.821958],[7.037356,4.821904],[7.037411,4.821873],[7.037441,4.821927]]]}},{"type":"Feature","properties":{"h":3.0,"on_route":false},"geometry":{"type":"Polygon","coordinates":[[[7.037817,4.820695],[7.037784,4.820818],[7.037669,4.820787],[7.037659,4.820824],[7.037576,4.820802],[7.037586,4.820764],[7.037483,4.820736],[7.037516,4.820613],[7.037817,4.820695]]]}},{"type":"Feature","properties":{"h":3.0,"on_route":false},"geometry":{"type":"Polygon","coordinates":[[[7.034987,4.81992],[7.034997,4.819884],[7.035111,4.819916],[7.035054,4.820119],[7.034701,4.820018],[7.034713,4.819978],[7.034688,4.819971],[7.034724,4.819846],[7.034987,4.81992]]]}},{"type":"Feature","properties":{"h":3.0,"on_route":true},"geometry":{"type":"Polygon","coordinates":[[[7.038218,4.818854],[7.038195,4.818915],[7.038202,4.818917],[7.038403,4.818387],[7.038579,4.818453],[7.038826,4.817803],[7.038827,4.817582],[7.03891,4.817582],[7.038935,4.817517],[7.038953,4.817524],[7.038953,4.817455],[7.039073,4.817456],[7.039073,4.81757],[7.039212,4.817623],[7.039071,4.817994],[7.039071,4.818158],[7.039146,4.818187],[7.038676,4.819423],[7.038317,4.819286],[7.038171,4.819285],[7.038171,4.819238],[7.038192,4.819238],[7.037951,4.819146],[7.037949,4.819187],[7.037936,4.819187],[7.037969,4.819199],[7.037946,4.81926],[7.03794,4.819287],[7.037936,4.819286],[7.037932,4.819299],[7.037881,4.819281],[7.037884,4.819274],[7.037882,4.819274],[7.037883,4.819271],[7.037876,4.819269],[7.037894,4.819223],[7.037903,4.819185],[7.037897,4.819185],[7.037897,4.819174],[7.037888,4.81917],[7.037899,4.819142],[7.037901,4.819101],[7.037914,4.819102],[7.037915,4.819099],[7.037925,4.819102],[7.037953,4.819104],[7.037953,4.819113],[7.037965,4.819118],[7.038004,4.819016],[7.038045,4.819032],[7.038127,4.818819],[7.038218,4.818854]],[[7.037908,4.819185],[7.037908,4.819186],[7.037903,4.819185],[7.037908,4.819185]]]}},{"type":"Feature","properties":{"h":3.0,"on_route":false},"geometry":{"type":"Polygon","coordinates":[[[7.032764,4.82082],[7.032703,4.820908],[7.032668,4.820884],[7.032649,4.820911],[7.032604,4.820879],[7.032622,4.820852],[7.032559,4.820808],[7.03262,4.820719],[7.032764,4.82082]]]}},{"type":"Feature","properties":{"h":3.0,"on_route":false},"geometry":{"type":"Polygon","coordinates":[[[7.037754,4.817124],[7.037747,4.81716],[7.037661,4.817142],[7.037668,4.817107],[7.037754,4.817124]]]}},{"type":"Feature","properties":{"h":3.0,"on_route":false},"geometry":{"type":"Polygon","coordinates":[[[7.033914,4.817051],[7.033886,4.817095],[7.033797,4.817037],[7.033826,4.816993],[7.033914,4.817051]]]}},{"type":"Feature","properties":{"h":3.0,"on_route":false},"geometry":{"type":"Polygon","coordinates":[[[7.038081,4.817682],[7.038054,4.817757],[7.037845,4.817681],[7.037872,4.817607],[7.038081,4.817682]]]}},{"type":"Feature","properties":{"h":3.0,"on_route":false},"geometry":{"type":"Polygon","coordinates":[[[7.033652,4.820172],[7.033602,4.82014],[7.033667,4.820039],[7.033716,4.820071],[7.033652,4.820172]]]}},{"type":"Feature","properties":{"h":3.0,"on_route":false},"geometry":{"type":"Polygon","coordinates":[[[7.038772,4.821114],[7.038767,4.821141],[7.038643,4.821119],[7.038648,4.821092],[7.038772,4.821114]]]}},{"type":"Feature","properties":{"h":3.0,"on_route":true},"geometry":{"type":"Polygon","coordinates":[[[7.038823,4.819925],[7.038805,4.819977],[7.038723,4.819948],[7.038741,4.819897],[7.038823,4.819925]]]}},{"type":"Feature","properties":{"h":3.0,"on_route":false},"geometry":{"type":"Polygon","coordinates":[[[7.035738,4.814901],[7.035749,4.814884],[7.035872,4.814965],[7.035788,4.815093],[7.035665,4.815011],[7.03568,4.814989],[7.035649,4.814969],[7.035707,4.81488],[7.035738,4.814901]]]}},{"type":"Feature","properties":{"h":3.0,"on_route":false},"geometry":{"type":"Polygon","coordinates":[[[7.033636,4.81664],[7.033556,4.816767],[7.033203,4.816542],[7.033284,4.816415],[7.033636,4.81664]]]}},{"type":"Feature","properties":{"h":3.0,"on_route":true},"geometry":{"type":"Polygon","coordinates":[[[7.03856,4.819711],[7.038518,4.819823],[7.038447,4.819796],[7.038489,4.819684],[7.03856,4.819711]]]}},{"type":"Feature","properties":{"h":3.0,"on_route":false},"geometry":{"type":"Polygon","coordinates":[[[7.03411,4.816077],[7.034018,4.816238],[7.033515,4.815947],[7.033606,4.815787],[7.03411,4.816077]]]}},{"type":"Feature","properties":{"h":3.0,"on_route":false},"geometry":{"type":"Polygon","coordinates":[[[7.036218,4.817084],[7.036206,4.817106],[7.036147,4.817074],[7.036159,4.817051],[7.036218,4.817084]]]}},{"type":"Feature","properties":{"h":3.0,"on_route":false},"geometry":{"type":"Polygon","coordinates":[[[7.033307,4.817459],[7.033282,4.817496],[7.033573,4.817688],[7.033512,4.81778],[7.033482,4.81776],[7.03335,4.817962],[7.033221,4.817877],[7.033262,4.817815],[7.033234,4.817796],[7.033218,4.817821],[7.032865,4.817587],[7.033057,4.817294],[7.033307,4.817459]]]}},{"type":"Feature","properties":{"h":3.0,"on_route":false},"geometry":{"type":"Polygon","coordinates":[[[7.034636,4.819174],[7.034587,4.819133],[7.034734,4.818954],[7.034783,4.818995],[7.034636,4.819174]]]}},{"type":"Feature","properties":{"h":3.0,"on_route":false},"geometry":{"type":"Polygon","coordinates":[[[7.032972,4.815801],[7.032959,4.815838],[7.032929,4.815828],[7.032942,4.81579],[7.032972,4.815801]]]}},{"type":"Feature","properties":{"h":3.0,"on_route":false},"geometry":{"type":"Polygon","coordinates":[[[7.031884,4.818161],[7.031882,4.818271],[7.031794,4.818269],[7.031797,4.818159],[7.031884,4.818161]]]}},{"type":"Feature","properties":{"h":3.0,"on_route":false},"geometry":{"type":"Polygon","coordinates":[[[7.035688,4.819257],[7.035567,4.819695],[7.035363,4.819639],[7.035484,4.8192],[7.035688,4.819257]]]}},{"type":"Feature","properties":{"h":3.0,"on_route":false},"geometry":{"type":"Polygon","coordinates":[[[7.034826,4.818494],[7.034724,4.818645],[7.034426,4.818442],[7.034528,4.818291],[7.034826,4.818494]]]}},{"type":"Feature","properties":{"h":3.0,"on_route":false},"geometry":{"type":"Polygon","coordinates":[[[7.036052,4.817419],[7.036017,4.81747],[7.035969,4.817437],[7.036004,4.817386],[7.036052,4.817419]]]}},{"type":"Feature","properties":{"h":3.0,"on_route":false},"geometry":{"type":"Polygon","coordinates":[[[7.035443,4.819318],[7.035399,4.819306],[7.035432,4.819186],[7.035476,4.819198],[7.035443,4.819318]]]}},{"type":"Feature","properties":{"h":3.0,"on_route":false},"geometry":{"type":"Polygon","coordinates":[[[7.037785,4.819434],[7.037777,4.819475],[7.037743,4.819469],[7.03775,4.819428],[7.037785,4.819434]]]}},{"type":"Feature","properties":{"h":3.0,"on_route":false},"geometry":{"type":"Polygon","coordinates":[[[7.036728,4.81822],[7.03672,4.818244],[7.036587,4.818195],[7.036595,4.818171],[7.036728,4.81822]]]}},{"type":"Feature","properties":{"h":3.0,"on_route":false},"geometry":{"type":"Polygon","coordinates":[[[7.039163,4.818771],[7.039102,4.818748],[7.039217,4.818445],[7.039278,4.818468],[7.039163,4.818771]]]}},{"type":"Feature","properties":{"h":3.0,"on_route":false},"geometry":{"type":"Polygon","coordinates":[[[7.035613,4.814495],[7.035584,4.814554],[7.035538,4.814531],[7.035568,4.814472],[7.035613,4.814495]]]}},{"type":"Feature","properties":{"h":3.0,"on_route":false},"geometry":{"type":"Polygon","coordinates":[[[7.037392,4.814863],[7.037378,4.814883],[7.037305,4.814832],[7.037319,4.814812],[7.037392,4.814863]]]}},{"type":"Feature","properties":{"h":3.0,"on_route":true},"geometry":{"type":"Polygon","coordinates":[[[7.037066,4.819643],[7.037033,4.81973],[7.036933,4.819692],[7.036965,4.819605],[7.037066,4.819643]]]}},{"type":"Feature","properties":{"h":3.0,"on_route":false},"geometry":{"type":"Polygon","coordinates":[[[7.037645,4.81737],[7.03764,4.817399],[7.037561,4.817386],[7.037566,4.817356],[7.037645,4.81737]]]}},{"type":"Feature","properties":{"h":3.0,"on_route":false},"geometry":{"type":"Polygon","coordinates":[[[7.033953,4.814757],[7.034036,4.814824],[7.034017,4.814846],[7.033934,4.81478],[7.033953,4.814757]]]}},{"type":"Feature","properties":{"h":3.0,"on_route":false},"geometry":{"type":"Polygon","coordinates":[[[7.035184,4.816947],[7.035159,4.816983],[7.035058,4.816913],[7.035083,4.816877],[7.035184,4.816947]]]}},{"type":"Feature","properties":{"h":3.0,"on_route":false},"geometry":{"type":"Polygon","coordinates":[[[7.034727,4.815254],[7.034512,4.815673],[7.033983,4.8154],[7.034198,4.814981],[7.034727,4.815254]]]}},{"type":"Feature","properties":{"h":3.0,"on_route":false},"geometry":{"type":"Polygon","coordinates":[[[7.033321,4.816102],[7.033309,4.816133],[7.033264,4.816115],[7.033277,4.816084],[7.033321,4.816102]]]}},{"type":"Feature","properties":{"h":3.0,"on_route":false},"geometry":{"type":"Polygon","coordinates":[[[7.032873,4.820832],[7.032846,4.821036],[7.032772,4.821026],[7.032798,4.820823],[7.032873,4.820832]]]}},{"type":"Feature","properties":{"h":3.0,"on_route":false},"geometry":{"type":"Polygon","coordinates":[[[7.037694,4.818663],[7.037601,4.818906],[7.037537,4.818882],[7.037629,4.818638],[7.037694,4.818663]]]}},{"type":"Feature","properties":{"h":3.0,"on_route":false},"geometry":{"type":"Polygon","coordinates":[[[7.037197,4.816081],[7.037151,4.816052],[7.03726,4.815875],[7.037306,4.815903],[7.037197,4.816081]]]}},{"type":"Feature","properties":{"h":3.0,"on_route":false},"geometry":{"type":"Polygon","coordinates":[[[7.03722,4.820569],[7.037206,4.820621],[7.037072,4.820584],[7.037086,4.820532],[7.03722,4.820569]]]}},{"type":"Feature","properties":{"h":3.0,"on_route":false},"geometry":{"type":"Polygon","coordinates":[[[7.032342,4.81846],[7.032308,4.818442],[7.032338,4.818385],[7.032372,4.818404],[7.032342,4.81846]]]}},{"type":"Feature","properties":{"h":3.0,"on_route":false},"geometry":{"type":"Polygon","coordinates":[[[7.039473,4.817573],[7.03948,4.817553],[7.039573,4.817589],[7.039548,4.817653],[7.039397,4.817595],[7.039414,4.81755],[7.039473,4.817573]]]}},{"type":"Feature","properties":{"h":3.0,"on_route":false},"geometry":{"type":"Polygon","coordinates":[[[7.033042,4.818165],[7.033005,4.818228],[7.032944,4.818192],[7.032981,4.818129],[7.033042,4.818165]]]}},{"type":"Feature","properties":{"h":3.0,"on_route":false},"geometry":{"type":"Polygon","coordinates":[[[7.037515,4.814704],[7.037413,4.814846],[7.036683,4.814321],[7.036785,4.814179],[7.037515,4.814704]]]}},{"type":"Feature","properties":{"h":3.0,"on_route":false},"geometry":{"type":"Polygon","coordinates":[[[7.037828,4.815082],[7.037793,4.81514],[7.037728,4.815102],[7.037763,4.815043],[7.037828,4.815082]]]}},{"type":"Feature","properties":{"h":3.0,"on_route":false},"geometry":{"type":"Polygon","coordinates":[[[7.035949,4.820105],[7.035933,4.82016],[7.035879,4.820144],[7.035894,4.82009],[7.035949,4.820105]]]}},{"type":"Feature","properties":{"h":3.0,"on_route":false},"geometry":{"type":"Polygon","coordinates":[[[7.03545,4.8185],[7.035426,4.818489],[7.035443,4.818452],[7.035467,4.818463],[7.03545,4.8185]]]}},{"type":"Feature","properties":{"h":3.0,"on_route":false},"geometry":{"type":"Polygon","coordinates":[[[7.035048,4.814832],[7.034944,4.815033],[7.034566,4.814835],[7.03467,4.814635],[7.035048,4.814832]]]}},{"type":"Feature","properties":{"h":3.0,"on_route":false},"geometry":{"type":"Polygon","coordinates":[[[7.035107,4.820476],[7.035012,4.820445],[7.035094,4.820198],[7.035063,4.820187],[7.035124,4.820001],[7.03525,4.820043],[7.035107,4.820476]]]}},{"type":"Feature","properties":{"h":3.0,"on_route":false},"geometry":{"type":"Polygon","coordinates":[[[7.033004,4.816461],[7.032971,4.816512],[7.032925,4.816482],[7.032957,4.816431],[7.033004,4.816461]]]}},{"type":"Feature","properties":{"h":3.0,"on_route":false},"geometry":{"type":"Polygon","coordinates":[[[7.037805,4.816659],[7.037768,4.816765],[7.037618,4.816712],[7.037655,4.816606],[7.037805,4.816659]]]}},{"type":"Feature","properties":{"h":3.0,"on_route":false},"geometry":{"type":"Polygon","coordinates":[[[7.03379,4.81699],[7.033739,4.817072],[7.033764,4.817088],[7.033544,4.817443],[7.033495,4.817413],[7.033471,4.817451],[7.032916,4.817104],[7.032929,4.817082],[7.032702,4.81694],[7.032983,4.816487],[7.03379,4.81699]]]}},{"type":"Feature","properties":{"h":3.0,"on_route":false},"geometry":{"type":"Polygon","coordinates":[[[7.039511,4.817497],[7.039481,4.817576],[7.039418,4.817552],[7.039448,4.817473],[7.039511,4.817497]]]}},{"type":"Feature","properties":{"h":3.0,"on_route":false},"geometry":{"type":"Polygon","coordinates":[[[7.033811,4.820814],[7.033801,4.820862],[7.033751,4.820852],[7.03376,4.820804],[7.033811,4.820814]]]}},{"type":"Feature","properties":{"h":3.0,"on_route":false},"geometry":{"type":"Polygon","coordinates":[[[7.033245,4.815727],[7.033223,4.815776],[7.03318,4.815757],[7.033202,4.815708],[7.033245,4.815727]]]}},{"type":"Feature","properties":{"h":3.0,"on_route":false},"geometry":{"type":"Polygon","coordinates":[[[7.039436,4.816809],[7.039418,4.816858],[7.039355,4.816834],[7.039374,4.816785],[7.039436,4.816809]]]}},{"type":"Feature","properties":{"h":3.0,"on_route":false},"geometry":{"type":"Polygon","coordinates":[[[7.037473,4.81878],[7.037375,4.819055],[7.037271,4.819018],[7.037369,4.818743],[7.037473,4.81878]]]}},{"type":"Feature","properties":{"h":3.0,"on_route":false},"geometry":{"type":"Polygon","coordinates":[[[7.037637,4.821921],[7.037614,4.821917],[7.037624,4.821866],[7.037646,4.82187],[7.037637,4.821921]]]}},{"type":"Feature","properties":{"h":3.0,"on_route":false},"geometry":{"type":"Polygon","coordinates":[[[7.033622,4.817578],[7.033613,4.817609],[7.033558,4.817592],[7.033567,4.817561],[7.033622,4.817578]]]}},{"type":"Feature","properties":{"h":3.0,"on_route":false},"geometry":{"type":"Polygon","coordinates":[[[7.035681,4.816544],[7.035626,4.816624],[7.035433,4.816489],[7.035489,4.816409],[7.035681,4.816544]]]}},{"type":"Feature","properties":{"h":3.0,"on_route":false},"geometry":{"type":"Polygon","coordinates":[[[7.033756,4.81683],[7.033722,4.816887],[7.033662,4.81685],[7.033696,4.816794],[7.033756,4.81683]]]}},{"type":"Feature","properties":{"h":3.0,"on_route":false},"geometry":{"type":"Polygon","coordinates":[[[7.037032,4.816147],[7.037014,4.816178],[7.036967,4.81615],[7.036986,4.816119],[7.037032,4.816147]]]}},{"type":"Feature","properties":{"h":3.0,"on_route":false},"geometry":{"type":"Polygon","coordinates":[[[7.036172,4.820978],[7.036124,4.821128],[7.036047,4.821103],[7.036096,4.820953],[7.036172,4.820978]]]}},{"type":"Feature","properties":{"h":3.0,"on_route":false},"geometry":{"type":"Polygon","coordinates":[[[7.034646,4.814254],[7.034564,4.814406],[7.034066,4.814136],[7.034051,4.814163],[7.033992,4.814131],[7.034007,4.814104],[7.033979,4.814089],[7.034061,4.813938],[7.034646,4.814254]]]}},{"type":"Feature","properties":{"h":3.0,"on_route":false},"geometry":{"type":"Polygon","coordinates":[[[7.034187,4.814592],[7.034137,4.814667],[7.034109,4.814648],[7.034159,4.814573],[7.034187,4.814592]]]}},{"type":"Feature","properties":{"h":3.0,"on_route":false},"geometry":{"type":"Polygon","coordinates":[[[7.037601,4.821137],[7.037593,4.82116],[7.037492,4.821122],[7.0375,4.8211],[7.037601,4.821137]]]}},{"type":"Feature","properties":{"h":3.0,"on_route":false},"geometry":{"type":"Polygon","coordinates":[[[7.036552,4.821279],[7.036432,4.821657],[7.036216,4.821588],[7.036337,4.82121],[7.036552,4.821279]]]}},{"type":"Feature","properties":{"h":3.0,"on_route":false},"geometry":{"type":"Polygon","coordinates":[[[7.03543,4.819364],[7.0354,4.819475],[7.035356,4.819463],[7.035387,4.819352],[7.03543,4.819364]]]}},{"type":"Feature","properties":{"h":3.0,"on_route":false},"geometry":{"type":"Polygon","coordinates":[[[7.033807,4.817336],[7.033752,4.817299],[7.033914,4.817051],[7.033969,4.817088],[7.033807,4.817336]]]}},{"type":"Feature","properties":{"h":3.0,"on_route":false},"geometry":{"type":"Polygon","coordinates":[[[7.038493,4.817756],[7.038603,4.817793],[7.038594,4.817818],[7.038535,4.817797],[7.038528,4.817818],[7.038478,4.817801],[7.038493,4.817756]]]}},{"type":"Feature","properties":{"h":3.0,"on_route":false},"geometry":{"type":"Polygon","coordinates":[[[7.033036,4.815768],[7.033092,4.815792],[7.03308,4.815819],[7.033024,4.815795],[7.033036,4.815768]]]}},{"type":"Feature","properties":{"h":3.0,"on_route":false},"geometry":{"type":"Polygon","coordinates":[[[7.032951,4.816438],[7.032889,4.816536],[7.032794,4.816476],[7.032857,4.816378],[7.032951,4.816438]]]}},{"type":"Feature","properties":{"h":3.0,"on_route":false},"geometry":{"type":"Polygon","coordinates":[[[7.036365,4.817017],[7.036316,4.817087],[7.036169,4.816983],[7.036218,4.816913],[7.036365,4.817017]]]}},{"type":"Feature","properties":{"h":3.0,"on_route":false},"geometry":{"type":"Polygon","coordinates":[[[7.035235,4.815634],[7.035218,4.815674],[7.035162,4.815649],[7.035179,4.815609],[7.035235,4.815634]]]}},{"type":"Feature","properties":{"h":3.0,"on_route":false},"geometry":{"type":"Polygon","coordinates":[[[7.033619,4.815569],[7.033596,4.815555],[7.033657,4.815452],[7.03368,4.815466],[7.033619,4.815569]]]}},{"type":"Feature","properties":{"h":3.0,"on_route":false},"geometry":{"type":"Polygon","coordinates":[[[7.034103,4.816597],[7.033912,4.81694],[7.033793,4.816874],[7.033984,4.816531],[7.034103,4.816597]]]}},{"type":"Feature","properties":{"h":3.0,"on_route":true},"geometry":{"type":"Polygon","coordinates":[[[7.036838,4.819445],[7.036804,4.819429],[7.036847,4.819339],[7.036881,4.819356],[7.036838,4.819445]]]}},{"type":"Feature","properties":{"h":3.0,"on_route":false},"geometry":{"type":"Polygon","coordinates":[[[7.034907,4.818721],[7.034888,4.818705],[7.034945,4.818638],[7.034964,4.818655],[7.034907,4.818721]]]}},{"type":"Feature","properties":{"h":3.0,"on_route":false},"geometry":{"type":"Polygon","coordinates":[[[7.037811,4.817136],[7.037803,4.817171],[7.037747,4.81716],[7.037754,4.817124],[7.037811,4.817136]]]}},{"type":"Feature","properties":{"h":3.0,"on_route":false},"geometry":{"type":"Polygon","coordinates":[[[7.033453,4.821473],[7.033436,4.821536],[7.033398,4.821526],[7.033415,4.821463],[7.033453,4.821473]]]}},{"type":"Feature","properties":{"h":3.0,"on_route":false},"geometry":{"type":"Polygon","coordinates":[[[7.033001,4.815778],[7.032989,4.815812],[7.032933,4.815791],[7.032945,4.815757],[7.033001,4.815778]]]}},{"type":"Feature","properties":{"h":3.0,"on_route":false},"geometry":{"type":"Polygon","coordinates":[[[7.036125,4.820619],[7.036099,4.820613],[7.03611,4.820566],[7.036135,4.820572],[7.036125,4.820619]]]}},{"type":"Feature","properties":{"h":3.0,"on_route":false},"geometry":{"type":"Polygon","coordinates":[[[7.034486,4.821274],[7.033903,4.821133],[7.033907,4.821115],[7.033819,4.821094],[7.033837,4.821021],[7.033803,4.821013],[7.033851,4.820814],[7.034291,4.82092],[7.034383,4.820536],[7.034648,4.8206],[7.034486,4.821274]]]}},{"type":"Feature","properties":{"h":3.0,"on_route":false},"geometry":{"type":"Polygon","coordinates":[[[7.03826,4.817311],[7.038249,4.817349],[7.038197,4.817334],[7.038209,4.817296],[7.03826,4.817311]]]}},{"type":"Feature","properties":{"h":3.0,"on_route":false},"geometry":{"type":"Polygon","coordinates":[[[7.034227,4.81788],[7.0342,4.817861],[7.034228,4.81782],[7.034255,4.817839],[7.034227,4.81788]]]}},{"type":"Feature","properties":{"h":3.0,"on_route":false},"geometry":{"type":"Polygon","coordinates":[[[7.03425,4.82016],[7.034232,4.820217],[7.034299,4.820239],[7.034317,4.820183],[7.034576,4.820269],[7.034534,4.820397],[7.034147,4.820269],[7.034189,4.82014],[7.03425,4.82016]]]}},{"type":"Feature","properties":{"h":3.0,"on_route":true},"geometry":{"type":"Polygon","coordinates":[[[7.03851,4.819628],[7.038382,4.819967],[7.038245,4.819915],[7.038213,4.82],[7.038203,4.819996],[7.038187,4.820038],[7.038197,4.820042],[7.038174,4.820103],[7.037896,4.819998],[7.03792,4.819936],[7.037642,4.81983],[7.037818,4.819365],[7.03851,4.819628]]]}},{"type":"Feature","properties":{"h":3.0,"on_route":false},"geometry":{"type":"Polygon","coordinates":[[[7.032433,4.816899],[7.032324,4.817079],[7.032241,4.817028],[7.03235,4.816848],[7.032433,4.816899]]]}},{"type":"Feature","properties":{"h":3.0,"on_route":false},"geometry":{"type":"Polygon","coordinates":[[[7.032856,4.82007],[7.032886,4.820033],[7.033004,4.820127],[7.032803,4.820381],[7.032618,4.820233],[7.032789,4.820016],[7.032856,4.82007]]]}},{"type":"Feature","properties":{"h":3.0,"on_route":false},"geometry":{"type":"Polygon","coordinates":[[[7.032221,4.817674],[7.032208,4.817696],[7.032115,4.817642],[7.032128,4.817619],[7.032221,4.817674]]]}},{"type":"Feature","properties":{"h":3.0,"on_route":false},"geometry":{"type":"Polygon","coordinates":[[[7.033245,4.819325],[7.033256,4.819308],[7.033336,4.819359],[7.033326,4.819376],[7.033568,4.81953],[7.033579,4.819513],[7.033727,4.819606],[7.033743,4.81958],[7.033809,4.819622],[7.033793,4.819648],[7.033875,4.8197],[7.03375,4.819899],[7.03371,4.819873],[7.033696,4.819896],[7.033089,4.819512],[7.033217,4.819308],[7.033245,4.819325]]]}},{"type":"Feature","properties":{"h":3.0,"on_route":false},"geometry":{"type":"Polygon","coordinates":[[[7.035812,4.818145],[7.035756,4.818225],[7.035733,4.818209],[7.03579,4.81813],[7.035812,4.818145]]]}},{"type":"Feature","properties":{"h":3.0,"on_route":false},"geometry":{"type":"Polygon","coordinates":[[[7.03572,4.819957],[7.035698,4.820026],[7.035362,4.819919],[7.035384,4.819851],[7.03572,4.819957]]]}},{"type":"Feature","properties":{"h":3.0,"on_route":false},"geometry":{"type":"Polygon","coordinates":[[[7.032957,4.817742],[7.032887,4.817862],[7.032765,4.81779],[7.032834,4.81767],[7.032957,4.817742]]]}},{"type":"Feature","properties":{"h":3.0,"on_route":false},"geometry":{"type":"Polygon","coordinates":[[[7.03186,4.819163],[7.031869,4.819288],[7.031819,4.819292],[7.03181,4.819166],[7.03186,4.819163]]]}},{"type":"Feature","properties":{"h":3.0,"on_route":false},"geometry":{"type":"Polygon","coordinates":[[[7.033403,4.819775],[7.033346,4.819875],[7.033101,4.819734],[7.033158,4.819635],[7.033403,4.819775]]]}},{"type":"Feature","properties":{"h":3.0,"on_route":false},"geometry":{"type":"Polygon","coordinates":[[[7.03436,4.819026],[7.034256,4.819182],[7.033787,4.818868],[7.03389,4.818712],[7.03436,4.819026]]]}},{"type":"Feature","properties":{"h":3.0,"on_route":false},"geometry":{"type":"Polygon","coordinates":[[[7.034598,4.815965],[7.034582,4.815991],[7.034566,4.815981],[7.034513,4.816072],[7.034414,4.816014],[7.034482,4.815897],[7.034598,4.815965]]]}},{"type":"Feature","properties":{"h":3.0,"on_route":false},"geometry":{"type":"Polygon","coordinates":[[[7.035758,4.81534],[7.035694,4.815431],[7.035594,4.815361],[7.035659,4.81527],[7.035758,4.81534]]]}},{"type":"Feature","properties":{"h":3.0,"on_route":false},"geometry":{"type":"Polygon","coordinates":[[[7.039482,4.818764],[7.039456,4.818754],[7.039484,4.818681],[7.03951,4.818691],[7.039482,4.818764]]]}},{"type":"Feature","properties":{"h":3.0,"on_route":false},"geometry":{"type":"Polygon","coordinates":[[[7.039354,4.817769],[7.039287,4.817946],[7.039196,4.817912],[7.039264,4.817735],[7.039354,4.817769]]]}},{"type":"Feature","properties":{"h":3.0,"on_route":false},"geometry":{"type":"Polygon","coordinates":[[[7.034682,4.819002],[7.034595,4.819127],[7.034161,4.818823],[7.034248,4.818698],[7.034682,4.819002]]]}},{"type":"Feature","properties":{"h":3.0,"on_route":false},"geometry":{"type":"Polygon","coordinates":[[[7.035455,4.821164],[7.035388,4.821485],[7.035037,4.821411],[7.035028,4.821454],[7.034863,4.821419],[7.034871,4.821377],[7.034607,4.821321],[7.034673,4.821],[7.035455,4.821164]]]}},{"type":"Feature","properties":{"h":3.0,"on_route":false},"geometry":{"type":"Polygon","coordinates":[[[7.035536,4.820193],[7.035495,4.820315],[7.035436,4.820295],[7.035478,4.820172],[7.035536,4.820193]]]}},{"type":"Feature","properties":{"h":3.0,"on_route":false},"geometry":{"type":"Polygon","coordinates":[[[7.034889,4.818849],[7.034826,4.818917],[7.034809,4.818901],[7.034784,4.818928],[7.034672,4.818822],[7.034761,4.818727],[7.034889,4.818849]]]}},{"type":"Feature","properties":{"h":3.0,"on_route":false},"geometry":{"type":"Polygon","coordinates":[[[7.03227,4.81999],[7.032239,4.819978],[7.032264,4.819915],[7.032295,4.819927],[7.03227,4.81999]]]}},{"type":"Feature","properties":{"h":3.0,"on_route":false},"geometry":{"type":"Polygon","coordinates":[[[7.036511,4.814588],[7.03654,4.814607],[7.036464,4.814721],[7.036516,4.814756],[7.036474,4.814818],[7.036423,4.814784],[7.036345,4.8149],[7.036242,4.814831],[7.03632,4.814714],[7.036287,4.814692],[7.036321,4.814642],[7.036354,4.814664],[7.036438,4.814539],[7.036471,4.814561],[7.036493,4.814529],[7.036532,4.814556],[7.036511,4.814588]]]}},{"type":"Feature","properties":{"h":3.0,"on_route":false},"geometry":{"type":"Polygon","coordinates":[[[7.036495,4.815478],[7.036424,4.815583],[7.036309,4.815504],[7.03638,4.815399],[7.036495,4.815478]]]}},{"type":"Feature","properties":{"h":3.0,"on_route":false},"geometry":{"type":"Polygon","coordinates":[[[7.036612,4.815558],[7.036541,4.815663],[7.036424,4.815583],[7.036495,4.815478],[7.036612,4.815558]]]}},{"type":"Feature","properties":{"h":3.0,"on_route":false},"geometry":{"type":"Polygon","coordinates":[[[7.035087,4.819753],[7.035076,4.819794],[7.034901,4.819746],[7.034912,4.819705],[7.035087,4.819753]]]}},{"type":"Feature","properties":{"h":3.0,"on_route":false},"geometry":{"type":"Polygon","coordinates":[[[7.03339,4.815836],[7.033367,4.815884],[7.03331,4.815856],[7.033333,4.815808],[7.03339,4.815836]]]}},{"type":"Feature","properties":{"h":3.0,"on_route":false},"geometry":{"type":"Polygon","coordinates":[[[7.038794,4.821013],[7.038757,4.821001],[7.038781,4.820929],[7.038818,4.820941],[7.038794,4.821013]]]}},{"type":"Feature","properties":{"h":3.0,"on_route":false},"geometry":{"type":"Polygon","coordinates":[[[7.035606,4.816224],[7.035504,4.816375],[7.035043,4.81606],[7.035146,4.815909],[7.035606,4.816224]]]}},{"type":"Feature","properties":{"h":3.0,"on_route":false},"geometry":{"type":"Polygon","coordinates":[[[7.035848,4.820459],[7.036017,4.820522],[7.035977,4.82063],[7.035935,4.820614],[7.035901,4.820706],[7.035775,4.82066],[7.035848,4.820459]]]}},{"type":"Feature","properties":{"h":3.0,"on_route":true},"geometry":{"type":"Polygon","coordinates":[[[7.037203,4.819324],[7.037166,4.819417],[7.037068,4.819378],[7.037104,4.819285],[7.037203,4.819324]]]}},{"type":"Feature","properties":{"h":3.0,"on_route":false},"geometry":{"type":"Polygon","coordinates":[[[7.034683,4.820976],[7.034673,4.821026],[7.034622,4.821015],[7.034632,4.820965],[7.034683,4.820976]]]}},{"type":"Feature","properties":{"h":3.0,"on_route":false},"geometry":{"type":"Polygon","coordinates":[[[7.037652,4.820193],[7.037547,4.820469],[7.037383,4.820406],[7.037488,4.82013],[7.037652,4.820193]]]}},{"type":"Feature","properties":{"h":3.0,"on_route":false},"geometry":{"type":"Polygon","coordinates":[[[7.034991,4.815294],[7.034973,4.815338],[7.034925,4.815319],[7.034943,4.815274],[7.034991,4.815294]]]}},{"type":"Feature","properties":{"h":3.0,"on_route":false},"geometry":{"type":"Polygon","coordinates":[[[7.036166,4.815909],[7.03613,4.81596],[7.036029,4.815888],[7.036066,4.815837],[7.036166,4.815909]]]}},{"type":"Feature","properties":{"h":3.0,"on_route":true},"geometry":{"type":"Polygon","coordinates":[[[7.035955,4.818916],[7.036061,4.81897],[7.036049,4.818995],[7.035942,4.81894],[7.035955,4.818916]]]}},{"type":"Feature","properties":{"h":3.0,"on_route":false},"geometry":{"type":"Polygon","coordinates":[[[7.032597,4.8178],[7.032558,4.817868],[7.032485,4.817827],[7.032524,4.817758],[7.032597,4.8178]]]}},{"type":"Feature","properties":{"h":3.0,"on_route":false},"geometry":{"type":"Polygon","coordinates":[[[7.036634,4.818302],[7.03645,4.818785],[7.036282,4.818721],[7.036467,4.818237],[7.036634,4.818302]]]}},{"type":"Feature","properties":{"h":3.0,"on_route":false},"geometry":{"type":"Polygon","coordinates":[[[7.0377,4.817515],[7.037682,4.817592],[7.037627,4.81758],[7.037644,4.817502],[7.0377,4.817515]]]}},{"type":"Feature","properties":{"h":3.0,"on_route":false},"geometry":{"type":"Polygon","coordinates":[[[7.032548,4.819074],[7.03253,4.819123],[7.032475,4.819104],[7.032493,4.819054],[7.032548,4.819074]]]}},{"type":"Feature","properties":{"h":3.0,"on_route":false},"geometry":{"type":"Polygon","coordinates":[[[7.03473,4.820863],[7.034712,4.820948],[7.034639,4.820932],[7.034657,4.820847],[7.03473,4.820863]]]}},{"type":"Feature","properties":{"h":3.0,"on_route":false},"geometry":{"type":"Polygon","coordinates":[[[7.035819,4.813885],[7.035628,4.81429],[7.034905,4.813948],[7.035096,4.813543],[7.035819,4.813885]]]}},{"type":"Feature","properties":{"h":3.0,"on_route":false},"geometry":{"type":"Polygon","coordinates":[[[7.035222,4.814359],[7.03521,4.814396],[7.035172,4.814384],[7.035184,4.814347],[7.035222,4.814359]]]}},{"type":"Feature","properties":{"h":3.0,"on_route":false},"geometry":{"type":"Polygon","coordinates":[[[7.032358,4.817562],[7.032295,4.817671],[7.032048,4.817526],[7.032111,4.817418],[7.032358,4.817562]]]}},{"type":"Feature","properties":{"h":3.0,"on_route":false},"geometry":{"type":"Polygon","coordinates":[[[7.039336,4.815838],[7.039294,4.815959],[7.039229,4.815936],[7.039237,4.815913],[7.039246,4.815916],[7.039281,4.815818],[7.039336,4.815838]]]}},{"type":"Feature","properties":{"h":3.0,"on_route":false},"geometry":{"type":"Polygon","coordinates":[[[7.033174,4.818166],[7.033146,4.818217],[7.033055,4.818166],[7.033083,4.818115],[7.033174,4.818166]]]}},{"type":"Feature","properties":{"h":3.0,"on_route":false},"geometry":{"type":"Polygon","coordinates":[[[7.037222,4.814254],[7.037243,4.814226],[7.037648,4.814517],[7.037515,4.814703],[7.036693,4.814112],[7.036771,4.814004],[7.036772,4.814004],[7.036786,4.813985],[7.036774,4.813976],[7.036795,4.813947],[7.037222,4.814254]]]}},{"type":"Feature","properties":{"h":3.0,"on_route":false},"geometry":{"type":"Polygon","coordinates":[[[7.038312,4.817852],[7.038236,4.818054],[7.037977,4.817956],[7.038052,4.817754],[7.038312,4.817852]]]}},{"type":"Feature","properties":{"h":3.0,"on_route":false},"geometry":{"type":"Polygon","coordinates":[[[7.035051,4.814606],[7.035048,4.814629],[7.035024,4.814627],[7.035026,4.814603],[7.035051,4.814606]]]}},{"type":"Feature","properties":{"h":3.0,"on_route":false},"geometry":{"type":"Polygon","coordinates":[[[7.038033,4.818801],[7.038019,4.818853],[7.037975,4.818842],[7.03799,4.818789],[7.038033,4.818801]]]}},{"type":"Feature","properties":{"h":3.0,"on_route":false},"geometry":{"type":"Polygon","coordinates":[[[7.035721,4.814414],[7.03559,4.814352],[7.035807,4.81389],[7.035938,4.813952],[7.035721,4.814414]]]}},{"type":"Feature","properties":{"h":3.0,"on_route":false},"geometry":{"type":"Polygon","coordinates":[[[7.036767,4.817714],[7.036746,4.817757],[7.036652,4.81771],[7.036674,4.817667],[7.036767,4.817714]]]}},{"type":"Feature","properties":{"h":3.0,"on_route":false},"geometry":{"type":"Polygon","coordinates":[[[7.037027,4.820628],[7.036994,4.820618],[7.037025,4.820509],[7.037058,4.820519],[7.037027,4.820628]]]}},{"type":"Feature","properties":{"h":3.0,"on_route":false},"geometry":{"type":"Polygon","coordinates":[[[7.035572,4.820162],[7.035559,4.8202],[7.035505,4.820182],[7.035518,4.820143],[7.035572,4.820162]]]}},{"type":"Feature","properties":{"h":3.0,"on_route":false},"geometry":{"type":"Polygon","coordinates":[[[7.033031,4.820236],[7.032965,4.82032],[7.032945,4.820305],[7.033012,4.820221],[7.033031,4.820236]]]}},{"type":"Feature","properties":{"h":3.0,"on_route":false},"geometry":{"type":"Polygon","coordinates":[[[7.032061,4.817584],[7.032012,4.817685],[7.031933,4.817647],[7.031982,4.817545],[7.032061,4.817584]]]}},{"type":"Feature","properties":{"h":3.0,"on_route":false},"geometry":{"type":"Polygon","coordinates":[[[7.035934,4.817485],[7.035902,4.817532],[7.035788,4.817453],[7.03582,4.817406],[7.035934,4.817485]]]}},{"type":"Feature","properties":{"h":3.0,"on_route":false},"geometry":{"type":"Polygon","coordinates":[[[7.038397,4.818385],[7.038329,4.818563],[7.038237,4.818527],[7.038285,4.818403],[7.038272,4.818398],[7.038292,4.818344],[7.038397,4.818385]]]}},{"type":"Feature","properties":{"h":3.0,"on_route":false},"geometry":{"type":"Polygon","coordinates":[[[7.037511,4.821894],[7.037495,4.821976],[7.03743,4.821964],[7.037446,4.821882],[7.037511,4.821894]]]}},{"type":"Feature","properties":{"h":3.0,"on_route":false},"geometry":{"type":"Polygon","coordinates":[[[7.036997,4.819941],[7.036975,4.820184],[7.036887,4.820176],[7.036909,4.819933],[7.036997,4.819941]]]}},{"type":"Feature","properties":{"h":3.0,"on_route":false},"geometry":{"type":"Polygon","coordinates":[[[7.032265,4.820233],[7.032233,4.820217],[7.032268,4.820147],[7.0323,4.820163],[7.032265,4.820233]]]}},{"type":"Feature","properties":{"h":3.0,"on_route":false},"geometry":{"type":"Polygon","coordinates":[[[7.037085,4.816079],[7.037066,4.81611],[7.037018,4.816082],[7.037037,4.81605],[7.037085,4.816079]]]}},{"type":"Feature","properties":{"h":3.0,"on_route":false},"geometry":{"type":"Polygon","coordinates":[[[7.035747,4.820844],[7.035706,4.820999],[7.035636,4.82098],[7.035677,4.820826],[7.035747,4.820844]]]}},{"type":"Feature","properties":{"h":3.0,"on_route":false},"geometry":{"type":"Polygon","coordinates":[[[7.039828,4.81935],[7.039801,4.819437],[7.03972,4.819412],[7.039747,4.819324],[7.039828,4.81935]]]}},{"type":"Feature","properties":{"h":3.0,"on_route":false},"geometry":{"type":"Polygon","coordinates":[[[7.035317,4.819604],[7.035263,4.819802],[7.034761,4.819663],[7.034815,4.819466],[7.035317,4.819604]]]}},{"type":"Feature","properties":{"h":3.0,"on_route":false},"geometry":{"type":"Polygon","coordinates":[[[7.035974,4.815033],[7.035933,4.81504],[7.035926,4.815004],[7.035968,4.814997],[7.035974,4.815033]]]}},{"type":"Feature","properties":{"h":3.0,"on_route":false},"geometry":{"type":"Polygon","coordinates":[[[7.038169,4.818277],[7.038,4.818722],[7.038141,4.818776],[7.038233,4.818536],[7.038317,4.818568],[7.038206,4.818859],[7.03792,4.81875],[7.037771,4.819141],[7.037882,4.819184],[7.037865,4.819228],[7.037709,4.819168],[7.037725,4.819123],[7.037545,4.819054],[7.037694,4.818663],[7.037629,4.818638],[7.037649,4.818588],[7.037674,4.818597],[7.037843,4.818152],[7.038169,4.818277]]]}},{"type":"Feature","properties":{"h":3.0,"on_route":false},"geometry":{"type":"Polygon","coordinates":[[[7.038172,4.816911],[7.038065,4.816869],[7.038185,4.81656],[7.038291,4.816601],[7.038172,4.816911]]]}},{"type":"Feature","properties":{"h":3.0,"on_route":false},"geometry":{"type":"Polygon","coordinates":[[[7.037152,4.819254],[7.037095,4.819232],[7.037179,4.819011],[7.037237,4.819033],[7.037152,4.819254]]]}},{"type":"Feature","properties":{"h":3.0,"on_route":true},"geometry":{"type":"Polygon","coordinates":[[[7.03769,4.819748],[7.037657,4.819833],[7.037616,4.819818],[7.037398,4.820386],[7.037129,4.820282],[7.037178,4.820155],[7.037085,4.820119],[7.037254,4.819678],[7.037347,4.819714],[7.037379,4.819629],[7.03769,4.819748]]]}},{"type":"Feature","properties":{"h":3.0,"on_route":false},"geometry":{"type":"Polygon","coordinates":[[[7.037966,4.816716],[7.037941,4.816789],[7.037779,4.816731],[7.037805,4.816659],[7.037966,4.816716]]]}},{"type":"Feature","properties":{"h":3.0,"on_route":false},"geometry":{"type":"Polygon","coordinates":[[[7.037022,4.816209],[7.03702,4.816245],[7.036989,4.816243],[7.036992,4.816207],[7.037022,4.816209]]]}},{"type":"Feature","properties":{"h":3.0,"on_route":false},"geometry":{"type":"Polygon","coordinates":[[[7.03553,4.815522],[7.035492,4.815575],[7.035425,4.815528],[7.035417,4.81554],[7.035336,4.815483],[7.035381,4.815418],[7.03553,4.815522]]]}},{"type":"Feature","properties":{"h":3.0,"on_route":false},"geometry":{"type":"Polygon","coordinates":[[[7.034565,4.821213],[7.034551,4.821272],[7.034491,4.821258],[7.034505,4.821199],[7.034565,4.821213]]]}},{"type":"Feature","properties":{"h":3.0,"on_route":true},"geometry":{"type":"Polygon","coordinates":[[[7.038615,4.819567],[7.038582,4.819655],[7.03851,4.819628],[7.038544,4.81954],[7.038615,4.819567]]]}},{"type":"Feature","properties":{"h":3.0,"on_route":false},"geometry":{"type":"Polygon","coordinates":[[[7.034633,4.816653],[7.034604,4.816706],[7.034549,4.816677],[7.034578,4.816623],[7.034633,4.816653]]]}},{"type":"Feature","properties":{"h":3.0,"on_route":false},"geometry":{"type":"Polygon","coordinates":[[[7.039606,4.817502],[7.039573,4.817589],[7.039488,4.817557],[7.039521,4.817469],[7.039606,4.817502]]]}},{"type":"Feature","properties":{"h":3.0,"on_route":false},"geometry":{"type":"Polygon","coordinates":[[[7.036928,4.816338],[7.036867,4.81643],[7.03678,4.816371],[7.036841,4.81628],[7.036928,4.816338]]]}},{"type":"Feature","properties":{"h":3.0,"on_route":false},"geometry":{"type":"Polygon","coordinates":[[[7.038661,4.820573],[7.038615,4.820694],[7.038347,4.820592],[7.038393,4.820471],[7.038661,4.820573]]]}},{"type":"Feature","properties":{"h":3.0,"on_route":false},"geometry":{"type":"Polygon","coordinates":[[[7.038887,4.816893],[7.038729,4.817351],[7.038673,4.817331],[7.03883,4.816874],[7.038887,4.816893]]]}},{"type":"Feature","properties":{"h":3.0,"on_route":false},"geometry":{"type":"Polygon","coordinates":[[[7.040583,4.816523],[7.040482,4.816798],[7.040505,4.816807],[7.040475,4.816889],[7.040451,4.81688],[7.040368,4.817106],[7.040063,4.816993],[7.040045,4.817041],[7.039372,4.816791],[7.039473,4.816517],[7.039497,4.816526],[7.039535,4.816423],[7.039511,4.816414],[7.039605,4.81616],[7.040583,4.816523]]]}},{"type":"Feature","properties":{"h":3.0,"on_route":false},"geometry":{"type":"Polygon","coordinates":[[[7.034529,4.816847],[7.034504,4.816834],[7.034527,4.81679],[7.034553,4.816804],[7.034529,4.816847]]]}},{"type":"Feature","properties":{"h":3.0,"on_route":false},"geometry":{"type":"Polygon","coordinates":[[[7.033313,4.815242],[7.033278,4.815323],[7.033179,4.815281],[7.033215,4.815199],[7.033313,4.815242]]]}},{"type":"Feature","properties":{"h":3.0,"on_route":false},"geometry":{"type":"Polygon","coordinates":[[[7.034077,4.816341],[7.034023,4.816435],[7.033942,4.816388],[7.033996,4.816294],[7.034077,4.816341]]]}},{"type":"Feature","properties":{"h":3.0,"on_route":false},"geometry":{"type":"Polygon","coordinates":[[[7.035545,4.814685],[7.035523,4.814732],[7.035419,4.814681],[7.035442,4.814635],[7.035545,4.814685]]]}},{"type":"Feature","properties":{"h":3.0,"on_route":false},"geometry":{"type":"Polygon","coordinates":[[[7.032145,4.818786],[7.032132,4.818835],[7.032083,4.818822],[7.032096,4.818772],[7.032145,4.818786]]]}},{"type":"Feature","properties":{"h":3.0,"on_route":false},"geometry":{"type":"Polygon","coordinates":[[[7.039356,4.819452],[7.039322,4.819541],[7.03927,4.819521],[7.039304,4.819432],[7.039356,4.819452]]]}},{"type":"Feature","properties":{"h":3.0,"on_route":false},"geometry":{"type":"Polygon","coordinates":[[[7.034749,4.814297],[7.034728,4.814348],[7.034676,4.814326],[7.034697,4.814276],[7.034749,4.814297]]]}},{"type":"Feature","properties":{"h":3.0,"on_route":false},"geometry":{"type":"Polygon","coordinates":[[[7.035321,4.821527],[7.035309,4.821592],[7.03518,4.82157],[7.035191,4.821505],[7.035321,4.821527]]]}},{"type":"Feature","properties":{"h":3.0,"on_route":false},"geometry":{"type":"Polygon","coordinates":[[[7.032866,4.818674],[7.03274,4.818911],[7.032721,4.818901],[7.032684,4.81897],[7.032202,4.818712],[7.032365,4.818406],[7.032866,4.818674]]]}},{"type":"Feature","properties":{"h":3.0,"on_route":false},"geometry":{"type":"Polygon","coordinates":[[[7.034292,4.818417],[7.034199,4.818552],[7.034181,4.81854],[7.034123,4.818625],[7.033681,4.818319],[7.033832,4.818099],[7.034292,4.818417]]]}},{"type":"Feature","properties":{"h":3.0,"on_route":false},"geometry":{"type":"Polygon","coordinates":[[[7.035319,4.820562],[7.035303,4.820625],[7.035258,4.820614],[7.035274,4.820551],[7.035319,4.820562]]]}},{"type":"Feature","properties":{"h":3.0,"on_route":false},"geometry":{"type":"Polygon","coordinates":[[[7.037904,4.816887],[7.037877,4.816964],[7.037727,4.816913],[7.037753,4.816835],[7.037904,4.816887]]]}},{"type":"Feature","properties":{"h":3.0,"on_route":false},"geometry":{"type":"Polygon","coordinates":[[[7.036865,4.817732],[7.036852,4.817758],[7.036767,4.817714],[7.03678,4.817689],[7.036865,4.817732]]]}},{"type":"Feature","properties":{"h":3.0,"on_route":false},"geometry":{"type":"Polygon","coordinates":[[[7.036958,4.820348],[7.036907,4.820343],[7.036922,4.820179],[7.036974,4.820184],[7.036958,4.820348]]]}},{"type":"Feature","properties":{"h":3.0,"on_route":false},"geometry":{"type":"Polygon","coordinates":[[[7.03601,4.81511],[7.035943,4.815172],[7.035893,4.815118],[7.03596,4.815056],[7.03601,4.81511]]]}},{"type":"Feature","properties":{"h":3.0,"on_route":false},"geometry":{"type":"Polygon","coordinates":[[[7.036219,4.821108],[7.036185,4.8211],[7.036208,4.821002],[7.036242,4.82101],[7.036219,4.821108]]]}},{"type":"Feature","properties":{"h":3.0,"on_route":false},"geometry":{"type":"Polygon","coordinates":[[[7.033036,4.815882],[7.03302,4.815915],[7.032967,4.815888],[7.032983,4.815856],[7.033036,4.815882]]]}},{"type":"Feature","properties":{"h":3.0,"on_route":false},"geometry":{"type":"Polygon","coordinates":[[[7.034818,4.815752],[7.034784,4.815732],[7.034845,4.815629],[7.034879,4.815649],[7.034818,4.815752]]]}},{"type":"Feature","properties":{"h":3.0,"on_route":false},"geometry":{"type":"Polygon","coordinates":[[[7.038547,4.817899],[7.038534,4.817951],[7.038426,4.817924],[7.038439,4.817872],[7.038547,4.817899]]]}},{"type":"Feature","properties":{"h":3.0,"on_route":false},"geometry":{"type":"Polygon","coordinates":[[[7.037511,4.820611],[7.037478,4.820734],[7.037401,4.820713],[7.037434,4.82059],[7.037511,4.820611]]]}},{"type":"Feature","properties":{"h":3.0,"on_route":false},"geometry":{"type":"Polygon","coordinates":[[[7.034996,4.816817],[7.034971,4.816853],[7.034902,4.816805],[7.034927,4.816768],[7.034996,4.816817]]]}},{"type":"Feature","properties":{"h":3.0,"on_route":false},"geometry":{"type":"Polygon","coordinates":[[[7.037762,4.817429],[7.037733,4.817432],[7.037731,4.817417],[7.037747,4.817374],[7.037774,4.817371],[7.037762,4.817429]]]}},{"type":"Feature","properties":{"h":3.0,"on_route":false},"geometry":{"type":"Polygon","coordinates":[[[7.039776,4.816951],[7.03983,4.816972],[7.039821,4.816996],[7.040078,4.817092],[7.040051,4.817165],[7.039794,4.817069],[7.039739,4.817217],[7.039684,4.817197],[7.039776,4.816951]]]}},{"type":"Feature","properties":{"h":3.0,"on_route":false},"geometry":{"type":"Polygon","coordinates":[[[7.039347,4.818961],[7.039321,4.819029],[7.039151,4.818964],[7.039177,4.818896],[7.039347,4.818961]]]}},{"type":"Feature","properties":{"h":3.0,"on_route":false},"geometry":{"type":"Polygon","coordinates":[[[7.038349,4.821593],[7.038215,4.822121],[7.037663,4.82198],[7.037797,4.821452],[7.038349,4.821593]]]}},{"type":"Feature","properties":{"h":3.0,"on_route":false},"geometry":{"type":"Polygon","coordinates":[[[7.038877,4.821093],[7.038872,4.821115],[7.038829,4.821105],[7.038834,4.821083],[7.038877,4.821093]]]}},{"type":"Feature","properties":{"h":3.0,"on_route":false},"geometry":{"type":"Polygon","coordinates":[[[7.038396,4.817408],[7.038406,4.817507],[7.038313,4.817516],[7.038304,4.817417],[7.038396,4.817408]]]}},{"type":"Feature","properties":{"h":3.0,"on_route":false},"geometry":{"type":"Polygon","coordinates":[[[7.037286,4.818557],[7.037101,4.81904],[7.036934,4.818975],[7.037119,4.818493],[7.037286,4.818557]]]}},{"type":"Feature","properties":{"h":3.0,"on_route":false},"geometry":{"type":"Polygon","coordinates":[[[7.034061,4.820399],[7.034036,4.820469],[7.033997,4.820455],[7.034022,4.820385],[7.034061,4.820399]]]}},{"type":"Feature","properties":{"h":3.0,"on_route":false},"geometry":{"type":"Polygon","coordinates":[[[7.036128,4.819736],[7.036128,4.819772],[7.036061,4.819772],[7.036061,4.819736],[7.036128,4.819736]]]}},{"type":"Feature","properties":{"h":3.0,"on_route":false},"geometry":{"type":"Polygon","coordinates":[[[7.034761,4.817021],[7.034702,4.817106],[7.034633,4.817059],[7.034692,4.816973],[7.034761,4.817021]]]}},{"type":"Feature","properties":{"h":3.0,"on_route":false},"geometry":{"type":"Polygon","coordinates":[[[7.031911,4.819494],[7.03191,4.819525],[7.031833,4.819523],[7.031834,4.819492],[7.031911,4.819494]]]}},{"type":"Feature","properties":{"h":3.0,"on_route":false},"geometry":{"type":"Polygon","coordinates":[[[7.036374,4.815345],[7.036199,4.815596],[7.036114,4.815536],[7.03629,4.815285],[7.036374,4.815345]]]}},{"type":"Feature","properties":{"h":3.0,"on_route":false},"geometry":{"type":"Polygon","coordinates":[[[7.034825,4.817065],[7.034766,4.817151],[7.034703,4.817107],[7.034762,4.817021],[7.034825,4.817065]]]}},{"type":"Feature","properties":{"h":3.0,"on_route":false},"geometry":{"type":"Polygon","coordinates":[[[7.037034,4.817281],[7.037028,4.817303],[7.036986,4.817293],[7.036991,4.817271],[7.037034,4.817281]]]}},{"type":"Feature","properties":{"h":3.0,"on_route":false},"geometry":{"type":"Polygon","coordinates":[[[7.036764,4.820512],[7.036694,4.820768],[7.036508,4.820717],[7.036577,4.820461],[7.036764,4.820512]]]}},{"type":"Feature","properties":{"h":3.0,"on_route":false},"geometry":{"type":"Polygon","coordinates":[[[7.033982,4.819998],[7.033991,4.819981],[7.03401,4.819991],[7.033986,4.820039],[7.033921,4.820005],[7.033937,4.819975],[7.033982,4.819998]]]}},{"type":"Feature","properties":{"h":3.0,"on_route":false},"geometry":{"type":"Polygon","coordinates":[[[7.033569,4.819933],[7.033509,4.820039],[7.033462,4.820012],[7.033522,4.819906],[7.033569,4.819933]]]}},{"type":"Feature","properties":{"h":3.0,"on_route":false},"geometry":{"type":"Polygon","coordinates":[[[7.036845,4.817602],[7.036835,4.817625],[7.03675,4.817586],[7.03676,4.817563],[7.036845,4.817602]]]}},{"type":"Feature","properties":{"h":3.0,"on_route":false},"geometry":{"type":"Polygon","coordinates":[[[7.035023,4.820228],[7.035039,4.820232],[7.035028,4.820268],[7.035013,4.820264],[7.034951,4.820484],[7.034761,4.820429],[7.034754,4.820454],[7.034606,4.820412],[7.034686,4.820131],[7.034945,4.820205],[7.034962,4.820146],[7.035003,4.820158],[7.035017,4.820108],[7.035054,4.820118],[7.035023,4.820228]]]}},{"type":"Feature","properties":{"h":3.0,"on_route":false},"geometry":{"type":"Polygon","coordinates":[[[7.038243,4.81701],[7.038191,4.81715],[7.03803,4.817089],[7.038082,4.81695],[7.038243,4.81701]]]}},{"type":"Feature","properties":{"h":3.0,"on_route":false},"geometry":{"type":"Polygon","coordinates":[[[7.03566,4.815254],[7.035523,4.815453],[7.035383,4.815357],[7.03552,4.815157],[7.03566,4.815254]]]}},{"type":"Feature","properties":{"h":3.0,"on_route":false},"geometry":{"type":"Polygon","coordinates":[[[7.036106,4.815352],[7.03604,4.815433],[7.036004,4.815404],[7.03607,4.815323],[7.036106,4.815352]]]}},{"type":"Feature","properties":{"h":3.0,"on_route":false},"geometry":{"type":"Polygon","coordinates":[[[7.038619,4.820141],[7.038567,4.8203],[7.038475,4.82027],[7.038527,4.820111],[7.038619,4.820141]]]}},{"type":"Feature","properties":{"h":3.0,"on_route":false},"geometry":{"type":"Polygon","coordinates":[[[7.034169,4.81978],[7.034048,4.819977],[7.033874,4.819869],[7.033995,4.819672],[7.034169,4.81978]]]}},{"type":"Feature","properties":{"h":3.0,"on_route":false},"geometry":{"type":"Polygon","coordinates":[[[7.036744,4.814449],[7.036681,4.814538],[7.036324,4.814286],[7.036386,4.814197],[7.036744,4.814449]]]}},{"type":"Feature","properties":{"h":3.0,"on_route":false},"geometry":{"type":"Polygon","coordinates":[[[7.038497,4.820959],[7.038364,4.821473],[7.037825,4.821332],[7.037958,4.820818],[7.038497,4.820959]]]}},{"type":"Feature","properties":{"h":3.0,"on_route":false},"geometry":{"type":"Polygon","coordinates":[[[7.035546,4.815451],[7.035567,4.815421],[7.035682,4.815501],[7.035661,4.815531],[7.035685,4.815548],[7.035647,4.815604],[7.035464,4.815478],[7.035503,4.815421],[7.035546,4.815451]]]}},{"type":"Feature","properties":{"h":3.0,"on_route":false},"geometry":{"type":"Polygon","coordinates":[[[7.034781,4.816767],[7.034711,4.816868],[7.03473,4.816882],[7.03463,4.817028],[7.034484,4.816926],[7.034654,4.816679],[7.034781,4.816767]]]}},{"type":"Feature","properties":{"h":3.0,"on_route":false},"geometry":{"type":"Polygon","coordinates":[[[7.033545,4.819455],[7.033518,4.819498],[7.033468,4.819466],[7.033494,4.819423],[7.033545,4.819455]]]}},{"type":"Feature","properties":{"h":3.0,"on_route":false},"geometry":{"type":"Polygon","coordinates":[[[7.032236,4.818987],[7.032218,4.819121],[7.032108,4.819107],[7.032126,4.818972],[7.032236,4.818987]]]}},{"type":"Feature","properties":{"h":3.0,"on_route":false},"geometry":{"type":"Polygon","coordinates":[[[7.035748,4.821481],[7.035734,4.821537],[7.035844,4.821565],[7.035831,4.821613],[7.035489,4.821527],[7.035502,4.821479],[7.035482,4.821474],[7.035496,4.821417],[7.035748,4.821481]]]}},{"type":"Feature","properties":{"h":3.0,"on_route":false},"geometry":{"type":"Polygon","coordinates":[[[7.037716,4.81846],[7.037683,4.818553],[7.037599,4.818524],[7.037633,4.81843],[7.037716,4.81846]]]}},{"type":"Feature","properties":{"h":3.0,"on_route":false},"geometry":{"type":"Polygon","coordinates":[[[7.038292,4.820427],[7.038241,4.82056],[7.038221,4.820553],[7.038214,4.82057],[7.0376,4.820333],[7.037658,4.820182],[7.038292,4.820427]]]}},{"type":"Feature","properties":{"h":3.0,"on_route":false},"geometry":{"type":"Polygon","coordinates":[[[7.035327,4.814573],[7.035307,4.814613],[7.035207,4.814561],[7.035227,4.814522],[7.035327,4.814573]]]}},{"type":"Feature","properties":{"h":3.0,"on_route":false},"geometry":{"type":"Polygon","coordinates":[[[7.03507,4.820487],[7.035046,4.820558],[7.034941,4.820522],[7.034965,4.82045],[7.03507,4.820487]]]}},{"type":"Feature","properties":{"h":3.0,"on_route":false},"geometry":{"type":"Polygon","coordinates":[[[7.037972,4.814884],[7.037873,4.815018],[7.03781,4.814971],[7.037908,4.814837],[7.037972,4.814884]]]}},{"type":"Feature","properties":{"h":3.0,"on_route":false},"geometry":{"type":"Polygon","coordinates":[[[7.032131,4.819981],[7.032089,4.819978],[7.032097,4.819877],[7.032139,4.81988],[7.032131,4.819981]]]}},{"type":"Feature","properties":{"h":3.0,"on_route":false},"geometry":{"type":"Polygon","coordinates":[[[7.035358,4.820923],[7.035324,4.821044],[7.035114,4.820984],[7.035148,4.820863],[7.035358,4.820923]]]}},{"type":"Feature","properties":{"h":3.0,"on_route":true},"geometry":{"type":"Polygon","coordinates":[[[7.038441,4.820038],[7.038334,4.820318],[7.038247,4.820285],[7.038262,4.820245],[7.038193,4.820219],[7.038286,4.819978],[7.038441,4.820038]]]}},{"type":"Feature","properties":{"h":3.0,"on_route":true},"geometry":{"type":"Polygon","coordinates":[[[7.039413,4.819576],[7.039293,4.819891],[7.039378,4.819924],[7.039319,4.820079],[7.038714,4.819847],[7.038893,4.819377],[7.039413,4.819576]]]}},{"type":"Feature","properties":{"h":3.0,"on_route":false},"geometry":{"type":"Polygon","coordinates":[[[7.036131,4.82077],[7.036111,4.820837],[7.03606,4.820822],[7.03608,4.820755],[7.036131,4.82077]]]}},{"type":"Feature","properties":{"h":3.0,"on_route":false},"geometry":{"type":"Polygon","coordinates":[[[7.03726,4.815875],[7.037241,4.815907],[7.037035,4.815779],[7.037054,4.815747],[7.03726,4.815875]]]}},{"type":"Feature","properties":{"h":3.0,"on_route":false},"geometry":{"type":"Polygon","coordinates":[[[7.036124,4.815603],[7.036011,4.815766],[7.035936,4.815714],[7.035911,4.81575],[7.035808,4.815677],[7.035946,4.815479],[7.036124,4.815603]]]}},{"type":"Feature","properties":{"h":3.0,"on_route":false},"geometry":{"type":"Polygon","coordinates":[[[7.034358,4.817323],[7.034399,4.817264],[7.035533,4.818051],[7.035282,4.818415],[7.035094,4.818285],[7.035038,4.818367],[7.035166,4.818456],[7.035047,4.818628],[7.034934,4.818549],[7.034946,4.818531],[7.034156,4.817983],[7.034262,4.817829],[7.03472,4.818146],[7.034776,4.818065],[7.034271,4.817714],[7.034328,4.81763],[7.034021,4.817417],[7.034174,4.817195],[7.034358,4.817323]]]}},{"type":"Feature","properties":{"h":3.0,"on_route":false},"geometry":{"type":"Polygon","coordinates":[[[7.032818,4.819563],[7.03281,4.819598],[7.032769,4.819587],[7.032777,4.819552],[7.032818,4.819563]]]}},{"type":"Feature","properties":{"h":3.0,"on_route":false},"geometry":{"type":"Polygon","coordinates":[[[7.034898,4.816364],[7.034888,4.816398],[7.034841,4.816385],[7.034851,4.81635],[7.034898,4.816364]]]}},{"type":"Feature","properties":{"h":3.0,"on_route":false},"geometry":{"type":"Polygon","coordinates":[[[7.033111,4.817977],[7.033091,4.818022],[7.033038,4.817998],[7.033058,4.817953],[7.033111,4.817977]]]}},{"type":"Feature","properties":{"h":3.0,"on_route":false},"geometry":{"type":"Polygon","coordinates":[[[7.032105,4.818678],[7.032079,4.818743],[7.032035,4.818726],[7.032061,4.81866],[7.032105,4.818678]]]}},{"type":"Feature","properties":{"h":3.0,"on_route":false},"geometry":{"type":"Polygon","coordinates":[[[7.034421,4.819457],[7.034398,4.8195],[7.034346,4.819472],[7.034369,4.819429],[7.034421,4.819457]]]}},{"type":"Feature","properties":{"h":3.0,"on_route":false},"geometry":{"type":"Polygon","coordinates":[[[7.035301,4.815503],[7.035267,4.81548],[7.03532,4.815398],[7.035355,4.81542],[7.035301,4.815503]]]}},{"type":"Feature","properties":{"h":3.0,"on_route":false},"geometry":{"type":"Polygon","coordinates":[[[7.039278,4.818468],[7.039445,4.818532],[7.039361,4.818752],[7.039402,4.818768],[7.039371,4.81885],[7.039414,4.818867],[7.039378,4.818963],[7.039451,4.818991],[7.039429,4.819049],[7.039335,4.819013],[7.039357,4.818955],[7.039127,4.818867],[7.039278,4.818468]]]}},{"type":"Feature","properties":{"h":3.0,"on_route":false},"geometry":{"type":"Polygon","coordinates":[[[7.039675,4.819076],[7.039698,4.819085],[7.039675,4.819143],[7.039653,4.819135],[7.039595,4.819286],[7.039372,4.819201],[7.039422,4.819068],[7.039528,4.819109],[7.039555,4.819039],[7.039511,4.819022],[7.039491,4.819073],[7.039429,4.819049],[7.039451,4.818991],[7.039483,4.819003],[7.039519,4.818907],[7.03955,4.818919],[7.039665,4.818617],[7.039826,4.818678],[7.039675,4.819076]]]}},{"type":"Feature","properties":{"h":3.0,"on_route":false},"geometry":{"type":"Polygon","coordinates":[[[7.032931,4.81626],[7.032881,4.816339],[7.032775,4.816272],[7.032825,4.816192],[7.032931,4.81626]]]}},{"type":"Feature","properties":{"h":3.0,"on_route":true},"geometry":{"type":"Polygon","coordinates":[[[7.037756,4.819415],[7.037652,4.819692],[7.0375,4.819635],[7.037604,4.819358],[7.037756,4.819415]]]}},{"type":"Feature","properties":{"h":3.0,"on_route":false},"geometry":{"type":"Polygon","coordinates":[[[7.032712,4.819875],[7.032665,4.819974],[7.032613,4.819949],[7.03266,4.81985],[7.032712,4.819875]]]}},{"type":"Feature","properties":{"h":3.0,"on_route":false},"geometry":{"type":"Polygon","coordinates":[[[7.033624,4.82123],[7.033599,4.821222],[7.033631,4.821119],[7.033656,4.821127],[7.033624,4.82123]]]}},{"type":"Feature","properties":{"h":3.0,"on_route":false},"geometry":{"type":"Polygon","coordinates":[[[7.038889,4.817181],[7.038863,4.817256],[7.038772,4.817225],[7.038799,4.817149],[7.038889,4.817181]]]}},{"type":"Feature","properties":{"h":3.0,"on_route":false},"geometry":{"type":"Polygon","coordinates":[[[7.033765,4.821916],[7.03372,4.822085],[7.033456,4.822014],[7.033468,4.821967],[7.033396,4.821948],[7.033429,4.821826],[7.033765,4.821916]]]}},{"type":"Feature","properties":{"h":3.0,"on_route":false},"geometry":{"type":"Polygon","coordinates":[[[7.036655,4.820788],[7.036605,4.820974],[7.036365,4.820909],[7.036415,4.820723],[7.036655,4.820788]]]}},{"type":"Feature","properties":{"h":3.0,"on_route":false},"geometry":{"type":"Polygon","coordinates":[[[7.033915,4.819538],[7.0339,4.819561],[7.03385,4.819527],[7.033865,4.819504],[7.033915,4.819538]]]}},{"type":"Feature","properties":{"h":3.0,"on_route":false},"geometry":{"type":"Polygon","coordinates":[[[7.034933,4.818641],[7.034907,4.818623],[7.03495,4.818561],[7.034976,4.818578],[7.034933,4.818641]]]}},{"type":"Feature","properties":{"h":3.0,"on_route":false},"geometry":{"type":"Polygon","coordinates":[[[7.035025,4.815161],[7.034909,4.8151],[7.035075,4.814782],[7.03519,4.814842],[7.035025,4.815161]]]}},{"type":"Feature","properties":{"h":3.0,"on_route":false},"geometry":{"type":"Polygon","coordinates":[[[7.032518,4.816907],[7.032499,4.816938],[7.032414,4.816886],[7.032433,4.816855],[7.032518,4.816907]]]}},{"type":"Feature","properties":{"h":3.0,"on_route":true},"geometry":{"type":"Polygon","coordinates":[[[7.039206,4.82016],[7.039161,4.820277],[7.038556,4.820046],[7.038601,4.819929],[7.039206,4.82016]]]}},{"type":"Feature","properties":{"h":3.0,"on_route":false},"geometry":{"type":"Polygon","coordinates":[[[7.039794,4.817069],[7.040051,4.817165],[7.040033,4.817213],[7.039776,4.817117],[7.039794,4.817069]]]}},{"type":"Feature","properties":{"h":3.0,"on_route":false},"geometry":{"type":"Polygon","coordinates":[[[7.032591,4.81977],[7.032564,4.819757],[7.032599,4.819684],[7.032626,4.819697],[7.032591,4.81977]]]}},{"type":"Feature","properties":{"h":3.0,"on_route":false},"geometry":{"type":"Polygon","coordinates":[[[7.035387,4.819521],[7.035355,4.819637],[7.035312,4.819625],[7.035344,4.819509],[7.035387,4.819521]]]}},{"type":"Feature","properties":{"h":3.0,"on_route":false},"geometry":{"type":"Polygon","coordinates":[[[7.035153,4.820752],[7.035151,4.820778],[7.035073,4.820772],[7.035075,4.820746],[7.035153,4.820752]]]}},{"type":"Feature","properties":{"h":3.0,"on_route":false},"geometry":{"type":"Polygon","coordinates":[[[7.03941,4.8191],[7.039366,4.819216],[7.038939,4.819053],[7.038982,4.818937],[7.03941,4.8191]]]}},{"type":"Feature","properties":{"h":3.0,"on_route":true},"geometry":{"type":"Polygon","coordinates":[[[7.037017,4.819337],[7.037011,4.819359],[7.036961,4.819346],[7.036967,4.819323],[7.037017,4.819337]]]}},{"type":"Feature","properties":{"h":3.0,"on_route":false},"geometry":{"type":"Polygon","coordinates":[[[7.037071,4.814612],[7.037144,4.814664],[7.037123,4.814695],[7.037049,4.814642],[7.037071,4.814612]]]}},{"type":"Feature","properties":{"h":3.0,"on_route":false},"geometry":{"type":"Polygon","coordinates":[[[7.039072,4.819293],[7.039031,4.819399],[7.038877,4.819339],[7.038918,4.819233],[7.039072,4.819293]]]}},{"type":"Feature","properties":{"h":3.0,"on_route":false},"geometry":{"type":"Polygon","coordinates":[[[7.033463,4.821432],[7.033453,4.821473],[7.033415,4.821463],[7.033425,4.821422],[7.033463,4.821432]]]}},{"type":"Feature","properties":{"h":3.0,"on_route":false},"geometry":{"type":"Polygon","coordinates":[[[7.03943,4.821372],[7.039335,4.821734],[7.038511,4.821516],[7.038606,4.821154],[7.03943,4.821372]]]}},{"type":"Feature","properties":{"h":3.0,"on_route":false},"geometry":{"type":"Polygon","coordinates":[[[7.035534,4.81476],[7.035506,4.814816],[7.035466,4.814795],[7.035494,4.814739],[7.035534,4.81476]]]}},{"type":"Feature","properties":{"h":3.0,"on_route":false},"geometry":{"type":"Polygon","coordinates":[[[7.034245,4.814603],[7.034191,4.814688],[7.034159,4.814668],[7.034213,4.814583],[7.034245,4.814603]]]}},{"type":"Feature","properties":{"h":3.0,"on_route":false},"geometry":{"type":"Polygon","coordinates":[[[7.033052,4.815849],[7.033036,4.815882],[7.032983,4.815857],[7.032999,4.815824],[7.033052,4.815849]]]}},{"type":"Feature","properties":{"h":3.0,"on_route":false},"geometry":{"type":"Polygon","coordinates":[[[7.033778,4.821754],[7.033772,4.821776],[7.03369,4.821752],[7.033696,4.821731],[7.033778,4.821754]]]}},{"type":"Feature","properties":{"h":3.0,"on_route":false},"geometry":{"type":"Polygon","coordinates":[[[7.036007,4.814492],[7.035967,4.814554],[7.035909,4.814516],[7.035949,4.814454],[7.036007,4.814492]]]}},{"type":"Feature","properties":{"h":3.0,"on_route":false},"geometry":{"type":"Polygon","coordinates":[[[7.033202,4.815708],[7.03318,4.815757],[7.033112,4.815727],[7.033133,4.815678],[7.033202,4.815708]]]}},{"type":"Feature","properties":{"h":3.0,"on_route":false},"geometry":{"type":"Polygon","coordinates":[[[7.03816,4.81725],[7.038144,4.817283],[7.038112,4.817268],[7.038128,4.817234],[7.03816,4.81725]]]}},{"type":"Feature","properties":{"h":3.0,"on_route":false},"geometry":{"type":"Polygon","coordinates":[[[7.037461,4.816704],[7.037435,4.816695],[7.037462,4.816617],[7.037489,4.816626],[7.037461,4.816704]]]}},{"type":"Feature","properties":{"h":3.0,"on_route":false},"geometry":{"type":"Polygon","coordinates":[[[7.039067,4.815743],[7.03905,4.815787],[7.038949,4.815747],[7.038966,4.815703],[7.039067,4.815743]]]}},{"type":"Feature","properties":{"h":3.0,"on_route":false},"geometry":{"type":"Polygon","coordinates":[[[7.039453,4.816577],[7.039393,4.816555],[7.039453,4.816394],[7.039512,4.816416],[7.039453,4.816577]]]}},{"type":"Feature","properties":{"h":3.0,"on_route":false},"geometry":{"type":"Polygon","coordinates":[[[7.038959,4.817358],[7.038941,4.817418],[7.038896,4.817405],[7.038913,4.817345],[7.038959,4.817358]]]}},{"type":"Feature","properties":{"h":3.0,"on_route":false},"geometry":{"type":"Polygon","coordinates":[[[7.036854,4.81646],[7.036824,4.816501],[7.036742,4.816442],[7.036771,4.8164],[7.036854,4.81646]]]}},{"type":"Feature","properties":{"h":3.0,"on_route":false},"geometry":{"type":"Polygon","coordinates":[[[7.033836,4.815684],[7.033827,4.815708],[7.03378,4.81569],[7.03379,4.815667],[7.033836,4.815684]]]}},{"type":"Feature","properties":{"h":3.0,"on_route":false},"geometry":{"type":"Polygon","coordinates":[[[7.035276,4.820767],[7.035269,4.820799],[7.035164,4.820776],[7.035171,4.820744],[7.035276,4.820767]]]}},{"type":"Feature","properties":{"h":3.0,"on_route":false},"geometry":{"type":"Polygon","coordinates":[[[7.035063,4.815323],[7.035045,4.815368],[7.034973,4.815338],[7.034991,4.815294],[7.035063,4.815323]]]}},{"type":"Feature","properties":{"h":3.0,"on_route":false},"geometry":{"type":"Polygon","coordinates":[[[7.036098,4.817352],[7.036067,4.817398],[7.036019,4.817365],[7.03605,4.817319],[7.036098,4.817352]]]}},{"type":"Feature","properties":{"h":3.0,"on_route":false},"geometry":{"type":"Polygon","coordinates":[[[7.038164,4.814804],[7.038076,4.814916],[7.038031,4.81488],[7.038119,4.814768],[7.038164,4.814804]]]}},{"type":"Feature","properties":{"h":3.0,"on_route":false},"geometry":{"type":"Polygon","coordinates":[[[7.03368,4.821788],[7.033654,4.821864],[7.033531,4.821822],[7.033557,4.821745],[7.03368,4.821788]]]}},{"type":"Feature","properties":{"h":3.0,"on_route":false},"geometry":{"type":"Polygon","coordinates":[[[7.035913,4.819284],[7.035884,4.819391],[7.035836,4.819378],[7.035865,4.819271],[7.035913,4.819284]]]}},{"type":"Feature","properties":{"h":3.0,"on_route":false},"geometry":{"type":"Polygon","coordinates":[[[7.037185,4.816007],[7.037157,4.816059],[7.037015,4.815982],[7.037043,4.81593],[7.037185,4.816007]]]}},{"type":"Feature","properties":{"h":3.0,"on_route":false},"geometry":{"type":"Polygon","coordinates":[[[7.035993,4.814797],[7.035954,4.814854],[7.035813,4.814755],[7.035853,4.814699],[7.035993,4.814797]]]}},{"type":"Feature","properties":{"h":3.0,"on_route":false},"geometry":{"type":"Polygon","coordinates":[[[7.038645,4.820927],[7.038628,4.821018],[7.038577,4.821009],[7.038595,4.820918],[7.038645,4.820927]]]}},{"type":"Feature","properties":{"h":3.0,"on_route":false},"geometry":{"type":"Polygon","coordinates":[[[7.032868,4.82],[7.032844,4.820029],[7.032802,4.819994],[7.032825,4.819966],[7.032868,4.82]]]}},{"type":"Feature","properties":{"h":3.0,"on_route":false},"geometry":{"type":"Polygon","coordinates":[[[7.035314,4.820378],[7.035299,4.820443],[7.03526,4.820433],[7.035275,4.820368],[7.035314,4.820378]]]}},{"type":"Feature","properties":{"h":3.0,"on_route":false},"geometry":{"type":"Polygon","coordinates":[[[7.035481,4.819819],[7.035473,4.819853],[7.035406,4.819837],[7.035414,4.819802],[7.035481,4.819819]]]}},{"type":"Feature","properties":{"h":3.0,"on_route":false},"geometry":{"type":"Polygon","coordinates":[[[7.034869,4.814355],[7.034838,4.814414],[7.03474,4.814362],[7.034771,4.814303],[7.034869,4.814355]]]}},{"type":"Feature","properties":{"h":3.0,"on_route":false},"geometry":{"type":"Polygon","coordinates":[[[7.036133,4.817202],[7.035946,4.817475],[7.034781,4.81667],[7.034877,4.81653],[7.034826,4.816494],[7.034917,4.816361],[7.036133,4.817202]]]}},{"type":"Feature","properties":{"h":3.0,"on_route":false},"geometry":{"type":"Polygon","coordinates":[[[7.037807,4.816966],[7.0378,4.816988],[7.037693,4.816955],[7.0377,4.816932],[7.037807,4.816966]]]}},{"type":"Feature","properties":{"h":3.0,"on_route":false},"geometry":{"type":"Polygon","coordinates":[[[7.033492,4.821355],[7.033488,4.821383],[7.033454,4.821378],[7.033458,4.82135],[7.033492,4.821355]]]}},{"type":"Feature","properties":{"h":3.0,"on_route":false},"geometry":{"type":"Polygon","coordinates":[[[7.032785,4.820852],[7.032778,4.820901],[7.032734,4.820895],[7.03274,4.820846],[7.032785,4.820852]]]}},{"type":"Feature","properties":{"h":3.0,"on_route":false},"geometry":{"type":"Polygon","coordinates":[[[7.033064,4.820008],[7.033003,4.820088],[7.032813,4.819941],[7.032874,4.819861],[7.033064,4.820008]]]}}]}