{"type":"FeatureCollection","features":[{"type":"Feature","properties":{"h":3.0,"on_route":false},"geometry":{"type":"Polygon","coordinates":[[[6.947637,4.793596],[6.947626,4.793629],[6.947587,4.793616],[6.947597,4.793584],[6.947637,4.793596]]]}},{"type":"Feature","properties":{"h":3.0,"on_route":false},"geometry":{"type":"Polygon","coordinates":[[[6.945418,4.793116],[6.945397,4.793164],[6.945315,4.793129],[6.945335,4.79308],[6.945418,4.793116]]]}},{"type":"Feature","properties":{"h":3.0,"on_route":false},"geometry":{"type":"Polygon","coordinates":[[[6.944855,4.7962],[6.944813,4.796288],[6.944586,4.796179],[6.944628,4.796091],[6.944855,4.7962]]]}},{"type":"Feature","properties":{"h":3.0,"on_route":false},"geometry":{"type":"Polygon","coordinates":[[[6.944755,4.793503],[6.944728,4.793566],[6.944682,4.793546],[6.944709,4.793483],[6.944755,4.793503]]]}},{"type":"Feature","properties":{"h":3.0,"on_route":false},"geometry":{"type":"Polygon","coordinates":[[[6.945827,4.796907],[6.945801,4.796992],[6.945751,4.796976],[6.945776,4.796892],[6.945827,4.796907]]]}},{"type":"Feature","properties":{"h":3.0,"on_route":false},"geometry":{"type":"Polygon","coordinates":[[[6.946565,4.797043],[6.946501,4.797123],[6.94641,4.79705],[6.946473,4.79697],[6.946565,4.797043]]]}},{"type":"Feature","properties":{"h":3.0,"on_route":false},"geometry":{"type":"Polygon","coordinates":[[[6.943533,4.79436],[6.9435,4.794341],[6.943553,4.794246],[6.943587,4.794264],[6.943533,4.79436]]]}},{"type":"Feature","properties":{"h":3.0,"on_route":false},"geometry":{"type":"Polygon","coordinates":[[[6.948079,4.795673],[6.948052,4.795648],[6.948081,4.795616],[6.948108,4.795641],[6.948079,4.795673]]]}},{"type":"Feature","properties":{"h":3.0,"on_route":false},"geometry":{"type":"Polygon","coordinates":[[[6.943203,4.795351],[6.943165,4.795342],[6.943187,4.795256],[6.943224,4.795266],[6.943203,4.795351]]]}},{"type":"Feature","properties":{"h":3.0,"on_route":false},"geometry":{"type":"Polygon","coordinates":[[[6.948016,4.79622],[6.947916,4.796281],[6.947891,4.796239],[6.94799,4.796178],[6.948016,4.79622]]]}},{"type":"Feature","properties":{"h":3.0,"on_route":false},"geometry":{"type":"Polygon","coordinates":[[[6.945837,4.796443],[6.945815,4.796498],[6.945762,4.796475],[6.945784,4.796421],[6.945837,4.796443]]]}},{"type":"Feature","properties":{"h":3.0,"on_route":false},"geometry":{"type":"Polygon","coordinates":[[[6.946925,4.798201],[6.946841,4.79827],[6.946739,4.798143],[6.946823,4.798075],[6.946925,4.798201]]]}},{"type":"Feature","properties":{"h":3.0,"on_route":false},"geometry":{"type":"Polygon","coordinates":[[[6.943337,4.796565],[6.943312,4.796678],[6.943225,4.796658],[6.943251,4.796545],[6.943337,4.796565]]]}},{"type":"Feature","properties":{"h":3.0,"on_route":false},"geometry":{"type":"Polygon","coordinates":[[[6.948148,4.794767],[6.948114,4.794827],[6.94797,4.794745],[6.948003,4.794685],[6.948148,4.794767]]]}},{"type":"Feature","properties":{"h":3.0,"on_route":false},"geometry":{"type":"Polygon","coordinates":[[[6.945964,4.796521],[6.945943,4.796576],[6.945882,4.796552],[6.945903,4.796497],[6.945964,4.796521]]]}},{"type":"Feature","properties":{"h":3.0,"on_route":false},"geometry":{"type":"Polygon","coordinates":[[[6.94473,4.796498],[6.944673,4.796617],[6.94441,4.796491],[6.944467,4.796372],[6.94473,4.796498]]]}},{"type":"Feature","properties":{"h":3.0,"on_route":false},"geometry":{"type":"Polygon","coordinates":[[[6.944949,4.791511],[6.944932,4.791547],[6.94485,4.791507],[6.944868,4.791471],[6.944949,4.791511]]]}},{"type":"Feature","properties":{"h":3.0,"on_route":false},"geometry":{"type":"Polygon","coordinates":[[[6.947944,4.794908],[6.947925,4.794939],[6.947951,4.794955],[6.947897,4.795042],[6.94781,4.794988],[6.947883,4.79487],[6.947944,4.794908]]]}},{"type":"Feature","properties":{"h":3.0,"on_route":false},"geometry":{"type":"Polygon","coordinates":[[[6.945393,4.798995],[6.945354,4.799036],[6.945264,4.798951],[6.945304,4.79891],[6.945393,4.798995]]]}},{"type":"Feature","properties":{"h":3.0,"on_route":false},"geometry":{"type":"Polygon","coordinates":[[[6.944299,4.796996],[6.94427,4.797056],[6.94418,4.797013],[6.944209,4.796952],[6.944299,4.796996]]]}},{"type":"Feature","properties":{"h":3.0,"on_route":false},"geometry":{"type":"Polygon","coordinates":[[[6.94434,4.795785],[6.944364,4.795797],[6.944381,4.795761],[6.944451,4.795797],[6.94442,4.795859],[6.944327,4.795812],[6.94434,4.795785]]]}},{"type":"Feature","properties":{"h":3.0,"on_route":false},"geometry":{"type":"Polygon","coordinates":[[[6.943285,4.797944],[6.943287,4.797988],[6.943236,4.797991],[6.943234,4.797946],[6.943285,4.797944]]]}},{"type":"Feature","properties":{"h":3.0,"on_route":false},"geometry":{"type":"Polygon","coordinates":[[[6.944779,4.793667],[6.944723,4.793783],[6.944684,4.793764],[6.94474,4.793648],[6.944779,4.793667]]]}},{"type":"Feature","properties":{"h":3.0,"on_route":false},"geometry":{"type":"Polygon","coordinates":[[[6.945904,4.798508],[6.94588,4.79854],[6.945842,4.79851],[6.945866,4.798479],[6.945904,4.798508]]]}},{"type":"Feature","properties":{"h":3.0,"on_route":false},"geometry":{"type":"Polygon","coordinates":[[[6.943803,4.79642],[6.943796,4.796468],[6.943774,4.796465],[6.943781,4.796417],[6.943803,4.79642]]]}},{"type":"Feature","properties":{"h":3.0,"on_route":false},"geometry":{"type":"Polygon","coordinates":[[[6.947445,4.796604],[6.947339,4.796658],[6.947255,4.796494],[6.947361,4.79644],[6.947445,4.796604]]]}},{"type":"Feature","properties":{"h":3.0,"on_route":false},"geometry":{"type":"Polygon","coordinates":[[[6.946421,4.798649],[6.946328,4.798723],[6.946292,4.798678],[6.946307,4.798666],[6.946298,4.798654],[6.946375,4.798592],[6.946421,4.798649]]]}},{"type":"Feature","properties":{"h":3.0,"on_route":false},"geometry":{"type":"Polygon","coordinates":[[[6.946848,4.798503],[6.946795,4.798543],[6.946712,4.798432],[6.946765,4.798392],[6.946848,4.798503]]]}},{"type":"Feature","properties":{"h":3.0,"on_route":false},"geometry":{"type":"Polygon","coordinates":[[[6.945644,4.798885],[6.945584,4.79897],[6.94548,4.798897],[6.945539,4.798812],[6.945644,4.798885]]]}},{"type":"Feature","properties":{"h":3.0,"on_route":false},"geometry":{"type":"Polygon","coordinates":[[[6.947275,4.793676],[6.946961,4.79432],[6.946738,4.79421],[6.947052,4.793566],[6.947275,4.793676]]]}},{"type":"Feature","properties":{"h":3.0,"on_route":false},"geometry":{"type":"Polygon","coordinates":[[[6.9481,4.794844],[6.948067,4.794912],[6.947903,4.794831],[6.947936,4.794764],[6.9481,4.794844]]]}},{"type":"Feature","properties":{"h":3.0,"on_route":false},"geometry":{"type":"Polygon","coordinates":[[[6.948046,4.795357],[6.947962,4.795457],[6.947899,4.795404],[6.947983,4.795304],[6.948046,4.795357]]]}},{"type":"Feature","properties":{"h":3.0,"on_route":false},"geometry":{"type":"Polygon","coordinates":[[[6.944281,4.796568],[6.944251,4.796553],[6.944288,4.796477],[6.944318,4.796492],[6.944281,4.796568]]]}},{"type":"Feature","properties":{"h":3.0,"on_route":false},"geometry":{"type":"Polygon","coordinates":[[[6.947487,4.793587],[6.947477,4.793613],[6.947438,4.793599],[6.947448,4.793573],[6.947487,4.793587]]]}},{"type":"Feature","properties":{"h":3.0,"on_route":false},"geometry":{"type":"Polygon","coordinates":[[[6.948104,4.796347],[6.948001,4.796419],[6.947955,4.796352],[6.948058,4.79628],[6.948104,4.796347]]]}},{"type":"Feature","properties":{"h":3.0,"on_route":false},"geometry":{"type":"Polygon","coordinates":[[[6.946463,4.796945],[6.946406,4.797013],[6.946296,4.796922],[6.946353,4.796854],[6.946463,4.796945]]]}},{"type":"Feature","properties":{"h":3.0,"on_route":false},"geometry":{"type":"Polygon","coordinates":[[[6.947347,4.794228],[6.947317,4.794287],[6.947238,4.794246],[6.947268,4.794188],[6.947347,4.794228]]]}},{"type":"Feature","properties":{"h":3.0,"on_route":false},"geometry":{"type":"Polygon","coordinates":[[[6.944124,4.795952],[6.944094,4.796083],[6.94365,4.795979],[6.94368,4.795848],[6.944124,4.795952]]]}},{"type":"Feature","properties":{"h":3.0,"on_route":false},"geometry":{"type":"Polygon","coordinates":[[[6.946488,4.798291],[6.946414,4.798352],[6.946377,4.798307],[6.946451,4.798246],[6.946488,4.798291]]]}},{"type":"Feature","properties":{"h":3.0,"on_route":false},"geometry":{"type":"Polygon","coordinates":[[[6.946973,4.797079],[6.946904,4.797158],[6.946728,4.797003],[6.946797,4.796924],[6.946973,4.797079]]]}},{"type":"Feature","properties":{"h":3.0,"on_route":false},"geometry":{"type":"Polygon","coordinates":[[[6.946824,4.798],[6.946868,4.798059],[6.946884,4.798047],[6.946902,4.798072],[6.946865,4.7981],[6.946802,4.798017],[6.946824,4.798]]]}},{"type":"Feature","properties":{"h":3.0,"on_route":false},"geometry":{"type":"Polygon","coordinates":[[[6.945693,4.796454],[6.945684,4.796487],[6.945652,4.796479],[6.945661,4.796445],[6.945693,4.796454]]]}},{"type":"Feature","properties":{"h":3.0,"on_route":false},"geometry":{"type":"Polygon","coordinates":[[[6.947882,4.797059],[6.947761,4.797158],[6.947729,4.79712],[6.94785,4.79702],[6.947882,4.797059]]]}},{"type":"Feature","properties":{"h":3.0,"on_route":false},"geometry":{"type":"Polygon","coordinates":[[[6.947455,4.79332],[6.947429,4.793398],[6.94738,4.793381],[6.947407,4.793303],[6.947455,4.79332]]]}},{"type":"Feature","properties":{"h":3.0,"on_route":false},"geometry":{"type":"Polygon","coordinates":[[[6.943802,4.799036],[6.943801,4.799117],[6.94378,4.799116],[6.943782,4.799036],[6.943802,4.799036]]]}},{"type":"Feature","properties":{"h":3.0,"on_route":false},"geometry":{"type":"Polygon","coordinates":[[[6.944017,4.795643],[6.943972,4.795731],[6.94378,4.795634],[6.943825,4.795546],[6.944017,4.795643]]]}},{"type":"Feature","properties":{"h":3.0,"on_route":false},"geometry":{"type":"Polygon","coordinates":[[[6.943166,4.798115],[6.943158,4.798164],[6.943112,4.798157],[6.94312,4.798108],[6.943166,4.798115]]]}},{"type":"Feature","properties":{"h":3.0,"on_route":false},"geometry":{"type":"Polygon","coordinates":[[[6.945057,4.795596],[6.94504,4.795629],[6.944941,4.795578],[6.944958,4.795545],[6.945057,4.795596]]]}},{"type":"Feature","properties":{"h":3.0,"on_route":false},"geometry":{"type":"Polygon","coordinates":[[[6.947954,4.796417],[6.947908,4.796442],[6.947885,4.796399],[6.947931,4.796374],[6.947954,4.796417]]]}},{"type":"Feature","properties":{"h":3.0,"on_route":false},"geometry":{"type":"Polygon","coordinates":[[[6.943022,4.798248],[6.942907,4.79829],[6.942894,4.798254],[6.943009,4.798212],[6.943022,4.798248]]]}},{"type":"Feature","properties":{"h":3.0,"on_route":false},"geometry":{"type":"Polygon","coordinates":[[[6.942361,4.798343],[6.942261,4.798565],[6.94188,4.798394],[6.941979,4.798171],[6.942361,4.798343]]]}},{"type":"Feature","properties":{"h":3.0,"on_route":false},"geometry":{"type":"Polygon","coordinates":[[[6.946347,4.797698],[6.946335,4.797726],[6.946301,4.797711],[6.946312,4.797683],[6.946347,4.797698]]]}},{"type":"Feature","properties":{"h":3.0,"on_route":false},"geometry":{"type":"Polygon","coordinates":[[[6.944181,4.793851],[6.944204,4.793864],[6.944154,4.793952],[6.944132,4.793938],[6.943896,4.794351],[6.943761,4.794273],[6.944079,4.793716],[6.944214,4.793794],[6.944181,4.793851]]]}},{"type":"Feature","properties":{"h":3.0,"on_route":false},"geometry":{"type":"Polygon","coordinates":[[[6.947558,4.793552],[6.947548,4.793585],[6.947518,4.793575],[6.947528,4.793542],[6.947558,4.793552]]]}},{"type":"Feature","properties":{"h":3.0,"on_route":false},"geometry":{"type":"Polygon","coordinates":[[[6.947048,4.796529],[6.946989,4.796568],[6.946964,4.796531],[6.947023,4.796491],[6.947048,4.796529]]]}},{"type":"Feature","properties":{"h":3.0,"on_route":false},"geometry":{"type":"Polygon","coordinates":[[[6.947742,4.796427],[6.947726,4.796397],[6.947785,4.796365],[6.947801,4.796395],[6.947742,4.796427]]]}},{"type":"Feature","properties":{"h":3.0,"on_route":false},"geometry":{"type":"Polygon","coordinates":[[[6.947231,4.796319],[6.947243,4.796346],[6.947294,4.796323],[6.947335,4.796413],[6.947241,4.796457],[6.947187,4.79634],[6.947231,4.796319]]]}},{"type":"Feature","properties":{"h":3.0,"on_route":false},"geometry":{"type":"Polygon","coordinates":[[[6.943111,4.79852],[6.942915,4.798617],[6.942877,4.798539],[6.943073,4.798443],[6.943111,4.79852]]]}},{"type":"Feature","properties":{"h":3.0,"on_route":false},"geometry":{"type":"Polygon","coordinates":[[[6.94511,4.797654],[6.945079,4.797713],[6.945034,4.797689],[6.945065,4.79763],[6.94511,4.797654]]]}},{"type":"Feature","properties":{"h":3.0,"on_route":false},"geometry":{"type":"Polygon","coordinates":[[[6.944423,4.799],[6.944375,4.799042],[6.944339,4.799001],[6.944387,4.798959],[6.944423,4.799]]]}},{"type":"Feature","properties":{"h":3.0,"on_route":false},"geometry":{"type":"Polygon","coordinates":[[[6.947761,4.796321],[6.947671,4.79637],[6.947639,4.79631],[6.947612,4.796325],[6.947584,4.796273],[6.947611,4.796258],[6.947593,4.796226],[6.947683,4.796178],[6.947761,4.796321]]]}},{"type":"Feature","properties":{"h":3.0,"on_route":false},"geometry":{"type":"Polygon","coordinates":[[[6.943304,4.795974],[6.943296,4.796021],[6.943218,4.796008],[6.943226,4.795961],[6.943304,4.795974]]]}},{"type":"Feature","properties":{"h":3.0,"on_route":false},"geometry":{"type":"Polygon","coordinates":[[[6.947494,4.793551],[6.947487,4.793579],[6.947452,4.793571],[6.947459,4.793542],[6.947494,4.793551]]]}},{"type":"Feature","properties":{"h":3.0,"on_route":false},"geometry":{"type":"Polygon","coordinates":[[[6.941968,4.795811],[6.941905,4.795929],[6.941705,4.795822],[6.941769,4.795704],[6.941968,4.795811]]]}},{"type":"Feature","properties":{"h":3.0,"on_route":false},"geometry":{"type":"Polygon","coordinates":[[[6.943575,4.799279],[6.943518,4.799278],[6.943521,4.798943],[6.943579,4.798943],[6.943575,4.799279]]]}},{"type":"Feature","properties":{"h":3.0,"on_route":false},"geometry":{"type":"Polygon","coordinates":[[[6.946169,4.798132],[6.946114,4.798177],[6.946131,4.798198],[6.946073,4.798245],[6.945976,4.798126],[6.946089,4.798034],[6.946169,4.798132]]]}},{"type":"Feature","properties":{"h":3.0,"on_route":false},"geometry":{"type":"Polygon","coordinates":[[[6.946375,4.798591],[6.946298,4.798653],[6.946217,4.798552],[6.946294,4.79849],[6.946375,4.798591]]]}},{"type":"Feature","properties":{"h":3.0,"on_route":false},"geometry":{"type":"Polygon","coordinates":[[[6.941829,4.798525],[6.941802,4.798586],[6.94172,4.79855],[6.941746,4.798489],[6.941829,4.798525]]]}},{"type":"Feature","properties":{"h":3.0,"on_route":false},"geometry":{"type":"Polygon","coordinates":[[[6.945604,4.797873],[6.945553,4.797904],[6.945528,4.797861],[6.945578,4.797831],[6.945604,4.797873]]]}},{"type":"Feature","properties":{"h":3.0,"on_route":false},"geometry":{"type":"Polygon","coordinates":[[[6.944682,4.795753],[6.944587,4.795943],[6.94442,4.795859],[6.944515,4.795669],[6.944682,4.795753]]]}},{"type":"Feature","properties":{"h":3.0,"on_route":false},"geometry":{"type":"Polygon","coordinates":[[[6.945747,4.793889],[6.945687,4.794009],[6.945399,4.793865],[6.945458,4.793745],[6.945747,4.793889]]]}},{"type":"Feature","properties":{"h":3.0,"on_route":false},"geometry":{"type":"Polygon","coordinates":[[[6.94806,4.796578],[6.947999,4.796608],[6.947917,4.79644],[6.947978,4.79641],[6.94806,4.796578]]]}},{"type":"Feature","properties":{"h":3.0,"on_route":false},"geometry":{"type":"Polygon","coordinates":[[[6.943164,4.795563],[6.943272,4.795585],[6.943261,4.795637],[6.943153,4.795615],[6.943164,4.795563]]]}},{"type":"Feature","properties":{"h":3.0,"on_route":false},"geometry":{"type":"Polygon","coordinates":[[[6.946172,4.797254],[6.946085,4.797374],[6.946015,4.797323],[6.946102,4.797203],[6.946172,4.797254]]]}},{"type":"Feature","properties":{"h":3.0,"on_route":false},"geometry":{"type":"Polygon","coordinates":[[[6.943456,4.794149],[6.943358,4.794324],[6.942535,4.793858],[6.942633,4.793684],[6.943456,4.794149]]]}},{"type":"Feature","properties":{"h":3.0,"on_route":false},"geometry":{"type":"Polygon","coordinates":[[[6.946965,4.796865],[6.946908,4.796903],[6.946868,4.796844],[6.946926,4.796806],[6.946965,4.796865]]]}},{"type":"Feature","properties":{"h":3.0,"on_route":false},"geometry":{"type":"Polygon","coordinates":[[[6.945496,4.798647],[6.945432,4.79874],[6.945405,4.798721],[6.945367,4.798776],[6.945316,4.798741],[6.945417,4.798593],[6.945496,4.798647]]]}},{"type":"Feature","properties":{"h":3.0,"on_route":false},"geometry":{"type":"Polygon","coordinates":[[[6.944551,4.793889],[6.944521,4.793946],[6.944476,4.793923],[6.944506,4.793865],[6.944551,4.793889]]]}},{"type":"Feature","properties":{"h":3.0,"on_route":false},"geometry":{"type":"Polygon","coordinates":[[[6.943646,4.795799],[6.943637,4.795797],[6.943651,4.795728],[6.94366,4.79573],[6.943646,4.795799]]]}},{"type":"Feature","properties":{"h":3.0,"on_route":false},"geometry":{"type":"Polygon","coordinates":[[[6.940917,4.796554],[6.940814,4.796496],[6.940827,4.796473],[6.940842,4.796482],[6.940947,4.796297],[6.941034,4.796346],[6.940917,4.796554]]]}},{"type":"Feature","properties":{"h":3.0,"on_route":false},"geometry":{"type":"Polygon","coordinates":[[[6.943628,4.791617],[6.943612,4.79166],[6.943579,4.791648],[6.943595,4.791605],[6.943628,4.791617]]]}},{"type":"Feature","properties":{"h":3.0,"on_route":false},"geometry":{"type":"Polygon","coordinates":[[[6.943353,4.797899],[6.943351,4.797946],[6.943286,4.797943],[6.943288,4.797896],[6.943353,4.797899]]]}},{"type":"Feature","properties":{"h":3.0,"on_route":false},"geometry":{"type":"Polygon","coordinates":[[[6.947824,4.796167],[6.947749,4.796211],[6.947697,4.796124],[6.947751,4.796092],[6.947738,4.796071],[6.94776,4.796058],[6.947824,4.796167]]]}},{"type":"Feature","properties":{"h":3.0,"on_route":false},"geometry":{"type":"Polygon","coordinates":[[[6.943261,4.796469],[6.943213,4.796674],[6.942844,4.796588],[6.942891,4.796382],[6.943261,4.796469]]]}},{"type":"Feature","properties":{"h":3.0,"on_route":false},"geometry":{"type":"Polygon","coordinates":[[[6.943367,4.797445],[6.943347,4.797546],[6.943304,4.797538],[6.943324,4.797437],[6.943367,4.797445]]]}},{"type":"Feature","properties":{"h":3.0,"on_route":false},"geometry":{"type":"Polygon","coordinates":[[[6.947773,4.796837],[6.94769,4.796906],[6.94753,4.796712],[6.947612,4.796643],[6.947773,4.796837]]]}},{"type":"Feature","properties":{"h":3.0,"on_route":false},"geometry":{"type":"Polygon","coordinates":[[[6.94745,4.795369],[6.947358,4.795459],[6.947287,4.795386],[6.94738,4.795296],[6.94745,4.795369]]]}},{"type":"Feature","properties":{"h":3.0,"on_route":false},"geometry":{"type":"Polygon","coordinates":[[[6.944855,4.798349],[6.944871,4.798332],[6.94496,4.798416],[6.944861,4.79852],[6.944763,4.798426],[6.944845,4.79834],[6.944855,4.798349]]]}},{"type":"Feature","properties":{"h":3.0,"on_route":false},"geometry":{"type":"Polygon","coordinates":[[[6.94513,4.797617],[6.94511,4.797654],[6.945065,4.79763],[6.945085,4.797593],[6.94513,4.797617]]]}},{"type":"Feature","properties":{"h":3.0,"on_route":false},"geometry":{"type":"Polygon","coordinates":[[[6.947946,4.795505],[6.947878,4.795583],[6.947773,4.79549],[6.947841,4.795412],[6.947946,4.795505]]]}},{"type":"Feature","properties":{"h":3.0,"on_route":false},"geometry":{"type":"Polygon","coordinates":[[[6.942349,4.794444],[6.942333,4.794476],[6.9423,4.794459],[6.942315,4.794427],[6.942349,4.794444]]]}},{"type":"Feature","properties":{"h":3.0,"on_route":false},"geometry":{"type":"Polygon","coordinates":[[[6.944376,4.796211],[6.944338,4.796338],[6.944119,4.796273],[6.944157,4.796146],[6.944376,4.796211]]]}},{"type":"Feature","properties":{"h":3.0,"on_route":false},"geometry":{"type":"Polygon","coordinates":[[[6.947587,4.797149],[6.947391,4.797282],[6.947362,4.797239],[6.947336,4.797256],[6.947297,4.797198],[6.947465,4.797083],[6.947479,4.797103],[6.947532,4.797067],[6.947587,4.797149]]]}},{"type":"Feature","properties":{"h":3.0,"on_route":false},"geometry":{"type":"Polygon","coordinates":[[[6.942871,4.79808],[6.942866,4.798108],[6.942786,4.798095],[6.94279,4.798066],[6.942871,4.79808]]]}},{"type":"Feature","properties":{"h":3.0,"on_route":false},"geometry":{"type":"Polygon","coordinates":[[[6.947891,4.796239],[6.947853,4.796263],[6.947802,4.79618],[6.94784,4.796156],[6.947891,4.796239]]]}},{"type":"Feature","properties":{"h":3.0,"on_route":false},"geometry":{"type":"Polygon","coordinates":[[[6.948134,4.795742],[6.948007,4.795802],[6.947985,4.795756],[6.948113,4.795697],[6.948134,4.795742]]]}},{"type":"Feature","properties":{"h":3.0,"on_route":false},"geometry":{"type":"Polygon","coordinates":[[[6.943228,4.798496],[6.943179,4.798495],[6.94318,4.798367],[6.943229,4.798368],[6.943228,4.798496]]]}},{"type":"Feature","properties":{"h":3.0,"on_route":false},"geometry":{"type":"Polygon","coordinates":[[[6.944533,4.791678],[6.944488,4.79177],[6.944229,4.791644],[6.944273,4.791553],[6.944533,4.791678]]]}},{"type":"Feature","properties":{"h":3.0,"on_route":false},"geometry":{"type":"Polygon","coordinates":[[[6.947518,4.793575],[6.94751,4.793598],[6.94747,4.793586],[6.947477,4.793562],[6.947518,4.793575]]]}},{"type":"Feature","properties":{"h":3.0,"on_route":false},"geometry":{"type":"Polygon","coordinates":[[[6.942411,4.797946],[6.942407,4.797975],[6.942377,4.79797],[6.942382,4.797941],[6.942411,4.797946]]]}},{"type":"Feature","properties":{"h":3.0,"on_route":false},"geometry":{"type":"Polygon","coordinates":[[[6.945153,4.79283],[6.945129,4.792897],[6.945044,4.792867],[6.945067,4.7928],[6.945153,4.79283]]]}},{"type":"Feature","properties":{"h":3.0,"on_route":false},"geometry":{"type":"Polygon","coordinates":[[[6.944108,4.79702],[6.944063,4.796997],[6.944107,4.796909],[6.944152,4.796932],[6.944108,4.79702]]]}},{"type":"Feature","properties":{"h":3.0,"on_route":false},"geometry":{"type":"Polygon","coordinates":[[[6.945596,4.798377],[6.945502,4.79847],[6.945467,4.798434],[6.945561,4.798341],[6.945596,4.798377]]]}},{"type":"Feature","properties":{"h":3.0,"on_route":false},"geometry":{"type":"Polygon","coordinates":[[[6.94801,4.797133],[6.947963,4.797166],[6.947858,4.797013],[6.947906,4.79698],[6.94801,4.797133]]]}},{"type":"Feature","properties":{"h":3.0,"on_route":false},"geometry":{"type":"Polygon","coordinates":[[[6.946983,4.793526],[6.946583,4.794345],[6.946161,4.794138],[6.946561,4.793319],[6.946983,4.793526]]]}},{"type":"Feature","properties":{"h":3.0,"on_route":false},"geometry":{"type":"Polygon","coordinates":[[[6.944314,4.797389],[6.944235,4.797571],[6.944133,4.797527],[6.944213,4.797345],[6.944314,4.797389]]]}},{"type":"Feature","properties":{"h":3.0,"on_route":true},"geometry":{"type":"Polygon","coordinates":[[[6.944121,4.79508],[6.944109,4.795099],[6.944024,4.795045],[6.944036,4.795026],[6.944121,4.79508]]]}},{"type":"Feature","properties":{"h":3.0,"on_route":false},"geometry":{"type":"Polygon","coordinates":[[[6.946834,4.794742],[6.946808,4.794802],[6.946729,4.794768],[6.946755,4.794707],[6.946834,4.794742]]]}},{"type":"Feature","properties":{"h":3.0,"on_route":false},"geometry":{"type":"Polygon","coordinates":[[[6.946909,4.798402],[6.946835,4.798457],[6.946777,4.798379],[6.946851,4.798324],[6.946909,4.798402]]]}},{"type":"Feature","properties":{"h":3.0,"on_route":false},"geometry":{"type":"Polygon","coordinates":[[[6.943905,4.791682],[6.943872,4.791774],[6.943783,4.791742],[6.943817,4.79165],[6.943905,4.791682]]]}},{"type":"Feature","properties":{"h":3.0,"on_route":false},"geometry":{"type":"Polygon","coordinates":[[[6.946291,4.797341],[6.946259,4.797386],[6.946238,4.79737],[6.946218,4.797397],[6.94612,4.797325],[6.946172,4.797254],[6.946291,4.797341]]]}},{"type":"Feature","properties":{"h":3.0,"on_route":false},"geometry":{"type":"Polygon","coordinates":[[[6.944853,4.798318],[6.944786,4.798391],[6.944704,4.798314],[6.944771,4.798241],[6.944853,4.798318]]]}},{"type":"Feature","properties":{"h":3.0,"on_route":false},"geometry":{"type":"Polygon","coordinates":[[[6.944666,4.798736],[6.94462,4.798691],[6.944758,4.798545],[6.944703,4.798493],[6.94476,4.798433],[6.944862,4.79853],[6.944666,4.798736]]]}},{"type":"Feature","properties":{"h":3.0,"on_route":false},"geometry":{"type":"Polygon","coordinates":[[[6.948121,4.794618],[6.948083,4.794698],[6.94801,4.794663],[6.948047,4.794583],[6.948121,4.794618]]]}},{"type":"Feature","properties":{"h":3.0,"on_route":false},"geometry":{"type":"Polygon","coordinates":[[[6.946286,4.796234],[6.946266,4.796274],[6.946214,4.796247],[6.946234,4.796207],[6.946286,4.796234]]]}},{"type":"Feature","properties":{"h":3.0,"on_route":false},"geometry":{"type":"Polygon","coordinates":[[[6.942938,4.795803],[6.942928,4.795848],[6.942816,4.795821],[6.942826,4.795777],[6.942938,4.795803]]]}},{"type":"Feature","properties":{"h":3.0,"on_route":false},"geometry":{"type":"Polygon","coordinates":[[[6.947664,4.793641],[6.947654,4.793676],[6.947615,4.793664],[6.947626,4.793629],[6.947664,4.793641]]]}},{"type":"Feature","properties":{"h":3.0,"on_route":false},"geometry":{"type":"Polygon","coordinates":[[[6.942569,4.797107],[6.94256,4.797127],[6.942465,4.797084],[6.942474,4.797064],[6.942569,4.797107]]]}},{"type":"Feature","properties":{"h":3.0,"on_route":false},"geometry":{"type":"Polygon","coordinates":[[[6.947728,4.797501],[6.947676,4.797533],[6.947654,4.797496],[6.947706,4.797464],[6.947728,4.797501]]]}},{"type":"Feature","properties":{"h":3.0,"on_route":false},"geometry":{"type":"Polygon","coordinates":[[[6.945896,4.797069],[6.945831,4.797037],[6.945909,4.796878],[6.945974,4.79691],[6.945896,4.797069]]]}},{"type":"Feature","properties":{"h":3.0,"on_route":false},"geometry":{"type":"Polygon","coordinates":[[[6.942772,4.7983],[6.942754,4.798325],[6.942682,4.798273],[6.942699,4.798248],[6.942772,4.7983]]]}},{"type":"Feature","properties":{"h":3.0,"on_route":false},"geometry":{"type":"Polygon","coordinates":[[[6.943663,4.791605],[6.943645,4.791646],[6.943612,4.791631],[6.94363,4.79159],[6.943663,4.791605]]]}},{"type":"Feature","properties":{"h":3.0,"on_route":false},"geometry":{"type":"Polygon","coordinates":[[[6.944246,4.795934],[6.944224,4.796012],[6.944186,4.796001],[6.944207,4.795923],[6.944246,4.795934]]]}},{"type":"Feature","properties":{"h":3.0,"on_route":false},"geometry":{"type":"Polygon","coordinates":[[[6.947849,4.794761],[6.947781,4.79472],[6.947731,4.794803],[6.947698,4.794783],[6.947773,4.794661],[6.947873,4.794722],[6.947849,4.794761]]]}},{"type":"Feature","properties":{"h":3.0,"on_route":false},"geometry":{"type":"Polygon","coordinates":[[[6.943582,4.796067],[6.943549,4.79606],[6.943585,4.795883],[6.943618,4.79589],[6.943582,4.796067]]]}},{"type":"Feature","properties":{"h":3.0,"on_route":false},"geometry":{"type":"Polygon","coordinates":[[[6.94322,4.796182],[6.943213,4.796219],[6.942995,4.796178],[6.943001,4.796141],[6.94322,4.796182]]]}},{"type":"Feature","properties":{"h":3.0,"on_route":false},"geometry":{"type":"Polygon","coordinates":[[[6.942594,4.795408],[6.942543,4.795515],[6.942424,4.795458],[6.942475,4.795351],[6.942594,4.795408]]]}},{"type":"Feature","properties":{"h":3.0,"on_route":false},"geometry":{"type":"Polygon","coordinates":[[[6.943174,4.798246],[6.943125,4.798261],[6.943113,4.798224],[6.943163,4.798209],[6.943174,4.798246]]]}},{"type":"Feature","properties":{"h":3.0,"on_route":false},"geometry":{"type":"Polygon","coordinates":[[[6.945123,4.79274],[6.945099,4.792811],[6.945045,4.792792],[6.945069,4.792721],[6.945123,4.79274]]]}},{"type":"Feature","properties":{"h":3.0,"on_route":false},"geometry":{"type":"Polygon","coordinates":[[[6.9441,4.796123],[6.944072,4.796248],[6.943835,4.796194],[6.943863,4.796069],[6.9441,4.796123]]]}},{"type":"Feature","properties":{"h":3.0,"on_route":false},"geometry":{"type":"Polygon","coordinates":[[[6.943772,4.791911],[6.943705,4.792062],[6.943617,4.792023],[6.943685,4.791872],[6.943772,4.791911]]]}},{"type":"Feature","properties":{"h":3.0,"on_route":false},"geometry":{"type":"Polygon","coordinates":[[[6.947046,4.795603],[6.946959,4.795695],[6.946887,4.795627],[6.946974,4.795535],[6.947046,4.795603]]]}},{"type":"Feature","properties":{"h":3.0,"on_route":false},"geometry":{"type":"Polygon","coordinates":[[[6.947718,4.793165],[6.947682,4.793262],[6.947601,4.793232],[6.947637,4.793135],[6.947718,4.793165]]]}},{"type":"Feature","properties":{"h":3.0,"on_route":false},"geometry":{"type":"Polygon","coordinates":[[[6.943359,4.796473],[6.943337,4.796565],[6.943251,4.796545],[6.943272,4.796453],[6.943359,4.796473]]]}},{"type":"Feature","properties":{"h":3.0,"on_route":false},"geometry":{"type":"Polygon","coordinates":[[[6.944858,4.79877],[6.944795,4.798707],[6.944727,4.798775],[6.944679,4.798728],[6.944819,4.798586],[6.94493,4.798697],[6.944858,4.79877]]]}},{"type":"Feature","properties":{"h":3.0,"on_route":false},"geometry":{"type":"Polygon","coordinates":[[[6.948091,4.796041],[6.948015,4.796086],[6.948004,4.796068],[6.947977,4.796084],[6.947922,4.795991],[6.948025,4.79593],[6.948091,4.796041]]]}},{"type":"Feature","properties":{"h":3.0,"on_route":false},"geometry":{"type":"Polygon","coordinates":[[[6.947002,4.79692],[6.946945,4.796958],[6.946908,4.796903],[6.946965,4.796865],[6.947002,4.79692]]]}},{"type":"Feature","properties":{"h":3.0,"on_route":false},"geometry":{"type":"Polygon","coordinates":[[[6.944746,4.794329],[6.944584,4.794657],[6.944299,4.794515],[6.944461,4.794188],[6.944746,4.794329]]]}},{"type":"Feature","properties":{"h":3.0,"on_route":false},"geometry":{"type":"Polygon","coordinates":[[[6.944223,4.798983],[6.94416,4.798982],[6.944156,4.799132],[6.943839,4.799124],[6.943841,4.799036],[6.944101,4.799042],[6.944104,4.798935],[6.944169,4.798937],[6.944168,4.79896],[6.944223,4.798961],[6.944223,4.798983]]]}},{"type":"Feature","properties":{"h":3.0,"on_route":false},"geometry":{"type":"Polygon","coordinates":[[[6.945818,4.796818],[6.945809,4.796847],[6.945773,4.796835],[6.945782,4.796807],[6.945818,4.796818]]]}},{"type":"Feature","properties":{"h":3.0,"on_route":false},"geometry":{"type":"Polygon","coordinates":[[[6.947597,4.793644],[6.947587,4.793676],[6.947554,4.793666],[6.947564,4.793634],[6.947597,4.793644]]]}},{"type":"Feature","properties":{"h":3.0,"on_route":false},"geometry":{"type":"Polygon","coordinates":[[[6.943281,4.79768],[6.94328,4.797742],[6.943259,4.797742],[6.943261,4.79768],[6.943281,4.79768]]]}},{"type":"Feature","properties":{"h":3.0,"on_route":false},"geometry":{"type":"Polygon","coordinates":[[[6.943895,4.794348],[6.943771,4.794567],[6.943564,4.794449],[6.943688,4.79423],[6.943895,4.794348]]]}},{"type":"Feature","properties":{"h":3.0,"on_route":false},"geometry":{"type":"Polygon","coordinates":[[[6.943922,4.796434],[6.943894,4.796556],[6.943781,4.79653],[6.943809,4.796408],[6.943922,4.796434]]]}},{"type":"Feature","properties":{"h":3.0,"on_route":false},"geometry":{"type":"Polygon","coordinates":[[[6.947663,4.79693],[6.947646,4.796967],[6.947611,4.796951],[6.947628,4.796914],[6.947663,4.79693]]]}},{"type":"Feature","properties":{"h":3.0,"on_route":false},"geometry":{"type":"Polygon","coordinates":[[[6.942535,4.798799],[6.942375,4.798889],[6.942342,4.79883],[6.942501,4.798739],[6.942535,4.798799]]]}},{"type":"Feature","properties":{"h":3.0,"on_route":false},"geometry":{"type":"Polygon","coordinates":[[[6.943459,4.795933],[6.943428,4.795927],[6.943448,4.795822],[6.943479,4.795828],[6.943459,4.795933]]]}},{"type":"Feature","properties":{"h":3.0,"on_route":false},"geometry":{"type":"Polygon","coordinates":[[[6.944274,4.796026],[6.944244,4.796135],[6.944194,4.796121],[6.944224,4.796012],[6.944274,4.796026]]]}},{"type":"Feature","properties":{"h":3.0,"on_route":false},"geometry":{"type":"Polygon","coordinates":[[[6.943066,4.798157],[6.943079,4.798105],[6.943116,4.798114],[6.943103,4.798166],[6.943066,4.798157]]]}},{"type":"Feature","properties":{"h":3.0,"on_route":false},"geometry":{"type":"Polygon","coordinates":[[[6.941834,4.796827],[6.941726,4.797026],[6.942032,4.797193],[6.94185,4.79753],[6.941376,4.797272],[6.941553,4.796945],[6.941203,4.796754],[6.941316,4.796545],[6.941834,4.796827]]]}},{"type":"Feature","properties":{"h":3.0,"on_route":false},"geometry":{"type":"Polygon","coordinates":[[[6.946294,4.79849],[6.946232,4.798539],[6.946184,4.798479],[6.946246,4.79843],[6.946294,4.79849]]]}},{"type":"Feature","properties":{"h":3.0,"on_route":false},"geometry":{"type":"Polygon","coordinates":[[[6.942222,4.796568],[6.942201,4.796615],[6.94216,4.796596],[6.942181,4.796549],[6.942222,4.796568]]]}},{"type":"Feature","properties":{"h":3.0,"on_route":false},"geometry":{"type":"Polygon","coordinates":[[[6.948185,4.794649],[6.94817,4.794681],[6.948106,4.79465],[6.948121,4.794618],[6.948185,4.794649]]]}},{"type":"Feature","properties":{"h":3.0,"on_route":false},"geometry":{"type":"Polygon","coordinates":[[[6.944003,4.798694],[6.944028,4.798748],[6.944002,4.79876],[6.943977,4.798706],[6.944003,4.798694]]]}},{"type":"Feature","properties":{"h":3.0,"on_route":false},"geometry":{"type":"Polygon","coordinates":[[[6.94664,4.798523],[6.946615,4.798543],[6.946591,4.798511],[6.946617,4.798492],[6.94664,4.798523]]]}},{"type":"Feature","properties":{"h":3.0,"on_route":false},"geometry":{"type":"Polygon","coordinates":[[[6.94268,4.798332],[6.942659,4.798394],[6.942566,4.798362],[6.942586,4.798301],[6.94268,4.798332]]]}},{"type":"Feature","properties":{"h":3.0,"on_route":false},"geometry":{"type":"Polygon","coordinates":[[[6.946309,4.796258],[6.946286,4.796246],[6.946317,4.796182],[6.94634,4.796194],[6.946309,4.796258]]]}},{"type":"Feature","properties":{"h":3.0,"on_route":false},"geometry":{"type":"Polygon","coordinates":[[[6.945631,4.798374],[6.945759,4.798505],[6.945807,4.798457],[6.945845,4.798496],[6.945758,4.798583],[6.945591,4.798413],[6.945631,4.798374]]]}},{"type":"Feature","properties":{"h":3.0,"on_route":false},"geometry":{"type":"Polygon","coordinates":[[[6.946416,4.798113],[6.946335,4.798013],[6.946184,4.798137],[6.946103,4.798038],[6.946317,4.797863],[6.946479,4.798062],[6.946416,4.798113]]]}},{"type":"Feature","properties":{"h":3.0,"on_route":false},"geometry":{"type":"Polygon","coordinates":[[[6.947189,4.796416],[6.947141,4.796439],[6.947121,4.796399],[6.947169,4.796376],[6.947189,4.796416]]]}},{"type":"Feature","properties":{"h":3.0,"on_route":false},"geometry":{"type":"Polygon","coordinates":[[[6.946626,4.798546],[6.946554,4.798603],[6.94652,4.798559],[6.946592,4.798503],[6.946626,4.798546]]]}},{"type":"Feature","properties":{"h":3.0,"on_route":false},"geometry":{"type":"Polygon","coordinates":[[[6.946068,4.79865],[6.946025,4.79867],[6.946008,4.798633],[6.94605,4.798613],[6.946068,4.79865]]]}},{"type":"Feature","properties":{"h":3.0,"on_route":false},"geometry":{"type":"Polygon","coordinates":[[[6.948234,4.794571],[6.948224,4.794598],[6.948199,4.794589],[6.94821,4.794562],[6.948234,4.794571]]]}},{"type":"Feature","properties":{"h":3.0,"on_route":false},"geometry":{"type":"Polygon","coordinates":[[[6.947942,4.796676],[6.94783,4.796729],[6.947802,4.796668],[6.947913,4.796615],[6.947942,4.796676]]]}},{"type":"Feature","properties":{"h":3.0,"on_route":false},"geometry":{"type":"Polygon","coordinates":[[[6.946065,4.796639],[6.946042,4.796699],[6.945851,4.796623],[6.945875,4.796563],[6.946065,4.796639]]]}},{"type":"Feature","properties":{"h":3.0,"on_route":false},"geometry":{"type":"Polygon","coordinates":[[[6.944881,4.793247],[6.944846,4.793319],[6.944795,4.793294],[6.94483,4.793222],[6.944881,4.793247]]]}},{"type":"Feature","properties":{"h":3.0,"on_route":false},"geometry":{"type":"Polygon","coordinates":[[[6.946408,4.792475],[6.946397,4.792509],[6.946352,4.792494],[6.946364,4.79246],[6.946408,4.792475]]]}},{"type":"Feature","properties":{"h":3.0,"on_route":false},"geometry":{"type":"Polygon","coordinates":[[[6.940903,4.79629],[6.940887,4.796324],[6.940853,4.796308],[6.940869,4.796274],[6.940903,4.79629]]]}},{"type":"Feature","properties":{"h":3.0,"on_route":false},"geometry":{"type":"Polygon","coordinates":[[[6.946168,4.797073],[6.946137,4.797116],[6.946082,4.797076],[6.946113,4.797033],[6.946168,4.797073]]]}},{"type":"Feature","properties":{"h":3.0,"on_route":false},"geometry":{"type":"Polygon","coordinates":[[[6.946297,4.796361],[6.946289,4.796391],[6.946257,4.796382],[6.946265,4.796352],[6.946297,4.796361]]]}},{"type":"Feature","properties":{"h":3.0,"on_route":false},"geometry":{"type":"Polygon","coordinates":[[[6.944075,4.791558],[6.944056,4.7916],[6.943972,4.791561],[6.943991,4.79152],[6.944075,4.791558]]]}},{"type":"Feature","properties":{"h":3.0,"on_route":false},"geometry":{"type":"Polygon","coordinates":[[[6.944145,4.797039],[6.944108,4.79702],[6.944152,4.796932],[6.94419,4.796951],[6.944145,4.797039]]]}},{"type":"Feature","properties":{"h":3.0,"on_route":false},"geometry":{"type":"Polygon","coordinates":[[[6.94847,4.795635],[6.948348,4.795723],[6.948282,4.795631],[6.948404,4.795544],[6.94847,4.795635]]]}},{"type":"Feature","properties":{"h":3.0,"on_route":false},"geometry":{"type":"Polygon","coordinates":[[[6.944493,4.795959],[6.94442,4.796182],[6.944297,4.796142],[6.94437,4.795919],[6.944493,4.795959]]]}},{"type":"Feature","properties":{"h":3.0,"on_route":false},"geometry":{"type":"Polygon","coordinates":[[[6.945568,4.796311],[6.945545,4.796369],[6.945464,4.796336],[6.945487,4.796278],[6.945568,4.796311]]]}},{"type":"Feature","properties":{"h":3.0,"on_route":false},"geometry":{"type":"Polygon","coordinates":[[[6.946065,4.798342],[6.945929,4.798448],[6.945862,4.79836],[6.945998,4.798255],[6.946065,4.798342]]]}},{"type":"Feature","properties":{"h":3.0,"on_route":false},"geometry":{"type":"Polygon","coordinates":[[[6.943518,4.791561],[6.943507,4.791592],[6.943457,4.791574],[6.943468,4.791543],[6.943518,4.791561]]]}},{"type":"Feature","properties":{"h":3.0,"on_route":false},"geometry":{"type":"Polygon","coordinates":[[[6.946328,4.797637],[6.946299,4.797683],[6.946248,4.797651],[6.946276,4.797605],[6.946328,4.797637]]]}},{"type":"Feature","properties":{"h":3.0,"on_route":false},"geometry":{"type":"Polygon","coordinates":[[[6.945004,4.7979],[6.944991,4.797922],[6.944963,4.797905],[6.944975,4.797883],[6.945004,4.7979]]]}},{"type":"Feature","properties":{"h":3.0,"on_route":false},"geometry":{"type":"Polygon","coordinates":[[[6.943064,4.798273],[6.94306,4.798301],[6.943035,4.798298],[6.943039,4.79827],[6.943064,4.798273]]]}},{"type":"Feature","properties":{"h":3.0,"on_route":false},"geometry":{"type":"Polygon","coordinates":[[[6.945225,4.795198],[6.945006,4.79509],[6.945327,4.794433],[6.945546,4.794541],[6.945225,4.795198]]]}},{"type":"Feature","properties":{"h":3.0,"on_route":false},"geometry":{"type":"Polygon","coordinates":[[[6.943461,4.796095],[6.94344,4.796247],[6.943393,4.79624],[6.943414,4.796088],[6.943461,4.796095]]]}},{"type":"Feature","properties":{"h":3.0,"on_route":false},"geometry":{"type":"Polygon","coordinates":[[[6.94602,4.798715],[6.945985,4.798745],[6.945949,4.798702],[6.945985,4.798673],[6.94602,4.798715]]]}},{"type":"Feature","properties":{"h":3.0,"on_route":false},"geometry":{"type":"Polygon","coordinates":[[[6.943982,4.798708],[6.944005,4.798761],[6.943978,4.798772],[6.943956,4.798719],[6.943982,4.798708]]]}},{"type":"Feature","properties":{"h":3.0,"on_route":false},"geometry":{"type":"Polygon","coordinates":[[[6.943401,4.796072],[6.943376,4.796211],[6.942966,4.796135],[6.942992,4.795997],[6.943401,4.796072]]]}},{"type":"Feature","properties":{"h":3.0,"on_route":false},"geometry":{"type":"Polygon","coordinates":[[[6.948184,4.794697],[6.948158,4.794741],[6.94808,4.794696],[6.948105,4.794651],[6.948184,4.794697]]]}},{"type":"Feature","properties":{"h":3.0,"on_route":false},"geometry":{"type":"Polygon","coordinates":[[[6.943081,4.796213],[6.943056,4.796318],[6.943005,4.796305],[6.943031,4.7962],[6.943081,4.796213]]]}},{"type":"Feature","properties":{"h":3.0,"on_route":false},"geometry":{"type":"Polygon","coordinates":[[[6.944879,4.795569],[6.944888,4.795551],[6.944977,4.795596],[6.944963,4.795622],[6.944863,4.795571],[6.944868,4.795563],[6.944879,4.795569]]]}},{"type":"Feature","properties":{"h":3.0,"on_route":false},"geometry":{"type":"Polygon","coordinates":[[[6.946981,4.798016],[6.946922,4.798056],[6.946867,4.797973],[6.946926,4.797934],[6.946981,4.798016]]]}},{"type":"Feature","properties":{"h":3.0,"on_route":false},"geometry":{"type":"Polygon","coordinates":[[[6.945256,4.798817],[6.945135,4.798726],[6.945004,4.798901],[6.944924,4.798841],[6.945055,4.798666],[6.945038,4.798653],[6.945088,4.798586],[6.945306,4.79875],[6.945256,4.798817]]]}},{"type":"Feature","properties":{"h":3.0,"on_route":false},"geometry":{"type":"Polygon","coordinates":[[[6.946051,4.79759],[6.945982,4.797625],[6.945971,4.797603],[6.945916,4.79763],[6.94594,4.797678],[6.94589,4.797703],[6.945845,4.797613],[6.946018,4.797525],[6.946051,4.79759]]]}},{"type":"Feature","properties":{"h":3.0,"on_route":false},"geometry":{"type":"Polygon","coordinates":[[[6.943721,4.796561],[6.943713,4.796599],[6.943604,4.796576],[6.943612,4.796538],[6.943721,4.796561]]]}},{"type":"Feature","properties":{"h":3.0,"on_route":false},"geometry":{"type":"Polygon","coordinates":[[[6.948149,4.796137],[6.948043,4.796203],[6.947984,4.796106],[6.94809,4.796041],[6.948149,4.796137]]]}},{"type":"Feature","properties":{"h":3.0,"on_route":false},"geometry":{"type":"Polygon","coordinates":[[[6.944798,4.791039],[6.944768,4.791103],[6.944721,4.79108],[6.944751,4.791016],[6.944798,4.791039]]]}},{"type":"Feature","properties":{"h":3.0,"on_route":false},"geometry":{"type":"Polygon","coordinates":[[[6.947675,4.797217],[6.947637,4.797249],[6.947591,4.797195],[6.947629,4.797162],[6.947675,4.797217]]]}},{"type":"Feature","properties":{"h":3.0,"on_route":false},"geometry":{"type":"Polygon","coordinates":[[[6.94194,4.797564],[6.941875,4.797701],[6.941823,4.797675],[6.941888,4.797539],[6.94194,4.797564]]]}},{"type":"Feature","properties":{"h":3.0,"on_route":false},"geometry":{"type":"Polygon","coordinates":[[[6.944586,4.796781],[6.944448,4.797059],[6.944351,4.797011],[6.944489,4.796733],[6.944586,4.796781]]]}},{"type":"Feature","properties":{"h":3.0,"on_route":false},"geometry":{"type":"Polygon","coordinates":[[[6.947834,4.796784],[6.947768,4.79683],[6.947625,4.796624],[6.947691,4.796578],[6.947834,4.796784]]]}},{"type":"Feature","properties":{"h":3.0,"on_route":false},"geometry":{"type":"Polygon","coordinates":[[[6.94756,4.793356],[6.947533,4.793434],[6.947429,4.793398],[6.947455,4.79332],[6.94756,4.793356]]]}},{"type":"Feature","properties":{"h":3.0,"on_route":false},"geometry":{"type":"Polygon","coordinates":[[[6.946085,4.794093],[6.945877,4.793989],[6.946195,4.793349],[6.946404,4.793453],[6.946085,4.794093]]]}},{"type":"Feature","properties":{"h":3.0,"on_route":false},"geometry":{"type":"Polygon","coordinates":[[[6.942961,4.798084],[6.942953,4.798116],[6.942867,4.798093],[6.942876,4.798061],[6.942961,4.798084]]]}},{"type":"Feature","properties":{"h":3.0,"on_route":false},"geometry":{"type":"Polygon","coordinates":[[[6.94684,4.798603],[6.946784,4.798646],[6.946656,4.798474],[6.946712,4.798432],[6.94684,4.798603]]]}},{"type":"Feature","properties":{"h":3.0,"on_route":false},"geometry":{"type":"Polygon","coordinates":[[[6.948351,4.795343],[6.948329,4.79537],[6.948317,4.795369],[6.948319,4.795323],[6.948352,4.795325],[6.948351,4.795343]]]}},{"type":"Feature","properties":{"h":3.0,"on_route":false},"geometry":{"type":"Polygon","coordinates":[[[6.944331,4.796695],[6.944318,4.796731],[6.944287,4.79672],[6.9443,4.796683],[6.944331,4.796695]]]}},{"type":"Feature","properties":{"h":3.0,"on_route":false},"geometry":{"type":"Polygon","coordinates":[[[6.945435,4.79694],[6.945378,4.797028],[6.945301,4.796979],[6.945358,4.79689],[6.945435,4.79694]]]}},{"type":"Feature","properties":{"h":3.0,"on_route":false},"geometry":{"type":"Polygon","coordinates":[[[6.944581,4.793837],[6.944567,4.793869],[6.944521,4.793849],[6.944535,4.793817],[6.944581,4.793837]]]}},{"type":"Feature","properties":{"h":3.0,"on_route":false},"geometry":{"type":"Polygon","coordinates":[[[6.946648,4.798152],[6.946626,4.79817],[6.94664,4.798188],[6.946662,4.79817],[6.946685,4.798199],[6.946632,4.798242],[6.946575,4.798171],[6.946628,4.798128],[6.946648,4.798152]]]}},{"type":"Feature","properties":{"h":3.0,"on_route":false},"geometry":{"type":"Polygon","coordinates":[[[6.941429,4.79755],[6.941398,4.797585],[6.941351,4.797543],[6.941381,4.797508],[6.941429,4.79755]]]}},{"type":"Feature","properties":{"h":3.0,"on_route":false},"geometry":{"type":"Polygon","coordinates":[[[6.945262,4.792448],[6.945342,4.792486],[6.946056,4.792825],[6.945994,4.792956],[6.945806,4.792867],[6.945749,4.792987],[6.945197,4.792725],[6.945254,4.792604],[6.9452,4.792579],[6.945262,4.792448]]]}},{"type":"Feature","properties":{"h":3.0,"on_route":false},"geometry":{"type":"Polygon","coordinates":[[[6.948205,4.794894],[6.948134,4.79501],[6.948055,4.794962],[6.948127,4.794845],[6.948205,4.794894]]]}},{"type":"Feature","properties":{"h":3.0,"on_route":false},"geometry":{"type":"Polygon","coordinates":[[[6.946731,4.796824],[6.946669,4.796903],[6.94658,4.796834],[6.946641,4.796754],[6.946731,4.796824]]]}},{"type":"Feature","properties":{"h":3.0,"on_route":false},"geometry":{"type":"Polygon","coordinates":[[[6.946476,4.797479],[6.94635,4.797645],[6.94627,4.797583],[6.946396,4.797417],[6.946476,4.797479]]]}},{"type":"Feature","properties":{"h":3.0,"on_route":false},"geometry":{"type":"Polygon","coordinates":[[[6.944923,4.792147],[6.944854,4.792286],[6.9446,4.792159],[6.944668,4.79202],[6.944923,4.792147]]]}},{"type":"Feature","properties":{"h":3.0,"on_route":false},"geometry":{"type":"Polygon","coordinates":[[[6.941935,4.798536],[6.94188,4.798662],[6.941787,4.798621],[6.941842,4.798495],[6.941935,4.798536]]]}},{"type":"Feature","properties":{"h":3.0,"on_route":false},"geometry":{"type":"Polygon","coordinates":[[[6.947687,4.793569],[6.947675,4.793608],[6.947637,4.793596],[6.947649,4.793557],[6.947687,4.793569]]]}},{"type":"Feature","properties":{"h":3.0,"on_route":false},"geometry":{"type":"Polygon","coordinates":[[[6.944337,4.799114],[6.944168,4.799278],[6.944071,4.799178],[6.944104,4.799146],[6.944124,4.799167],[6.94426,4.799035],[6.944337,4.799114]]]}},{"type":"Feature","properties":{"h":3.0,"on_route":false},"geometry":{"type":"Polygon","coordinates":[[[6.945262,4.792448],[6.945218,4.792541],[6.945174,4.79252],[6.945218,4.792427],[6.945262,4.792448]]]}},{"type":"Feature","properties":{"h":3.0,"on_route":false},"geometry":{"type":"Polygon","coordinates":[[[6.946877,4.795151],[6.946867,4.795182],[6.946833,4.795172],[6.946842,4.795141],[6.946877,4.795151]]]}},{"type":"Feature","properties":{"h":3.0,"on_route":false},"geometry":{"type":"Polygon","coordinates":[[[6.945203,4.794577],[6.944961,4.795069],[6.944704,4.794942],[6.944946,4.79445],[6.945203,4.794577]]]}},{"type":"Feature","properties":{"h":3.0,"on_route":false},"geometry":{"type":"Polygon","coordinates":[[[6.942301,4.796477],[6.942322,4.796437],[6.942552,4.79656],[6.942448,4.796757],[6.942218,4.796633],[6.942266,4.796541],[6.942207,4.79651],[6.942242,4.796445],[6.942301,4.796477]]]}},{"type":"Feature","properties":{"h":3.0,"on_route":false},"geometry":{"type":"Polygon","coordinates":[[[6.944381,4.791227],[6.944358,4.791273],[6.944262,4.791223],[6.944285,4.791178],[6.944381,4.791227]]]}},{"type":"Feature","properties":{"h":3.0,"on_route":false},"geometry":{"type":"Polygon","coordinates":[[[6.943991,4.794633],[6.94398,4.794667],[6.943931,4.794651],[6.943942,4.794617],[6.943991,4.794633]]]}},{"type":"Feature","properties":{"h":3.0,"on_route":false},"geometry":{"type":"Polygon","coordinates":[[[6.943149,4.798597],[6.943105,4.798618],[6.943068,4.798542],[6.943111,4.79852],[6.943149,4.798597]]]}},{"type":"Feature","properties":{"h":3.0,"on_route":false},"geometry":{"type":"Polygon","coordinates":[[[6.947173,4.796158],[6.947105,4.796192],[6.947042,4.796062],[6.94711,4.796029],[6.947173,4.796158]]]}},{"type":"Feature","properties":{"h":3.0,"on_route":false},"geometry":{"type":"Polygon","coordinates":[[[6.942178,4.795272],[6.942158,4.79532],[6.94208,4.795286],[6.9421,4.795239],[6.942178,4.795272]]]}},{"type":"Feature","properties":{"h":3.0,"on_route":false},"geometry":{"type":"Polygon","coordinates":[[[6.946375,4.797223],[6.946317,4.797323],[6.94622,4.797266],[6.946278,4.797166],[6.946375,4.797223]]]}},{"type":"Feature","properties":{"h":3.0,"on_route":false},"geometry":{"type":"Polygon","coordinates":[[[6.943948,4.794423],[6.94394,4.794486],[6.943919,4.794484],[6.943915,4.794515],[6.943845,4.794506],[6.943856,4.794412],[6.943948,4.794423]]]}},{"type":"Feature","properties":{"h":3.0,"on_route":false},"geometry":{"type":"Polygon","coordinates":[[[6.948323,4.79577],[6.948238,4.795808],[6.948201,4.795724],[6.948286,4.795686],[6.948323,4.79577]]]}},{"type":"Feature","properties":{"h":3.0,"on_route":false},"geometry":{"type":"Polygon","coordinates":[[[6.946286,4.798736],[6.946218,4.798797],[6.946115,4.798681],[6.946183,4.79862],[6.946286,4.798736]]]}},{"type":"Feature","properties":{"h":3.0,"on_route":false},"geometry":{"type":"Polygon","coordinates":[[[6.947175,4.798042],[6.946967,4.798191],[6.946906,4.798105],[6.947051,4.798],[6.947039,4.797983],[6.947101,4.797938],[6.947175,4.798042]]]}},{"type":"Feature","properties":{"h":3.0,"on_route":false},"geometry":{"type":"Polygon","coordinates":[[[6.946201,4.797507],[6.946147,4.797568],[6.945952,4.797392],[6.946006,4.797331],[6.946201,4.797507]]]}},{"type":"Feature","properties":{"h":3.0,"on_route":false},"geometry":{"type":"Polygon","coordinates":[[[6.944268,4.796399],[6.944257,4.796441],[6.944211,4.796429],[6.944179,4.796421],[6.94419,4.796379],[6.944268,4.796399]]]}},{"type":"Feature","properties":{"h":3.0,"on_route":false},"geometry":{"type":"Polygon","coordinates":[[[6.947529,4.793543],[6.947516,4.793571],[6.947482,4.793555],[6.947495,4.793527],[6.947529,4.793543]]]}},{"type":"Feature","properties":{"h":3.0,"on_route":false},"geometry":{"type":"Polygon","coordinates":[[[6.946256,4.797144],[6.946234,4.797173],[6.94618,4.79713],[6.946203,4.797102],[6.946256,4.797144]]]}},{"type":"Feature","properties":{"h":3.0,"on_route":false},"geometry":{"type":"Polygon","coordinates":[[[6.944269,4.79577],[6.944225,4.795859],[6.944007,4.795749],[6.944052,4.79566],[6.944269,4.79577]]]}},{"type":"Feature","properties":{"h":3.0,"on_route":false},"geometry":{"type":"Polygon","coordinates":[[[6.943606,4.796537],[6.943587,4.79663],[6.943543,4.796621],[6.943563,4.796528],[6.943606,4.796537]]]}},{"type":"Feature","properties":{"h":3.0,"on_route":false},"geometry":{"type":"Polygon","coordinates":[[[6.947858,4.797701],[6.94778,4.797749],[6.947667,4.797564],[6.947744,4.797516],[6.947858,4.797701]]]}},{"type":"Feature","properties":{"h":3.0,"on_route":false},"geometry":{"type":"Polygon","coordinates":[[[6.947774,4.797034],[6.947756,4.797071],[6.947721,4.797055],[6.947738,4.797018],[6.947774,4.797034]]]}},{"type":"Feature","properties":{"h":3.0,"on_route":false},"geometry":{"type":"Polygon","coordinates":[[[6.94462,4.797787],[6.944646,4.797876],[6.94459,4.797892],[6.944564,4.797803],[6.94462,4.797787]]]}},{"type":"Feature","properties":{"h":3.0,"on_route":false},"geometry":{"type":"Polygon","coordinates":[[[6.947151,4.792882],[6.947063,4.793053],[6.946391,4.792705],[6.946479,4.792534],[6.947151,4.792882]]]}},{"type":"Feature","properties":{"h":3.0,"on_route":false},"geometry":{"type":"Polygon","coordinates":[[[6.943429,4.795947],[6.943402,4.795942],[6.943424,4.79583],[6.943451,4.795835],[6.943429,4.795947]]]}},{"type":"Feature","properties":{"h":3.0,"on_route":false},"geometry":{"type":"Polygon","coordinates":[[[6.943498,4.795701],[6.943476,4.795796],[6.943435,4.795787],[6.943456,4.795692],[6.943498,4.795701]]]}},{"type":"Feature","properties":{"h":3.0,"on_route":false},"geometry":{"type":"Polygon","coordinates":[[[6.947685,4.797337],[6.947659,4.797305],[6.947634,4.797325],[6.947616,4.797302],[6.94771,4.797227],[6.947754,4.797282],[6.947685,4.797337]]]}},{"type":"Feature","properties":{"h":3.0,"on_route":false},"geometry":{"type":"Polygon","coordinates":[[[6.944292,4.796774],[6.944206,4.79695],[6.944106,4.796901],[6.944192,4.796725],[6.944292,4.796774]]]}},{"type":"Feature","properties":{"h":3.0,"on_route":false},"geometry":{"type":"Polygon","coordinates":[[[6.947541,4.793608],[6.947531,4.793638],[6.947501,4.793629],[6.94751,4.793598],[6.947541,4.793608]]]}},{"type":"Feature","properties":{"h":3.0,"on_route":false},"geometry":{"type":"Polygon","coordinates":[[[6.947626,4.793629],[6.947615,4.793664],[6.947576,4.793651],[6.947587,4.793616],[6.947626,4.793629]]]}},{"type":"Feature","properties":{"h":3.0,"on_route":false},"geometry":{"type":"Polygon","coordinates":[[[6.94625,4.796383],[6.946241,4.796413],[6.94621,4.796404],[6.946219,4.796374],[6.94625,4.796383]]]}},{"type":"Feature","properties":{"h":3.0,"on_route":false},"geometry":{"type":"Polygon","coordinates":[[[6.944751,4.793632],[6.94473,4.793622],[6.944779,4.793518],[6.9448,4.793528],[6.944751,4.793632]]]}},{"type":"Feature","properties":{"h":3.0,"on_route":false},"geometry":{"type":"Polygon","coordinates":[[[6.945715,4.798323],[6.945598,4.798379],[6.945578,4.798336],[6.945695,4.798281],[6.945715,4.798323]]]}},{"type":"Feature","properties":{"h":3.0,"on_route":false},"geometry":{"type":"Polygon","coordinates":[[[6.944204,4.791545],[6.944164,4.791642],[6.944094,4.791612],[6.944134,4.791516],[6.944204,4.791545]]]}},{"type":"Feature","properties":{"h":3.0,"on_route":false},"geometry":{"type":"Polygon","coordinates":[[[6.943357,4.797673],[6.943359,4.797759],[6.943353,4.797899],[6.943299,4.797897],[6.943302,4.79785],[6.943291,4.79785],[6.943293,4.797804],[6.943304,4.797805],[6.943307,4.797735],[6.943279,4.797734],[6.943281,4.797669],[6.943357,4.797673]]]}},{"type":"Feature","properties":{"h":3.0,"on_route":false},"geometry":{"type":"Polygon","coordinates":[[[6.945877,4.798555],[6.945803,4.798628],[6.945758,4.798583],[6.945832,4.798509],[6.945877,4.798555]]]}},{"type":"Feature","properties":{"h":3.0,"on_route":false},"geometry":{"type":"Polygon","coordinates":[[[6.944719,4.798145],[6.944642,4.798209],[6.944511,4.798049],[6.944588,4.797985],[6.944719,4.798145]]]}},{"type":"Feature","properties":{"h":3.0,"on_route":false},"geometry":{"type":"Polygon","coordinates":[[[6.945133,4.796208],[6.945115,4.796246],[6.94502,4.796199],[6.945038,4.796162],[6.945133,4.796208]]]}},{"type":"Feature","properties":{"h":3.0,"on_route":false},"geometry":{"type":"Polygon","coordinates":[[[6.947913,4.795119],[6.947853,4.79519],[6.947765,4.795115],[6.947826,4.795044],[6.947913,4.795119]]]}},{"type":"Feature","properties":{"h":3.0,"on_route":false},"geometry":{"type":"Polygon","coordinates":[[[6.944107,4.796909],[6.944063,4.796997],[6.944026,4.796978],[6.94407,4.796891],[6.944107,4.796909]]]}},{"type":"Feature","properties":{"h":3.0,"on_route":false},"geometry":{"type":"Polygon","coordinates":[[[6.944599,4.793287],[6.944324,4.793779],[6.944162,4.793688],[6.944437,4.793196],[6.944599,4.793287]]]}},{"type":"Feature","properties":{"h":3.0,"on_route":false},"geometry":{"type":"Polygon","coordinates":[[[6.943922,4.793921],[6.943715,4.794287],[6.942854,4.793799],[6.942879,4.793755],[6.942789,4.793704],[6.94297,4.793382],[6.943922,4.793921]]]}},{"type":"Feature","properties":{"h":3.0,"on_route":false},"geometry":{"type":"Polygon","coordinates":[[[6.94483,4.793567],[6.944781,4.793542],[6.944847,4.79341],[6.944896,4.793435],[6.94483,4.793567]]]}},{"type":"Feature","properties":{"h":3.0,"on_route":false},"geometry":{"type":"Polygon","coordinates":[[[6.943352,4.796285],[6.943328,4.796404],[6.943102,4.796359],[6.943126,4.79624],[6.943352,4.796285]]]}},{"type":"Feature","properties":{"h":3.0,"on_route":false},"geometry":{"type":"Polygon","coordinates":[[[6.945984,4.79898],[6.945897,4.799051],[6.945815,4.798951],[6.945903,4.79888],[6.945984,4.79898]]]}},{"type":"Feature","properties":{"h":3.0,"on_route":false},"geometry":{"type":"Polygon","coordinates":[[[6.947403,4.793806],[6.947318,4.79398],[6.947163,4.793904],[6.947248,4.79373],[6.947403,4.793806]]]}},{"type":"Feature","properties":{"h":3.0,"on_route":false},"geometry":{"type":"Polygon","coordinates":[[[6.946141,4.796542],[6.946126,4.79658],[6.946077,4.796561],[6.946092,4.796523],[6.946141,4.796542]]]}},{"type":"Feature","properties":{"h":3.0,"on_route":false},"geometry":{"type":"Polygon","coordinates":[[[6.944616,4.793704],[6.944582,4.793782],[6.944556,4.79377],[6.94459,4.793693],[6.944616,4.793704]]]}},{"type":"Feature","properties":{"h":3.0,"on_route":false},"geometry":{"type":"Polygon","coordinates":[[[6.944986,4.798916],[6.94497,4.798931],[6.945078,4.799046],[6.945019,4.799102],[6.944846,4.798918],[6.944921,4.798848],[6.944986,4.798916]]]}},{"type":"Feature","properties":{"h":3.0,"on_route":false},"geometry":{"type":"Polygon","coordinates":[[[6.944374,4.797028],[6.94437,4.797054],[6.944345,4.79705],[6.944349,4.797024],[6.944374,4.797028]]]}},{"type":"Feature","properties":{"h":3.0,"on_route":false},"geometry":{"type":"Polygon","coordinates":[[[6.944632,4.797668],[6.944592,4.797762],[6.944414,4.797684],[6.944455,4.797591],[6.944632,4.797668]]]}},{"type":"Feature","properties":{"h":3.0,"on_route":false},"geometry":{"type":"Polygon","coordinates":[[[6.947857,4.797427],[6.947775,4.797479],[6.947746,4.797433],[6.947828,4.797381],[6.947857,4.797427]]]}},{"type":"Feature","properties":{"h":3.0,"on_route":false},"geometry":{"type":"Polygon","coordinates":[[[6.945392,4.797999],[6.945286,4.79809],[6.945222,4.798016],[6.945328,4.797925],[6.945392,4.797999]]]}},{"type":"Feature","properties":{"h":3.0,"on_route":false},"geometry":{"type":"Polygon","coordinates":[[[6.94375,4.796299],[6.943707,4.79651],[6.943516,4.796471],[6.943527,4.796416],[6.943579,4.796427],[6.943611,4.79627],[6.94375,4.796299]]]}},{"type":"Feature","properties":{"h":3.0,"on_route":false},"geometry":{"type":"Polygon","coordinates":[[[6.948017,4.796162],[6.947906,4.79623],[6.947798,4.796053],[6.947909,4.795985],[6.948017,4.796162]]]}},{"type":"Feature","properties":{"h":3.0,"on_route":false},"geometry":{"type":"Polygon","coordinates":[[[6.947437,4.793503],[6.947413,4.793552],[6.947322,4.793505],[6.947346,4.793457],[6.947437,4.793503]]]}},{"type":"Feature","properties":{"h":3.0,"on_route":false},"geometry":{"type":"Polygon","coordinates":[[[6.947492,4.79787],[6.947412,4.797921],[6.947279,4.797715],[6.947358,4.797663],[6.947492,4.79787]]]}},{"type":"Feature","properties":{"h":3.0,"on_route":false},"geometry":{"type":"Polygon","coordinates":[[[6.948218,4.795367],[6.948051,4.795567],[6.947961,4.795491],[6.948129,4.795291],[6.948218,4.795367]]]}},{"type":"Feature","properties":{"h":3.0,"on_route":false},"geometry":{"type":"Polygon","coordinates":[[[6.946472,4.792989],[6.946388,4.793165],[6.946136,4.793043],[6.946221,4.792867],[6.946472,4.792989]]]}},{"type":"Feature","properties":{"h":3.0,"on_route":false},"geometry":{"type":"Polygon","coordinates":[[[6.947412,4.793545],[6.947384,4.793603],[6.947294,4.793558],[6.947322,4.793501],[6.947412,4.793545]]]}},{"type":"Feature","properties":{"h":3.0,"on_route":false},"geometry":{"type":"Polygon","coordinates":[[[6.942508,4.793625],[6.942493,4.793656],[6.942436,4.793627],[6.942452,4.793596],[6.942508,4.793625]]]}},{"type":"Feature","properties":{"h":3.0,"on_route":false},"geometry":{"type":"Polygon","coordinates":[[[6.943271,4.798133],[6.943263,4.798181],[6.943158,4.798164],[6.943166,4.798115],[6.943271,4.798133]]]}},{"type":"Feature","properties":{"h":3.0,"on_route":false},"geometry":{"type":"Polygon","coordinates":[[[6.945468,4.798139],[6.945412,4.798171],[6.94539,4.798132],[6.945446,4.7981],[6.945468,4.798139]]]}},{"type":"Feature","properties":{"h":3.0,"on_route":false},"geometry":{"type":"Polygon","coordinates":[[[6.947671,4.795373],[6.947577,4.795461],[6.947522,4.795401],[6.947553,4.795372],[6.947531,4.795348],[6.947594,4.79529],[6.947671,4.795373]]]}},{"type":"Feature","properties":{"h":3.0,"on_route":false},"geometry":{"type":"Polygon","coordinates":[[[6.941318,4.796545],[6.941209,4.796747],[6.940964,4.796613],[6.941074,4.796412],[6.941318,4.796545]]]}},{"type":"Feature","properties":{"h":3.0,"on_route":false},"geometry":{"type":"Polygon","coordinates":[[[6.945113,4.797754],[6.9451,4.797784],[6.945066,4.79777],[6.945079,4.797739],[6.945113,4.797754]]]}},{"type":"Feature","properties":{"h":3.0,"on_route":false},"geometry":{"type":"Polygon","coordinates":[[[6.943705,4.791736],[6.943504,4.792258],[6.943198,4.792139],[6.94328,4.791925],[6.943258,4.791917],[6.943286,4.791845],[6.943308,4.791853],[6.943398,4.791617],[6.943705,4.791736]]]}},{"type":"Feature","properties":{"h":3.0,"on_route":false},"geometry":{"type":"Polygon","coordinates":[[[6.948512,4.796146],[6.948364,4.796226],[6.948313,4.796132],[6.948462,4.796051],[6.948512,4.796146]]]}},{"type":"Feature","properties":{"h":3.0,"on_route":false},"geometry":{"type":"Polygon","coordinates":[[[6.9439,4.795443],[6.943877,4.795499],[6.943834,4.795481],[6.943857,4.795425],[6.9439,4.795443]]]}},{"type":"Feature","properties":{"h":3.0,"on_route":false},"geometry":{"type":"Polygon","coordinates":[[[6.945784,4.796421],[6.945762,4.796475],[6.945662,4.796434],[6.945685,4.79638],[6.945784,4.796421]]]}},{"type":"Feature","properties":{"h":3.0,"on_route":false},"geometry":{"type":"Polygon","coordinates":[[[6.946662,4.796933],[6.946575,4.797043],[6.946476,4.796964],[6.946564,4.796854],[6.946662,4.796933]]]}},{"type":"Feature","properties":{"h":3.0,"on_route":false},"geometry":{"type":"Polygon","coordinates":[[[6.945069,4.799127],[6.945027,4.799094],[6.945177,4.798899],[6.945219,4.798932],[6.945069,4.799127]]]}},{"type":"Feature","properties":{"h":3.0,"on_route":false},"geometry":{"type":"Polygon","coordinates":[[[6.947515,4.796221],[6.947334,4.796339],[6.947281,4.796258],[6.947462,4.79614],[6.947515,4.796221]]]}},{"type":"Feature","properties":{"h":3.0,"on_route":false},"geometry":{"type":"Polygon","coordinates":[[[6.948321,4.795535],[6.94827,4.795591],[6.94819,4.795518],[6.94824,4.795462],[6.948321,4.795535]]]}},{"type":"Feature","properties":{"h":3.0,"on_route":false},"geometry":{"type":"Polygon","coordinates":[[[6.947757,4.797705],[6.947663,4.797762],[6.947574,4.797614],[6.947667,4.797557],[6.947757,4.797705]]]}},{"type":"Feature","properties":{"h":3.0,"on_route":false},"geometry":{"type":"Polygon","coordinates":[[[6.941955,4.795509],[6.941936,4.795557],[6.941891,4.795539],[6.94191,4.795491],[6.941955,4.795509]]]}},{"type":"Feature","properties":{"h":3.0,"on_route":false},"geometry":{"type":"Polygon","coordinates":[[[6.943645,4.796126],[6.943618,4.796123],[6.943602,4.796268],[6.943524,4.796259],[6.943536,4.79614],[6.943579,4.796145],[6.943593,4.796013],[6.943656,4.79602],[6.943645,4.796126]]]}},{"type":"Feature","properties":{"h":3.0,"on_route":false},"geometry":{"type":"Polygon","coordinates":[[[6.942979,4.79411],[6.94295,4.794162],[6.942819,4.794088],[6.942848,4.794036],[6.942979,4.79411]]]}},{"type":"Feature","properties":{"h":3.0,"on_route":false},"geometry":{"type":"Polygon","coordinates":[[[6.942895,4.797022],[6.942888,4.797075],[6.942787,4.79706],[6.942794,4.797008],[6.942895,4.797022]]]}},{"type":"Feature","properties":{"h":3.0,"on_route":false},"geometry":{"type":"Polygon","coordinates":[[[6.944616,4.793704],[6.94459,4.793693],[6.944636,4.793587],[6.944662,4.793598],[6.944616,4.793704]]]}},{"type":"Feature","properties":{"h":3.0,"on_route":false},"geometry":{"type":"Polygon","coordinates":[[[6.943783,4.796422],[6.943772,4.79647],[6.943746,4.796464],[6.943757,4.796416],[6.943783,4.796422]]]}},{"type":"Feature","properties":{"h":3.0,"on_route":false},"geometry":{"type":"Polygon","coordinates":[[[6.943992,4.797185],[6.943931,4.7974],[6.943803,4.797363],[6.943864,4.797149],[6.943992,4.797185]]]}},{"type":"Feature","properties":{"h":3.0,"on_route":false},"geometry":{"type":"Polygon","coordinates":[[[6.94623,4.79637],[6.946214,4.796402],[6.946137,4.796364],[6.946153,4.796332],[6.94623,4.79637]]]}},{"type":"Feature","properties":{"h":3.0,"on_route":false},"geometry":{"type":"Polygon","coordinates":[[[6.945157,4.797734],[6.945146,4.797762],[6.945112,4.797749],[6.945123,4.79772],[6.945157,4.797734]]]}},{"type":"Feature","properties":{"h":3.0,"on_route":false},"geometry":{"type":"Polygon","coordinates":[[[6.94397,4.795789],[6.943925,4.795883],[6.943706,4.795778],[6.943751,4.795684],[6.94397,4.795789]]]}},{"type":"Feature","properties":{"h":3.0,"on_route":false},"geometry":{"type":"Polygon","coordinates":[[[6.945903,4.79888],[6.945815,4.798951],[6.945767,4.798892],[6.945855,4.79882],[6.945903,4.79888]]]}},{"type":"Feature","properties":{"h":3.0,"on_route":false},"geometry":{"type":"Polygon","coordinates":[[[6.943194,4.798469],[6.943107,4.798512],[6.943073,4.798443],[6.94316,4.7984],[6.943194,4.798469]]]}},{"type":"Feature","properties":{"h":3.0,"on_route":false},"geometry":{"type":"Polygon","coordinates":[[[6.942227,4.795548],[6.942187,4.795531],[6.942232,4.795429],[6.942272,4.795447],[6.942227,4.795548]]]}},{"type":"Feature","properties":{"h":3.0,"on_route":false},"geometry":{"type":"Polygon","coordinates":[[[6.945425,4.799105],[6.945352,4.799182],[6.945191,4.799028],[6.945264,4.798951],[6.945425,4.799105]]]}},{"type":"Feature","properties":{"h":3.0,"on_route":false},"geometry":{"type":"Polygon","coordinates":[[[6.945613,4.79871],[6.945565,4.798781],[6.945494,4.798732],[6.945543,4.798661],[6.945613,4.79871]]]}},{"type":"Feature","properties":{"h":3.0,"on_route":false},"geometry":{"type":"Polygon","coordinates":[[[6.947257,4.797983],[6.947175,4.798042],[6.947077,4.797906],[6.947159,4.797847],[6.947257,4.797983]]]}},{"type":"Feature","properties":{"h":3.0,"on_route":false},"geometry":{"type":"Polygon","coordinates":[[[6.947481,4.797397],[6.947425,4.79743],[6.947365,4.797324],[6.947422,4.797292],[6.947481,4.797397]]]}},{"type":"Feature","properties":{"h":3.0,"on_route":false},"geometry":{"type":"Polygon","coordinates":[[[6.942682,4.798067],[6.942673,4.79813],[6.942602,4.79812],[6.942611,4.798057],[6.942682,4.798067]]]}},{"type":"Feature","properties":{"h":3.0,"on_route":false},"geometry":{"type":"Polygon","coordinates":[[[6.946914,4.795133],[6.946904,4.795167],[6.946872,4.795158],[6.946882,4.795124],[6.946914,4.795133]]]}},{"type":"Feature","properties":{"h":3.0,"on_route":false},"geometry":{"type":"Polygon","coordinates":[[[6.946311,4.796297],[6.946281,4.796355],[6.946184,4.796305],[6.946214,4.796247],[6.946311,4.796297]]]}},{"type":"Feature","properties":{"h":3.0,"on_route":false},"geometry":{"type":"Polygon","coordinates":[[[6.945883,4.796481],[6.945867,4.796519],[6.945815,4.796498],[6.945831,4.796459],[6.945883,4.796481]]]}},{"type":"Feature","properties":{"h":3.0,"on_route":false},"geometry":{"type":"Polygon","coordinates":[[[6.947867,4.795363],[6.947785,4.795291],[6.947933,4.795123],[6.948015,4.795195],[6.947867,4.795363]]]}},{"type":"Feature","properties":{"h":3.0,"on_route":false},"geometry":{"type":"Polygon","coordinates":[[[6.945026,4.795176],[6.944983,4.795264],[6.944882,4.795214],[6.944924,4.795127],[6.945026,4.795176]]]}},{"type":"Feature","properties":{"h":3.0,"on_route":false},"geometry":{"type":"Polygon","coordinates":[[[6.9454,4.797841],[6.945269,4.797946],[6.945206,4.797867],[6.945337,4.797761],[6.9454,4.797841]]]}},{"type":"Feature","properties":{"h":3.0,"on_route":false},"geometry":{"type":"Polygon","coordinates":[[[6.944765,4.798401],[6.944745,4.798426],[6.944712,4.798398],[6.944552,4.798597],[6.944499,4.798554],[6.944679,4.798332],[6.944765,4.798401]]]}},{"type":"Feature","properties":{"h":3.0,"on_route":false},"geometry":{"type":"Polygon","coordinates":[[[6.945678,4.798096],[6.945616,4.798124],[6.94558,4.798044],[6.945642,4.798016],[6.945678,4.798096]]]}},{"type":"Feature","properties":{"h":3.0,"on_route":false},"geometry":{"type":"Polygon","coordinates":[[[6.94618,4.798523],[6.946155,4.79855],[6.946122,4.798518],[6.946146,4.798492],[6.94618,4.798523]]]}},{"type":"Feature","properties":{"h":3.0,"on_route":false},"geometry":{"type":"Polygon","coordinates":[[[6.944668,4.794076],[6.944583,4.794248],[6.944461,4.794188],[6.944546,4.794015],[6.944668,4.794076]]]}},{"type":"Feature","properties":{"h":3.0,"on_route":false},"geometry":{"type":"Polygon","coordinates":[[[6.944812,4.793012],[6.944796,4.79305],[6.944755,4.793033],[6.944771,4.792995],[6.944812,4.793012]]]}},{"type":"Feature","properties":{"h":3.0,"on_route":false},"geometry":{"type":"Polygon","coordinates":[[[6.94438,4.795839],[6.944333,4.795934],[6.944235,4.795885],[6.944283,4.79579],[6.94438,4.795839]]]}},{"type":"Feature","properties":{"h":3.0,"on_route":false},"geometry":{"type":"Polygon","coordinates":[[[6.94665,4.79849],[6.94666,4.798534],[6.946632,4.79854],[6.946622,4.798496],[6.94665,4.79849]]]}},{"type":"Feature","properties":{"h":3.0,"on_route":false},"geometry":{"type":"Polygon","coordinates":[[[6.942476,4.795534],[6.942431,4.795631],[6.942297,4.79557],[6.942342,4.795472],[6.942476,4.795534]]]}},{"type":"Feature","properties":{"h":3.0,"on_route":false},"geometry":{"type":"Polygon","coordinates":[[[6.94391,4.791452],[6.943755,4.791392],[6.943933,4.790938],[6.944087,4.790999],[6.94391,4.791452]]]}},{"type":"Feature","properties":{"h":3.0,"on_route":false},"geometry":{"type":"Polygon","coordinates":[[[6.945069,4.797525],[6.944985,4.797689],[6.944581,4.79748],[6.944665,4.797316],[6.945069,4.797525]]]}},{"type":"Feature","properties":{"h":3.0,"on_route":false},"geometry":{"type":"Polygon","coordinates":[[[6.94511,4.798285],[6.944985,4.798389],[6.944964,4.798364],[6.94495,4.798376],[6.944838,4.798241],[6.94493,4.798164],[6.944903,4.798131],[6.94495,4.798092],[6.94511,4.798285]]]}},{"type":"Feature","properties":{"h":3.0,"on_route":false},"geometry":{"type":"Polygon","coordinates":[[[6.945081,4.792421],[6.944935,4.792735],[6.944972,4.792752],[6.944933,4.792834],[6.944859,4.792799],[6.944881,4.792751],[6.944804,4.792715],[6.944837,4.792644],[6.944761,4.792608],[6.944728,4.792679],[6.944506,4.792575],[6.944539,4.792504],[6.944464,4.792469],[6.944431,4.79254],[6.944212,4.792437],[6.944251,4.792353],[6.944176,4.792318],[6.944137,4.792402],[6.943922,4.792301],[6.943961,4.792217],[6.943702,4.792096],[6.943824,4.791832],[6.945081,4.792421]]]}},{"type":"Feature","properties":{"h":3.0,"on_route":false},"geometry":{"type":"Polygon","coordinates":[[[6.944524,4.798118],[6.944609,4.798221],[6.94457,4.798253],[6.944485,4.798151],[6.944524,4.798118]]]}},{"type":"Feature","properties":{"h":3.0,"on_route":false},"geometry":{"type":"Polygon","coordinates":[[[6.944768,4.791103],[6.944736,4.791168],[6.944575,4.791091],[6.944606,4.791026],[6.944768,4.791103]]]}},{"type":"Feature","properties":{"h":3.0,"on_route":false},"geometry":{"type":"Polygon","coordinates":[[[6.943646,4.795799],[6.943627,4.795892],[6.943585,4.795883],[6.943604,4.79579],[6.943646,4.795799]]]}},{"type":"Feature","properties":{"h":3.0,"on_route":false},"geometry":{"type":"Polygon","coordinates":[[[6.943805,4.796065],[6.943754,4.796311],[6.943613,4.796282],[6.943663,4.796036],[6.943805,4.796065]]]}},{"type":"Feature","properties":{"h":3.0,"on_route":false},"geometry":{"type":"Polygon","coordinates":[[[6.945828,4.799001],[6.945777,4.799046],[6.945699,4.798957],[6.94575,4.798912],[6.945828,4.799001]]]}},{"type":"Feature","properties":{"h":3.0,"on_route":false},"geometry":{"type":"Polygon","coordinates":[[[6.946276,4.796912],[6.946223,4.796877],[6.946275,4.796798],[6.946328,4.796832],[6.946276,4.796912]]]}},{"type":"Feature","properties":{"h":3.0,"on_route":false},"geometry":{"type":"Polygon","coordinates":[[[6.946545,4.798372],[6.946469,4.798433],[6.946412,4.798363],[6.946487,4.798301],[6.946545,4.798372]]]}},{"type":"Feature","properties":{"h":3.0,"on_route":false},"geometry":{"type":"Polygon","coordinates":[[[6.947674,4.794435],[6.947612,4.794549],[6.947518,4.794497],[6.94758,4.794384],[6.947674,4.794435]]]}},{"type":"Feature","properties":{"h":3.0,"on_route":false},"geometry":{"type":"Polygon","coordinates":[[[6.947351,4.796097],[6.947282,4.796137],[6.947189,4.795976],[6.947258,4.795936],[6.947351,4.796097]]]}},{"type":"Feature","properties":{"h":3.0,"on_route":false},"geometry":{"type":"Polygon","coordinates":[[[6.943603,4.795271],[6.943568,4.795342],[6.943518,4.795317],[6.943553,4.795246],[6.943603,4.795271]]]}},{"type":"Feature","properties":{"h":3.0,"on_route":false},"geometry":{"type":"Polygon","coordinates":[[[6.948541,4.795851],[6.948426,4.795914],[6.94837,4.795811],[6.948485,4.795748],[6.948541,4.795851]]]}},{"type":"Feature","properties":{"h":3.0,"on_route":false},"geometry":{"type":"Polygon","coordinates":[[[6.94497,4.798612],[6.944997,4.798638],[6.944987,4.798649],[6.944959,4.798623],[6.944921,4.798663],[6.944854,4.798599],[6.944835,4.798619],[6.944805,4.79859],[6.944952,4.798435],[6.945049,4.798528],[6.94497,4.798612]]]}},{"type":"Feature","properties":{"h":3.0,"on_route":false},"geometry":{"type":"Polygon","coordinates":[[[6.947176,4.798128],[6.947161,4.798153],[6.947137,4.798138],[6.947152,4.798114],[6.947176,4.798128]]]}},{"type":"Feature","properties":{"h":3.0,"on_route":false},"geometry":{"type":"Polygon","coordinates":[[[6.942295,4.796286],[6.942074,4.796693],[6.941278,4.796258],[6.941498,4.795851],[6.942295,4.796286]]]}},{"type":"Feature","properties":{"h":3.0,"on_route":false},"geometry":{"type":"Polygon","coordinates":[[[6.947768,4.795464],[6.947701,4.795528],[6.947623,4.795447],[6.94769,4.795382],[6.947768,4.795464]]]}},{"type":"Feature","properties":{"h":3.0,"on_route":true},"geometry":{"type":"Polygon","coordinates":[[[6.944697,4.795669],[6.944673,4.795708],[6.944577,4.795651],[6.9446,4.795611],[6.944697,4.795669]]]}},{"type":"Feature","properties":{"h":3.0,"on_route":false},"geometry":{"type":"Polygon","coordinates":[[[6.943587,4.79663],[6.943563,4.79674],[6.94352,4.796731],[6.943543,4.796621],[6.943587,4.79663]]]}},{"type":"Feature","properties":{"h":3.0,"on_route":false},"geometry":{"type":"Polygon","coordinates":[[[6.944205,4.791384],[6.944186,4.791424],[6.944093,4.791379],[6.944112,4.791339],[6.944205,4.791384]]]}},{"type":"Feature","properties":{"h":3.0,"on_route":false},"geometry":{"type":"Polygon","coordinates":[[[6.942877,4.798539],[6.942915,4.798617],[6.942876,4.798636],[6.942838,4.798558],[6.942877,4.798539]]]}},{"type":"Feature","properties":{"h":3.0,"on_route":false},"geometry":{"type":"Polygon","coordinates":[[[6.945341,4.794277],[6.945224,4.794219],[6.945393,4.793879],[6.945509,4.793937],[6.945341,4.794277]]]}},{"type":"Feature","properties":{"h":3.0,"on_route":false},"geometry":{"type":"Polygon","coordinates":[[[6.944336,4.798481],[6.944309,4.798491],[6.944299,4.798466],[6.944327,4.798456],[6.944336,4.798481]]]}},{"type":"Feature","properties":{"h":3.0,"on_route":false},"geometry":{"type":"Polygon","coordinates":[[[6.946594,4.797898],[6.946567,4.797938],[6.946529,4.797913],[6.946556,4.797873],[6.946594,4.797898]]]}},{"type":"Feature","properties":{"h":3.0,"on_route":false},"geometry":{"type":"Polygon","coordinates":[[[6.947469,4.7975],[6.947406,4.797532],[6.947387,4.797493],[6.94745,4.797461],[6.947469,4.7975]]]}},{"type":"Feature","properties":{"h":3.0,"on_route":false},"geometry":{"type":"Polygon","coordinates":[[[6.946343,4.796233],[6.946318,4.79622],[6.946344,4.796169],[6.946369,4.796182],[6.946343,4.796233]]]}},{"type":"Feature","properties":{"h":3.0,"on_route":false},"geometry":{"type":"Polygon","coordinates":[[[6.943125,4.798261],[6.943053,4.798283],[6.943032,4.798214],[6.943104,4.798192],[6.943125,4.798261]]]}},{"type":"Feature","properties":{"h":3.0,"on_route":false},"geometry":{"type":"Polygon","coordinates":[[[6.948127,4.795241],[6.948054,4.795195],[6.94815,4.795042],[6.948223,4.795087],[6.948127,4.795241]]]}},{"type":"Feature","properties":{"h":3.0,"on_route":false},"geometry":{"type":"Polygon","coordinates":[[[6.945135,4.791601],[6.945118,4.791637],[6.944932,4.791547],[6.944949,4.791511],[6.945135,4.791601]]]}},{"type":"Feature","properties":{"h":3.0,"on_route":false},"geometry":{"type":"Polygon","coordinates":[[[6.947736,4.794872],[6.947698,4.79493],[6.947636,4.794888],[6.947674,4.794831],[6.947736,4.794872]]]}},{"type":"Feature","properties":{"h":3.0,"on_route":false},"geometry":{"type":"Polygon","coordinates":[[[6.943526,4.798248],[6.943526,4.798325],[6.943499,4.798325],[6.943499,4.798248],[6.943526,4.798248]]]}},{"type":"Feature","properties":{"h":3.0,"on_route":false},"geometry":{"type":"Polygon","coordinates":[[[6.943712,4.796604],[6.943678,4.796765],[6.943629,4.796754],[6.943634,4.79673],[6.94357,4.796716],[6.943599,4.79658],[6.943712,4.796604]]]}},{"type":"Feature","properties":{"h":3.0,"on_route":false},"geometry":{"type":"Polygon","coordinates":[[[6.942896,4.795935],[6.942885,4.795985],[6.942801,4.795967],[6.942811,4.795917],[6.942896,4.795935]]]}},{"type":"Feature","properties":{"h":3.0,"on_route":false},"geometry":{"type":"Polygon","coordinates":[[[6.948387,4.795217],[6.948298,4.79534],[6.948222,4.795285],[6.948312,4.795162],[6.948387,4.795217]]]}},{"type":"Feature","properties":{"h":3.0,"on_route":false},"geometry":{"type":"Polygon","coordinates":[[[6.943995,4.791716],[6.943962,4.791807],[6.943872,4.791774],[6.943905,4.791682],[6.943995,4.791716]]]}},{"type":"Feature","properties":{"h":3.0,"on_route":false},"geometry":{"type":"Polygon","coordinates":[[[6.943748,4.795072],[6.943641,4.795289],[6.943553,4.795246],[6.943661,4.795028],[6.943748,4.795072]]]}},{"type":"Feature","properties":{"h":3.0,"on_route":false},"geometry":{"type":"Polygon","coordinates":[[[6.948174,4.795535],[6.948272,4.795623],[6.948204,4.7957],[6.948106,4.795612],[6.948174,4.795535]]]}},{"type":"Feature","properties":{"h":3.0,"on_route":false},"geometry":{"type":"Polygon","coordinates":[[[6.946249,4.79744],[6.946221,4.797424],[6.946249,4.797377],[6.946276,4.797393],[6.946249,4.79744]]]}},{"type":"Feature","properties":{"h":3.0,"on_route":false},"geometry":{"type":"Polygon","coordinates":[[[6.946827,4.798281],[6.946728,4.798361],[6.946632,4.798242],[6.94673,4.798162],[6.946827,4.798281]]]}},{"type":"Feature","properties":{"h":3.0,"on_route":false},"geometry":{"type":"Polygon","coordinates":[[[6.943226,4.795961],[6.943222,4.795985],[6.943113,4.795967],[6.943117,4.795943],[6.943226,4.795961]]]}},{"type":"Feature","properties":{"h":3.0,"on_route":false},"geometry":{"type":"Polygon","coordinates":[[[6.942333,4.798787],[6.942298,4.798798],[6.942287,4.798763],[6.942322,4.798752],[6.942333,4.798787]]]}},{"type":"Feature","properties":{"h":3.0,"on_route":false},"geometry":{"type":"Polygon","coordinates":[[[6.944839,4.79592],[6.944781,4.796032],[6.944614,4.795945],[6.944672,4.795834],[6.944839,4.79592]]]}},{"type":"Feature","properties":{"h":3.0,"on_route":false},"geometry":{"type":"Polygon","coordinates":[[[6.946157,4.798611],[6.946102,4.798664],[6.946046,4.798604],[6.946102,4.798552],[6.946157,4.798611]]]}},{"type":"Feature","properties":{"h":3.0,"on_route":false},"geometry":{"type":"Polygon","coordinates":[[[6.947796,4.793047],[6.947794,4.793071],[6.947759,4.793069],[6.947761,4.793044],[6.947796,4.793047]]]}},{"type":"Feature","properties":{"h":3.0,"on_route":false},"geometry":{"type":"Polygon","coordinates":[[[6.944073,4.798439],[6.943938,4.79857],[6.943873,4.798501],[6.944008,4.798371],[6.944073,4.798439]]]}},{"type":"Feature","properties":{"h":3.0,"on_route":false},"geometry":{"type":"Polygon","coordinates":[[[6.947923,4.796291],[6.947882,4.796316],[6.947855,4.796272],[6.947895,4.796247],[6.947923,4.796291]]]}},{"type":"Feature","properties":{"h":3.0,"on_route":false},"geometry":{"type":"Polygon","coordinates":[[[6.942838,4.798558],[6.942874,4.798632],[6.942836,4.798651],[6.9428,4.798577],[6.942838,4.798558]]]}},{"type":"Feature","properties":{"h":3.0,"on_route":false},"geometry":{"type":"Polygon","coordinates":[[[6.942591,4.7981],[6.942578,4.798179],[6.942534,4.798171],[6.942547,4.798093],[6.942591,4.7981]]]}},{"type":"Feature","properties":{"h":3.0,"on_route":false},"geometry":{"type":"Polygon","coordinates":[[[6.946023,4.797797],[6.945929,4.797844],[6.945864,4.797716],[6.945958,4.797668],[6.946023,4.797797]]]}},{"type":"Feature","properties":{"h":3.0,"on_route":false},"geometry":{"type":"Polygon","coordinates":[[[6.94727,4.796548],[6.947226,4.796564],[6.94721,4.796518],[6.947254,4.796502],[6.94727,4.796548]]]}},{"type":"Feature","properties":{"h":3.0,"on_route":false},"geometry":{"type":"Polygon","coordinates":[[[6.944775,4.79636],[6.944734,4.796446],[6.944507,4.796336],[6.944549,4.79625],[6.944775,4.79636]]]}},{"type":"Feature","properties":{"h":3.0,"on_route":false},"geometry":{"type":"Polygon","coordinates":[[[6.94784,4.796918],[6.947854,4.796907],[6.9479,4.796962],[6.947792,4.797051],[6.947758,4.79701],[6.947742,4.797023],[6.947683,4.796952],[6.947792,4.79686],[6.94784,4.796918]]]}},{"type":"Feature","properties":{"h":3.0,"on_route":false},"geometry":{"type":"Polygon","coordinates":[[[6.941949,4.79757],[6.941921,4.797556],[6.941954,4.797489],[6.941982,4.797504],[6.941949,4.79757]]]}},{"type":"Feature","properties":{"h":3.0,"on_route":false},"geometry":{"type":"Polygon","coordinates":[[[6.945567,4.793741],[6.945444,4.793681],[6.945567,4.793428],[6.94569,4.793488],[6.945567,4.793741]]]}},{"type":"Feature","properties":{"h":3.0,"on_route":false},"geometry":{"type":"Polygon","coordinates":[[[6.943753,4.79559],[6.943736,4.795643],[6.943685,4.795626],[6.943702,4.795573],[6.943753,4.79559]]]}},{"type":"Feature","properties":{"h":3.0,"on_route":false},"geometry":{"type":"Polygon","coordinates":[[[6.944142,4.796732],[6.944129,4.796782],[6.944089,4.796772],[6.944069,4.796849],[6.943956,4.796819],[6.94399,4.796691],[6.944142,4.796732]]]}},{"type":"Feature","properties":{"h":3.0,"on_route":false},"geometry":{"type":"Polygon","coordinates":[[[6.943812,4.791662],[6.943798,4.791702],[6.9437,4.791666],[6.943714,4.791626],[6.943812,4.791662]]]}},{"type":"Feature","properties":{"h":3.0,"on_route":false},"geometry":{"type":"Polygon","coordinates":[[[6.947502,4.796286],[6.947623,4.796501],[6.94757,4.796531],[6.94745,4.796316],[6.947502,4.796286]]]}},{"type":"Feature","properties":{"h":3.0,"on_route":false},"geometry":{"type":"Polygon","coordinates":[[[6.945483,4.798054],[6.945364,4.798151],[6.945313,4.798088],[6.945432,4.797991],[6.945483,4.798054]]]}},{"type":"Feature","properties":{"h":3.0,"on_route":false},"geometry":{"type":"Polygon","coordinates":[[[6.942629,4.795598],[6.942628,4.795624],[6.942578,4.795622],[6.94258,4.795596],[6.942629,4.795598]]]}},{"type":"Feature","properties":{"h":3.0,"on_route":false},"geometry":{"type":"Polygon","coordinates":[[[6.944334,4.796885],[6.94429,4.796981],[6.944208,4.796943],[6.944253,4.796846],[6.944334,4.796885]]]}},{"type":"Feature","properties":{"h":3.0,"on_route":false},"geometry":{"type":"Polygon","coordinates":[[[6.945188,4.798214],[6.945118,4.798275],[6.944959,4.798093],[6.94503,4.798031],[6.945188,4.798214]]]}},{"type":"Feature","properties":{"h":3.0,"on_route":false},"geometry":{"type":"Polygon","coordinates":[[[6.94664,4.796754],[6.946579,4.796833],[6.946495,4.796768],[6.946556,4.796689],[6.94664,4.796754]]]}},{"type":"Feature","properties":{"h":3.0,"on_route":false},"geometry":{"type":"Polygon","coordinates":[[[6.942802,4.79868],[6.942581,4.798803],[6.942528,4.798708],[6.94275,4.798585],[6.942802,4.79868]]]}},{"type":"Feature","properties":{"h":3.0,"on_route":false},"geometry":{"type":"Polygon","coordinates":[[[6.94861,4.79528],[6.948557,4.795332],[6.948525,4.7953],[6.948394,4.79543],[6.948339,4.795374],[6.948522,4.795192],[6.94861,4.79528]]]}},{"type":"Feature","properties":{"h":3.0,"on_route":false},"geometry":{"type":"Polygon","coordinates":[[[6.947861,4.794776],[6.947845,4.794824],[6.947809,4.794812],[6.947825,4.794764],[6.947861,4.794776]]]}},{"type":"Feature","properties":{"h":3.0,"on_route":false},"geometry":{"type":"Polygon","coordinates":[[[6.94759,4.793126],[6.947569,4.793188],[6.947519,4.793171],[6.94754,4.793108],[6.94759,4.793126]]]}},{"type":"Feature","properties":{"h":3.0,"on_route":false},"geometry":{"type":"Polygon","coordinates":[[[6.944438,4.796191],[6.944413,4.796274],[6.944362,4.796259],[6.944386,4.796176],[6.944438,4.796191]]]}},{"type":"Feature","properties":{"h":3.0,"on_route":false},"geometry":{"type":"Polygon","coordinates":[[[6.94379,4.79499],[6.943783,4.795019],[6.943737,4.795007],[6.943744,4.794979],[6.94379,4.79499]]]}},{"type":"Feature","properties":{"h":3.0,"on_route":false},"geometry":{"type":"Polygon","coordinates":[[[6.946374,4.797042],[6.946304,4.797142],[6.946224,4.797085],[6.946293,4.796985],[6.946374,4.797042]]]}},{"type":"Feature","properties":{"h":3.0,"on_route":false},"geometry":{"type":"Polygon","coordinates":[[[6.945199,4.797679],[6.945159,4.797729],[6.945116,4.797694],[6.945157,4.797644],[6.945199,4.797679]]]}},{"type":"Feature","properties":{"h":3.0,"on_route":false},"geometry":{"type":"Polygon","coordinates":[[[6.947564,4.797249],[6.947592,4.797233],[6.947625,4.797289],[6.947598,4.797305],[6.947628,4.797356],[6.947524,4.797419],[6.947444,4.797285],[6.947548,4.797223],[6.947564,4.797249]]]}},{"type":"Feature","properties":{"h":3.0,"on_route":false},"geometry":{"type":"Polygon","coordinates":[[[6.946207,4.798508],[6.946176,4.798533],[6.946153,4.798504],[6.946184,4.798479],[6.946207,4.798508]]]}},{"type":"Feature","properties":{"h":3.0,"on_route":false},"geometry":{"type":"Polygon","coordinates":[[[6.944604,4.79378],[6.944579,4.793768],[6.944616,4.793692],[6.94464,4.793704],[6.944604,4.79378]]]}},{"type":"Feature","properties":{"h":3.0,"on_route":false},"geometry":{"type":"Polygon","coordinates":[[[6.948139,4.796223],[6.948156,4.796248],[6.948182,4.79623],[6.948315,4.796422],[6.948223,4.796486],[6.948073,4.796269],[6.948139,4.796223]]]}},{"type":"Feature","properties":{"h":3.0,"on_route":false},"geometry":{"type":"Polygon","coordinates":[[[6.945946,4.79756],[6.945843,4.797625],[6.94577,4.797507],[6.945873,4.797442],[6.945946,4.79756]]]}},{"type":"Feature","properties":{"h":3.0,"on_route":false},"geometry":{"type":"Polygon","coordinates":[[[6.947859,4.793264],[6.94785,4.793296],[6.947816,4.793286],[6.947825,4.793254],[6.947859,4.793264]]]}},{"type":"Feature","properties":{"h":3.0,"on_route":false},"geometry":{"type":"Polygon","coordinates":[[[6.942215,4.794644],[6.942203,4.794671],[6.942169,4.794656],[6.942181,4.794629],[6.942215,4.794644]]]}},{"type":"Feature","properties":{"h":3.0,"on_route":false},"geometry":{"type":"Polygon","coordinates":[[[6.945668,4.794049],[6.945553,4.79428],[6.945382,4.794195],[6.945496,4.793964],[6.945668,4.794049]]]}},{"type":"Feature","properties":{"h":3.0,"on_route":false},"geometry":{"type":"Polygon","coordinates":[[[6.947508,4.793625],[6.947498,4.793652],[6.947467,4.79364],[6.947477,4.793613],[6.947508,4.793625]]]}},{"type":"Feature","properties":{"h":3.0,"on_route":false},"geometry":{"type":"Polygon","coordinates":[[[6.944058,4.798681],[6.944198,4.79884],[6.944163,4.798871],[6.944023,4.798712],[6.944058,4.798681]]]}},{"type":"Feature","properties":{"h":3.0,"on_route":false},"geometry":{"type":"Polygon","coordinates":[[[6.946691,4.796421],[6.946608,4.796353],[6.946751,4.796176],[6.946834,4.796244],[6.946691,4.796421]]]}},{"type":"Feature","properties":{"h":3.0,"on_route":false},"geometry":{"type":"Polygon","coordinates":[[[6.947931,4.796777],[6.947878,4.796801],[6.947854,4.796747],[6.947907,4.796723],[6.947931,4.796777]]]}},{"type":"Feature","properties":{"h":3.0,"on_route":false},"geometry":{"type":"Polygon","coordinates":[[[6.9442,4.796623],[6.944188,4.796676],[6.944072,4.79665],[6.944083,4.796597],[6.9442,4.796623]]]}},{"type":"Feature","properties":{"h":3.0,"on_route":false},"geometry":{"type":"Polygon","coordinates":[[[6.940517,4.796773],[6.94046,4.79683],[6.940695,4.797069],[6.940595,4.797168],[6.940271,4.796838],[6.940428,4.796682],[6.940517,4.796773]]]}},{"type":"Feature","properties":{"h":3.0,"on_route":false},"geometry":{"type":"Polygon","coordinates":[[[6.947491,4.796424],[6.947463,4.79644],[6.947423,4.796368],[6.947451,4.796352],[6.947491,4.796424]]]}},{"type":"Feature","properties":{"h":3.0,"on_route":false},"geometry":{"type":"Polygon","coordinates":[[[6.947249,4.795929],[6.947153,4.796007],[6.947113,4.795958],[6.947209,4.79588],[6.947249,4.795929]]]}},{"type":"Feature","properties":{"h":3.0,"on_route":false},"geometry":{"type":"Polygon","coordinates":[[[6.944296,4.798775],[6.944278,4.798809],[6.944231,4.798784],[6.944249,4.79875],[6.944296,4.798775]]]}},{"type":"Feature","properties":{"h":3.0,"on_route":false},"geometry":{"type":"Polygon","coordinates":[[[6.947199,4.796223],[6.947133,4.796253],[6.947105,4.79619],[6.94717,4.79616],[6.947199,4.796223]]]}},{"type":"Feature","properties":{"h":3.0,"on_route":false},"geometry":{"type":"Polygon","coordinates":[[[6.942644,4.798434],[6.942615,4.798512],[6.942555,4.79849],[6.942584,4.798412],[6.942644,4.798434]]]}},{"type":"Feature","properties":{"h":3.0,"on_route":false},"geometry":{"type":"Polygon","coordinates":[[[6.943088,4.791564],[6.943061,4.791624],[6.942859,4.791536],[6.942886,4.791476],[6.943088,4.791564]]]}},{"type":"Feature","properties":{"h":3.0,"on_route":false},"geometry":{"type":"Polygon","coordinates":[[[6.944041,4.796348],[6.943983,4.796594],[6.943891,4.796572],[6.943949,4.796326],[6.944041,4.796348]]]}},{"type":"Feature","properties":{"h":3.0,"on_route":false},"geometry":{"type":"Polygon","coordinates":[[[6.946131,4.79661],[6.946118,4.796645],[6.946071,4.796626],[6.946084,4.796592],[6.946131,4.79661]]]}},{"type":"Feature","properties":{"h":3.0,"on_route":false},"geometry":{"type":"Polygon","coordinates":[[[6.946574,4.797544],[6.946555,4.797565],[6.946485,4.797502],[6.946504,4.797481],[6.946574,4.797544]]]}},{"type":"Feature","properties":{"h":3.0,"on_route":false},"geometry":{"type":"Polygon","coordinates":[[[6.945742,4.798787],[6.945723,4.798826],[6.945679,4.798805],[6.945697,4.798766],[6.945742,4.798787]]]}},{"type":"Feature","properties":{"h":3.0,"on_route":false},"geometry":{"type":"Polygon","coordinates":[[[6.944829,4.79456],[6.944804,4.794616],[6.944728,4.794582],[6.944753,4.794526],[6.944829,4.79456]]]}},{"type":"Feature","properties":{"h":3.0,"on_route":false},"geometry":{"type":"Polygon","coordinates":[[[6.945067,4.797856],[6.945009,4.797907],[6.944979,4.797873],[6.945037,4.797822],[6.945067,4.797856]]]}},{"type":"Feature","properties":{"h":3.0,"on_route":false},"geometry":{"type":"Polygon","coordinates":[[[6.945269,4.791197],[6.945213,4.791313],[6.944817,4.791122],[6.944873,4.791005],[6.945269,4.791197]]]}},{"type":"Feature","properties":{"h":3.0,"on_route":false},"geometry":{"type":"Polygon","coordinates":[[[6.947089,4.798408],[6.947018,4.798463],[6.946931,4.79835],[6.94691,4.798366],[6.946845,4.798283],[6.946937,4.798211],[6.947089,4.798408]]]}},{"type":"Feature","properties":{"h":3.0,"on_route":false},"geometry":{"type":"Polygon","coordinates":[[[6.943921,4.796704],[6.943906,4.796788],[6.943768,4.796764],[6.943783,4.79668],[6.943921,4.796704]]]}},{"type":"Feature","properties":{"h":3.0,"on_route":false},"geometry":{"type":"Polygon","coordinates":[[[6.947958,4.796571],[6.947914,4.796593],[6.947846,4.79646],[6.94789,4.796437],[6.947958,4.796571]]]}},{"type":"Feature","properties":{"h":3.0,"on_route":false},"geometry":{"type":"Polygon","coordinates":[[[6.948328,4.795139],[6.948258,4.795236],[6.94819,4.795187],[6.948261,4.79509],[6.948328,4.795139]]]}},{"type":"Feature","properties":{"h":3.0,"on_route":false},"geometry":{"type":"Polygon","coordinates":[[[6.948197,4.796497],[6.948081,4.79657],[6.948038,4.796501],[6.948154,4.796428],[6.948197,4.796497]]]}}]}