{"type":"FeatureCollection","features":[{"type":"Feature","properties":{"h":3.0,"on_route":false},"geometry":{"type":"Polygon","coordinates":[[[6.944855,4.7962],[6.944813,4.796288],[6.944586,4.796179],[6.944628,4.796091],[6.944855,4.7962]]]}},{"type":"Feature","properties":{"h":3.0,"on_route":false},"geometry":{"type":"Polygon","coordinates":[[[6.943533,4.79436],[6.9435,4.794341],[6.943553,4.794246],[6.943587,4.794264],[6.943533,4.79436]]]}},{"type":"Feature","properties":{"h":3.0,"on_route":false},"geometry":{"type":"Polygon","coordinates":[[[6.943203,4.795351],[6.943165,4.795342],[6.943187,4.795256],[6.943224,4.795266],[6.943203,4.795351]]]}},{"type":"Feature","properties":{"h":3.0,"on_route":false},"geometry":{"type":"Polygon","coordinates":[[[6.943337,4.796565],[6.943312,4.796678],[6.943225,4.796658],[6.943251,4.796545],[6.943337,4.796565]]]}},{"type":"Feature","properties":{"h":3.0,"on_route":false},"geometry":{"type":"Polygon","coordinates":[[[6.94473,4.796498],[6.944673,4.796617],[6.94441,4.796491],[6.944467,4.796372],[6.94473,4.796498]]]}},{"type":"Feature","properties":{"h":3.0,"on_route":false},"geometry":{"type":"Polygon","coordinates":[[[6.938926,4.797676],[6.938886,4.79775],[6.938822,4.797715],[6.938862,4.797641],[6.938926,4.797676]]]}},{"type":"Feature","properties":{"h":3.0,"on_route":false},"geometry":{"type":"Polygon","coordinates":[[[6.944299,4.796996],[6.94427,4.797056],[6.94418,4.797013],[6.944209,4.796952],[6.944299,4.796996]]]}},{"type":"Feature","properties":{"h":3.0,"on_route":false},"geometry":{"type":"Polygon","coordinates":[[[6.94434,4.795785],[6.944364,4.795797],[6.944381,4.795761],[6.944451,4.795797],[6.94442,4.795859],[6.944327,4.795812],[6.94434,4.795785]]]}},{"type":"Feature","properties":{"h":3.0,"on_route":false},"geometry":{"type":"Polygon","coordinates":[[[6.943285,4.797944],[6.943287,4.797988],[6.943236,4.797991],[6.943234,4.797946],[6.943285,4.797944]]]}},{"type":"Feature","properties":{"h":3.0,"on_route":false},"geometry":{"type":"Polygon","coordinates":[[[6.943803,4.79642],[6.943796,4.796468],[6.943774,4.796465],[6.943781,4.796417],[6.943803,4.79642]]]}},{"type":"Feature","properties":{"h":3.0,"on_route":false},"geometry":{"type":"Polygon","coordinates":[[[6.944281,4.796568],[6.944251,4.796553],[6.944288,4.796477],[6.944318,4.796492],[6.944281,4.796568]]]}},{"type":"Feature","properties":{"h":3.0,"on_route":false},"geometry":{"type":"Polygon","coordinates":[[[6.944124,4.795952],[6.944094,4.796083],[6.94365,4.795979],[6.94368,4.795848],[6.944124,4.795952]]]}},{"type":"Feature","properties":{"h":3.0,"on_route":false},"geometry":{"type":"Polygon","coordinates":[[[6.942077,4.799816],[6.942064,4.799851],[6.942,4.799827],[6.942013,4.799792],[6.942077,4.799816]]]}},{"type":"Feature","properties":{"h":3.0,"on_route":false},"geometry":{"type":"Polygon","coordinates":[[[6.944017,4.795643],[6.943972,4.795731],[6.94378,4.795634],[6.943825,4.795546],[6.944017,4.795643]]]}},{"type":"Feature","properties":{"h":3.0,"on_route":false},"geometry":{"type":"Polygon","coordinates":[[[6.943166,4.798115],[6.943158,4.798164],[6.943112,4.798157],[6.94312,4.798108],[6.943166,4.798115]]]}},{"type":"Feature","properties":{"h":3.0,"on_route":false},"geometry":{"type":"Polygon","coordinates":[[[6.945057,4.795596],[6.94504,4.795629],[6.944941,4.795578],[6.944958,4.795545],[6.945057,4.795596]]]}},{"type":"Feature","properties":{"h":3.0,"on_route":false},"geometry":{"type":"Polygon","coordinates":[[[6.943022,4.798248],[6.942907,4.79829],[6.942894,4.798254],[6.943009,4.798212],[6.943022,4.798248]]]}},{"type":"Feature","properties":{"h":3.0,"on_route":false},"geometry":{"type":"Polygon","coordinates":[[[6.942361,4.798343],[6.942261,4.798565],[6.94188,4.798394],[6.941979,4.798171],[6.942361,4.798343]]]}},{"type":"Feature","properties":{"h":3.0,"on_route":false},"geometry":{"type":"Polygon","coordinates":[[[6.944181,4.793851],[6.944204,4.793864],[6.944154,4.793952],[6.944132,4.793938],[6.943896,4.794351],[6.943761,4.794273],[6.944079,4.793716],[6.944214,4.793794],[6.944181,4.793851]]]}},{"type":"Feature","properties":{"h":3.0,"on_route":false},"geometry":{"type":"Polygon","coordinates":[[[6.941004,4.79971],[6.940997,4.799731],[6.940948,4.799715],[6.940955,4.799694],[6.941004,4.79971]]]}},{"type":"Feature","properties":{"h":3.0,"on_route":false},"geometry":{"type":"Polygon","coordinates":[[[6.943111,4.79852],[6.942915,4.798617],[6.942877,4.798539],[6.943073,4.798443],[6.943111,4.79852]]]}},{"type":"Feature","properties":{"h":3.0,"on_route":false},"geometry":{"type":"Polygon","coordinates":[[[6.943304,4.795974],[6.943296,4.796021],[6.943218,4.796008],[6.943226,4.795961],[6.943304,4.795974]]]}},{"type":"Feature","properties":{"h":3.0,"on_route":false},"geometry":{"type":"Polygon","coordinates":[[[6.941968,4.795811],[6.941905,4.795929],[6.941705,4.795822],[6.941769,4.795704],[6.941968,4.795811]]]}},{"type":"Feature","properties":{"h":3.0,"on_route":false},"geometry":{"type":"Polygon","coordinates":[[[6.943575,4.799279],[6.943518,4.799278],[6.943521,4.798943],[6.943579,4.798943],[6.943575,4.799279]]]}},{"type":"Feature","properties":{"h":3.0,"on_route":false},"geometry":{"type":"Polygon","coordinates":[[[6.941829,4.798525],[6.941802,4.798586],[6.94172,4.79855],[6.941746,4.798489],[6.941829,4.798525]]]}},{"type":"Feature","properties":{"h":3.0,"on_route":false},"geometry":{"type":"Polygon","coordinates":[[[6.944682,4.795753],[6.944587,4.795943],[6.94442,4.795859],[6.944515,4.795669],[6.944682,4.795753]]]}},{"type":"Feature","properties":{"h":3.0,"on_route":false},"geometry":{"type":"Polygon","coordinates":[[[6.943164,4.795563],[6.943272,4.795585],[6.943261,4.795637],[6.943153,4.795615],[6.943164,4.795563]]]}},{"type":"Feature","properties":{"h":3.0,"on_route":false},"geometry":{"type":"Polygon","coordinates":[[[6.943456,4.794149],[6.943358,4.794324],[6.942535,4.793858],[6.942633,4.793684],[6.943456,4.794149]]]}},{"type":"Feature","properties":{"h":3.0,"on_route":false},"geometry":{"type":"Polygon","coordinates":[[[6.944551,4.793889],[6.944521,4.793946],[6.944476,4.793923],[6.944506,4.793865],[6.944551,4.793889]]]}},{"type":"Feature","properties":{"h":3.0,"on_route":false},"geometry":{"type":"Polygon","coordinates":[[[6.939514,4.797992],[6.939502,4.798054],[6.939411,4.798036],[6.939422,4.797974],[6.939514,4.797992]]]}},{"type":"Feature","properties":{"h":3.0,"on_route":false},"geometry":{"type":"Polygon","coordinates":[[[6.943646,4.795799],[6.943637,4.795797],[6.943651,4.795728],[6.94366,4.79573],[6.943646,4.795799]]]}},{"type":"Feature","properties":{"h":3.0,"on_route":false},"geometry":{"type":"Polygon","coordinates":[[[6.940917,4.796554],[6.940814,4.796496],[6.940827,4.796473],[6.940842,4.796482],[6.940947,4.796297],[6.941034,4.796346],[6.940917,4.796554]]]}},{"type":"Feature","properties":{"h":3.0,"on_route":false},"geometry":{"type":"Polygon","coordinates":[[[6.943353,4.797899],[6.943351,4.797946],[6.943286,4.797943],[6.943288,4.797896],[6.943353,4.797899]]]}},{"type":"Feature","properties":{"h":3.0,"on_route":false},"geometry":{"type":"Polygon","coordinates":[[[6.941585,4.799292],[6.941556,4.79934],[6.941573,4.79935],[6.941536,4.799412],[6.941446,4.799423],[6.941338,4.799358],[6.941433,4.7992],[6.941585,4.799292]]]}},{"type":"Feature","properties":{"h":3.0,"on_route":false},"geometry":{"type":"Polygon","coordinates":[[[6.940048,4.798829],[6.94003,4.79886],[6.939961,4.798818],[6.939979,4.798788],[6.940048,4.798829]]]}},{"type":"Feature","properties":{"h":3.0,"on_route":false},"geometry":{"type":"Polygon","coordinates":[[[6.943261,4.796469],[6.943213,4.796674],[6.942844,4.796588],[6.942891,4.796382],[6.943261,4.796469]]]}},{"type":"Feature","properties":{"h":3.0,"on_route":false},"geometry":{"type":"Polygon","coordinates":[[[6.943367,4.797445],[6.943347,4.797546],[6.943304,4.797538],[6.943324,4.797437],[6.943367,4.797445]]]}},{"type":"Feature","properties":{"h":3.0,"on_route":false},"geometry":{"type":"Polygon","coordinates":[[[6.942349,4.794444],[6.942333,4.794476],[6.9423,4.794459],[6.942315,4.794427],[6.942349,4.794444]]]}},{"type":"Feature","properties":{"h":3.0,"on_route":false},"geometry":{"type":"Polygon","coordinates":[[[6.944376,4.796211],[6.944338,4.796338],[6.944119,4.796273],[6.944157,4.796146],[6.944376,4.796211]]]}},{"type":"Feature","properties":{"h":3.0,"on_route":false},"geometry":{"type":"Polygon","coordinates":[[[6.942871,4.79808],[6.942866,4.798108],[6.942786,4.798095],[6.94279,4.798066],[6.942871,4.79808]]]}},{"type":"Feature","properties":{"h":3.0,"on_route":false},"geometry":{"type":"Polygon","coordinates":[[[6.940882,4.799501],[6.940866,4.79954],[6.940804,4.799515],[6.940819,4.799476],[6.940882,4.799501]]]}},{"type":"Feature","properties":{"h":3.0,"on_route":false},"geometry":{"type":"Polygon","coordinates":[[[6.943228,4.798496],[6.943179,4.798495],[6.94318,4.798367],[6.943229,4.798368],[6.943228,4.798496]]]}},{"type":"Feature","properties":{"h":3.0,"on_route":false},"geometry":{"type":"Polygon","coordinates":[[[6.942411,4.797946],[6.942407,4.797975],[6.942377,4.79797],[6.942382,4.797941],[6.942411,4.797946]]]}},{"type":"Feature","properties":{"h":3.0,"on_route":false},"geometry":{"type":"Polygon","coordinates":[[[6.944108,4.79702],[6.944063,4.796997],[6.944107,4.796909],[6.944152,4.796932],[6.944108,4.79702]]]}},{"type":"Feature","properties":{"h":3.0,"on_route":false},"geometry":{"type":"Polygon","coordinates":[[[6.944314,4.797389],[6.944235,4.797571],[6.944133,4.797527],[6.944213,4.797345],[6.944314,4.797389]]]}},{"type":"Feature","properties":{"h":3.0,"on_route":false},"geometry":{"type":"Polygon","coordinates":[[[6.944121,4.79508],[6.944109,4.795099],[6.944024,4.795045],[6.944036,4.795026],[6.944121,4.79508]]]}},{"type":"Feature","properties":{"h":3.0,"on_route":false},"geometry":{"type":"Polygon","coordinates":[[[6.942938,4.795803],[6.942928,4.795848],[6.942816,4.795821],[6.942826,4.795777],[6.942938,4.795803]]]}},{"type":"Feature","properties":{"h":3.0,"on_route":false},"geometry":{"type":"Polygon","coordinates":[[[6.942569,4.797107],[6.94256,4.797127],[6.942465,4.797084],[6.942474,4.797064],[6.942569,4.797107]]]}},{"type":"Feature","properties":{"h":3.0,"on_route":false},"geometry":{"type":"Polygon","coordinates":[[[6.942772,4.7983],[6.942754,4.798325],[6.942682,4.798273],[6.942699,4.798248],[6.942772,4.7983]]]}},{"type":"Feature","properties":{"h":3.0,"on_route":false},"geometry":{"type":"Polygon","coordinates":[[[6.944246,4.795934],[6.944224,4.796012],[6.944186,4.796001],[6.944207,4.795923],[6.944246,4.795934]]]}},{"type":"Feature","properties":{"h":3.0,"on_route":false},"geometry":{"type":"Polygon","coordinates":[[[6.939529,4.797916],[6.939514,4.797992],[6.939371,4.797964],[6.939386,4.797889],[6.939529,4.797916]]]}},{"type":"Feature","properties":{"h":3.0,"on_route":false},"geometry":{"type":"Polygon","coordinates":[[[6.943582,4.796067],[6.943549,4.79606],[6.943585,4.795883],[6.943618,4.79589],[6.943582,4.796067]]]}},{"type":"Feature","properties":{"h":3.0,"on_route":false},"geometry":{"type":"Polygon","coordinates":[[[6.94322,4.796182],[6.943213,4.796219],[6.942995,4.796178],[6.943001,4.796141],[6.94322,4.796182]]]}},{"type":"Feature","properties":{"h":3.0,"on_route":false},"geometry":{"type":"Polygon","coordinates":[[[6.942594,4.795408],[6.942543,4.795515],[6.942424,4.795458],[6.942475,4.795351],[6.942594,4.795408]]]}},{"type":"Feature","properties":{"h":3.0,"on_route":false},"geometry":{"type":"Polygon","coordinates":[[[6.943174,4.798246],[6.943125,4.798261],[6.943113,4.798224],[6.943163,4.798209],[6.943174,4.798246]]]}},{"type":"Feature","properties":{"h":3.0,"on_route":false},"geometry":{"type":"Polygon","coordinates":[[[6.9441,4.796123],[6.944072,4.796248],[6.943835,4.796194],[6.943863,4.796069],[6.9441,4.796123]]]}},{"type":"Feature","properties":{"h":3.0,"on_route":false},"geometry":{"type":"Polygon","coordinates":[[[6.943359,4.796473],[6.943337,4.796565],[6.943251,4.796545],[6.943272,4.796453],[6.943359,4.796473]]]}},{"type":"Feature","properties":{"h":3.0,"on_route":false},"geometry":{"type":"Polygon","coordinates":[[[6.944746,4.794329],[6.944584,4.794657],[6.944299,4.794515],[6.944461,4.794188],[6.944746,4.794329]]]}},{"type":"Feature","properties":{"h":3.0,"on_route":false},"geometry":{"type":"Polygon","coordinates":[[[6.943281,4.79768],[6.94328,4.797742],[6.943259,4.797742],[6.943261,4.79768],[6.943281,4.79768]]]}},{"type":"Feature","properties":{"h":3.0,"on_route":false},"geometry":{"type":"Polygon","coordinates":[[[6.943895,4.794348],[6.943771,4.794567],[6.943564,4.794449],[6.943688,4.79423],[6.943895,4.794348]]]}},{"type":"Feature","properties":{"h":3.0,"on_route":false},"geometry":{"type":"Polygon","coordinates":[[[6.943922,4.796434],[6.943894,4.796556],[6.943781,4.79653],[6.943809,4.796408],[6.943922,4.796434]]]}},{"type":"Feature","properties":{"h":3.0,"on_route":false},"geometry":{"type":"Polygon","coordinates":[[[6.942535,4.798799],[6.942375,4.798889],[6.942342,4.79883],[6.942501,4.798739],[6.942535,4.798799]]]}},{"type":"Feature","properties":{"h":3.0,"on_route":false},"geometry":{"type":"Polygon","coordinates":[[[6.943459,4.795933],[6.943428,4.795927],[6.943448,4.795822],[6.943479,4.795828],[6.943459,4.795933]]]}},{"type":"Feature","properties":{"h":3.0,"on_route":false},"geometry":{"type":"Polygon","coordinates":[[[6.944274,4.796026],[6.944244,4.796135],[6.944194,4.796121],[6.944224,4.796012],[6.944274,4.796026]]]}},{"type":"Feature","properties":{"h":3.0,"on_route":false},"geometry":{"type":"Polygon","coordinates":[[[6.943066,4.798157],[6.943079,4.798105],[6.943116,4.798114],[6.943103,4.798166],[6.943066,4.798157]]]}},{"type":"Feature","properties":{"h":3.0,"on_route":false},"geometry":{"type":"Polygon","coordinates":[[[6.941834,4.796827],[6.941726,4.797026],[6.942032,4.797193],[6.94185,4.79753],[6.941376,4.797272],[6.941553,4.796945],[6.941203,4.796754],[6.941316,4.796545],[6.941834,4.796827]]]}},{"type":"Feature","properties":{"h":3.0,"on_route":false},"geometry":{"type":"Polygon","coordinates":[[[6.942222,4.796568],[6.942201,4.796615],[6.94216,4.796596],[6.942181,4.796549],[6.942222,4.796568]]]}},{"type":"Feature","properties":{"h":3.0,"on_route":false},"geometry":{"type":"Polygon","coordinates":[[[6.944003,4.798694],[6.944028,4.798748],[6.944002,4.79876],[6.943977,4.798706],[6.944003,4.798694]]]}},{"type":"Feature","properties":{"h":3.0,"on_route":false},"geometry":{"type":"Polygon","coordinates":[[[6.94268,4.798332],[6.942659,4.798394],[6.942566,4.798362],[6.942586,4.798301],[6.94268,4.798332]]]}},{"type":"Feature","properties":{"h":3.0,"on_route":false},"geometry":{"type":"Polygon","coordinates":[[[6.938902,4.796981],[6.938902,4.797012],[6.938822,4.797014],[6.938821,4.796983],[6.938902,4.796981]]]}},{"type":"Feature","properties":{"h":3.0,"on_route":false},"geometry":{"type":"Polygon","coordinates":[[[6.940903,4.79629],[6.940887,4.796324],[6.940853,4.796308],[6.940869,4.796274],[6.940903,4.79629]]]}},{"type":"Feature","properties":{"h":3.0,"on_route":false},"geometry":{"type":"Polygon","coordinates":[[[6.944145,4.797039],[6.944108,4.79702],[6.944152,4.796932],[6.94419,4.796951],[6.944145,4.797039]]]}},{"type":"Feature","properties":{"h":3.0,"on_route":false},"geometry":{"type":"Polygon","coordinates":[[[6.944493,4.795959],[6.94442,4.796182],[6.944297,4.796142],[6.94437,4.795919],[6.944493,4.795959]]]}},{"type":"Feature","properties":{"h":3.0,"on_route":false},"geometry":{"type":"Polygon","coordinates":[[[6.943064,4.798273],[6.94306,4.798301],[6.943035,4.798298],[6.943039,4.79827],[6.943064,4.798273]]]}},{"type":"Feature","properties":{"h":3.0,"on_route":false},"geometry":{"type":"Polygon","coordinates":[[[6.945225,4.795198],[6.945006,4.79509],[6.945327,4.794433],[6.945546,4.794541],[6.945225,4.795198]]]}},{"type":"Feature","properties":{"h":3.0,"on_route":false},"geometry":{"type":"Polygon","coordinates":[[[6.943461,4.796095],[6.94344,4.796247],[6.943393,4.79624],[6.943414,4.796088],[6.943461,4.796095]]]}},{"type":"Feature","properties":{"h":3.0,"on_route":false},"geometry":{"type":"Polygon","coordinates":[[[6.940653,4.799883],[6.940615,4.799923],[6.940593,4.799902],[6.940631,4.799862],[6.940653,4.799883]]]}},{"type":"Feature","properties":{"h":3.0,"on_route":false},"geometry":{"type":"Polygon","coordinates":[[[6.939416,4.798387],[6.939459,4.798434],[6.939468,4.798529],[6.939416,4.798578],[6.939328,4.798577],[6.939277,4.798523],[6.939291,4.79851],[6.939247,4.798462],[6.939338,4.798378],[6.939416,4.798387]]]}},{"type":"Feature","properties":{"h":3.0,"on_route":false},"geometry":{"type":"Polygon","coordinates":[[[6.943982,4.798708],[6.944005,4.798761],[6.943978,4.798772],[6.943956,4.798719],[6.943982,4.798708]]]}},{"type":"Feature","properties":{"h":3.0,"on_route":false},"geometry":{"type":"Polygon","coordinates":[[[6.943401,4.796072],[6.943376,4.796211],[6.942966,4.796135],[6.942992,4.795997],[6.943401,4.796072]]]}},{"type":"Feature","properties":{"h":3.0,"on_route":false},"geometry":{"type":"Polygon","coordinates":[[[6.939274,4.797728],[6.939176,4.797666],[6.939421,4.797279],[6.93952,4.797341],[6.939274,4.797728]]]}},{"type":"Feature","properties":{"h":3.0,"on_route":false},"geometry":{"type":"Polygon","coordinates":[[[6.943081,4.796213],[6.943056,4.796318],[6.943005,4.796305],[6.943031,4.7962],[6.943081,4.796213]]]}},{"type":"Feature","properties":{"h":3.0,"on_route":false},"geometry":{"type":"Polygon","coordinates":[[[6.940493,4.798612],[6.940466,4.798662],[6.940395,4.798623],[6.940422,4.798573],[6.940493,4.798612]]]}},{"type":"Feature","properties":{"h":3.0,"on_route":false},"geometry":{"type":"Polygon","coordinates":[[[6.944879,4.795569],[6.944888,4.795551],[6.944977,4.795596],[6.944963,4.795622],[6.944863,4.795571],[6.944868,4.795563],[6.944879,4.795569]]]}},{"type":"Feature","properties":{"h":3.0,"on_route":false},"geometry":{"type":"Polygon","coordinates":[[[6.943721,4.796561],[6.943713,4.796599],[6.943604,4.796576],[6.943612,4.796538],[6.943721,4.796561]]]}},{"type":"Feature","properties":{"h":3.0,"on_route":false},"geometry":{"type":"Polygon","coordinates":[[[6.939907,4.79802],[6.939928,4.797994],[6.940078,4.798121],[6.940029,4.79818],[6.940056,4.798204],[6.939949,4.798331],[6.939921,4.798308],[6.939883,4.798354],[6.939737,4.79823],[6.939737,4.798111],[6.939853,4.797974],[6.939907,4.79802]]]}},{"type":"Feature","properties":{"h":3.0,"on_route":false},"geometry":{"type":"Polygon","coordinates":[[[6.94194,4.797564],[6.941875,4.797701],[6.941823,4.797675],[6.941888,4.797539],[6.94194,4.797564]]]}},{"type":"Feature","properties":{"h":3.0,"on_route":false},"geometry":{"type":"Polygon","coordinates":[[[6.944586,4.796781],[6.944448,4.797059],[6.944351,4.797011],[6.944489,4.796733],[6.944586,4.796781]]]}},{"type":"Feature","properties":{"h":3.0,"on_route":false},"geometry":{"type":"Polygon","coordinates":[[[6.942961,4.798084],[6.942953,4.798116],[6.942867,4.798093],[6.942876,4.798061],[6.942961,4.798084]]]}},{"type":"Feature","properties":{"h":3.0,"on_route":false},"geometry":{"type":"Polygon","coordinates":[[[6.944331,4.796695],[6.944318,4.796731],[6.944287,4.79672],[6.9443,4.796683],[6.944331,4.796695]]]}},{"type":"Feature","properties":{"h":3.0,"on_route":false},"geometry":{"type":"Polygon","coordinates":[[[6.944581,4.793837],[6.944567,4.793869],[6.944521,4.793849],[6.944535,4.793817],[6.944581,4.793837]]]}},{"type":"Feature","properties":{"h":3.0,"on_route":false},"geometry":{"type":"Polygon","coordinates":[[[6.937996,4.799864],[6.937994,4.799894],[6.937965,4.799892],[6.937967,4.799862],[6.937996,4.799864]]]}},{"type":"Feature","properties":{"h":3.0,"on_route":false},"geometry":{"type":"Polygon","coordinates":[[[6.941429,4.79755],[6.941398,4.797585],[6.941351,4.797543],[6.941381,4.797508],[6.941429,4.79755]]]}},{"type":"Feature","properties":{"h":3.0,"on_route":false},"geometry":{"type":"Polygon","coordinates":[[[6.943251,4.7992],[6.943238,4.799438],[6.943138,4.799433],[6.94315,4.799195],[6.943251,4.7992]]]}},{"type":"Feature","properties":{"h":3.0,"on_route":false},"geometry":{"type":"Polygon","coordinates":[[[6.941935,4.798536],[6.94188,4.798662],[6.941787,4.798621],[6.941842,4.798495],[6.941935,4.798536]]]}},{"type":"Feature","properties":{"h":3.0,"on_route":false},"geometry":{"type":"Polygon","coordinates":[[[6.94058,4.799984],[6.940554,4.799968],[6.940585,4.79992],[6.940611,4.799937],[6.94058,4.799984]]]}},{"type":"Feature","properties":{"h":3.0,"on_route":false},"geometry":{"type":"Polygon","coordinates":[[[6.945203,4.794577],[6.944961,4.795069],[6.944704,4.794942],[6.944946,4.79445],[6.945203,4.794577]]]}},{"type":"Feature","properties":{"h":3.0,"on_route":false},"geometry":{"type":"Polygon","coordinates":[[[6.942301,4.796477],[6.942322,4.796437],[6.942552,4.79656],[6.942448,4.796757],[6.942218,4.796633],[6.942266,4.796541],[6.942207,4.79651],[6.942242,4.796445],[6.942301,4.796477]]]}},{"type":"Feature","properties":{"h":3.0,"on_route":false},"geometry":{"type":"Polygon","coordinates":[[[6.942037,4.799678],[6.941995,4.799779],[6.94158,4.799605],[6.941622,4.799504],[6.942037,4.799678]]]}},{"type":"Feature","properties":{"h":3.0,"on_route":false},"geometry":{"type":"Polygon","coordinates":[[[6.939104,4.798251],[6.939096,4.798336],[6.939052,4.798332],[6.93906,4.798247],[6.939104,4.798251]]]}},{"type":"Feature","properties":{"h":3.0,"on_route":false},"geometry":{"type":"Polygon","coordinates":[[[6.943991,4.794633],[6.94398,4.794667],[6.943931,4.794651],[6.943942,4.794617],[6.943991,4.794633]]]}},{"type":"Feature","properties":{"h":3.0,"on_route":false},"geometry":{"type":"Polygon","coordinates":[[[6.943149,4.798597],[6.943105,4.798618],[6.943068,4.798542],[6.943111,4.79852],[6.943149,4.798597]]]}},{"type":"Feature","properties":{"h":3.0,"on_route":false},"geometry":{"type":"Polygon","coordinates":[[[6.942178,4.795272],[6.942158,4.79532],[6.94208,4.795286],[6.9421,4.795239],[6.942178,4.795272]]]}},{"type":"Feature","properties":{"h":3.0,"on_route":false},"geometry":{"type":"Polygon","coordinates":[[[6.943948,4.794423],[6.94394,4.794486],[6.943919,4.794484],[6.943915,4.794515],[6.943845,4.794506],[6.943856,4.794412],[6.943948,4.794423]]]}},{"type":"Feature","properties":{"h":3.0,"on_route":false},"geometry":{"type":"Polygon","coordinates":[[[6.944268,4.796399],[6.944257,4.796441],[6.944211,4.796429],[6.944179,4.796421],[6.94419,4.796379],[6.944268,4.796399]]]}},{"type":"Feature","properties":{"h":3.0,"on_route":false},"geometry":{"type":"Polygon","coordinates":[[[6.944269,4.79577],[6.944225,4.795859],[6.944007,4.795749],[6.944052,4.79566],[6.944269,4.79577]]]}},{"type":"Feature","properties":{"h":3.0,"on_route":false},"geometry":{"type":"Polygon","coordinates":[[[6.943606,4.796537],[6.943587,4.79663],[6.943543,4.796621],[6.943563,4.796528],[6.943606,4.796537]]]}},{"type":"Feature","properties":{"h":3.0,"on_route":false},"geometry":{"type":"Polygon","coordinates":[[[6.94462,4.797787],[6.944646,4.797876],[6.94459,4.797892],[6.944564,4.797803],[6.94462,4.797787]]]}},{"type":"Feature","properties":{"h":3.0,"on_route":false},"geometry":{"type":"Polygon","coordinates":[[[6.943429,4.795947],[6.943402,4.795942],[6.943424,4.79583],[6.943451,4.795835],[6.943429,4.795947]]]}},{"type":"Feature","properties":{"h":3.0,"on_route":false},"geometry":{"type":"Polygon","coordinates":[[[6.943498,4.795701],[6.943476,4.795796],[6.943435,4.795787],[6.943456,4.795692],[6.943498,4.795701]]]}},{"type":"Feature","properties":{"h":3.0,"on_route":false},"geometry":{"type":"Polygon","coordinates":[[[6.944292,4.796774],[6.944206,4.79695],[6.944106,4.796901],[6.944192,4.796725],[6.944292,4.796774]]]}},{"type":"Feature","properties":{"h":3.0,"on_route":false},"geometry":{"type":"Polygon","coordinates":[[[6.943357,4.797673],[6.943359,4.797759],[6.943353,4.797899],[6.943299,4.797897],[6.943302,4.79785],[6.943291,4.79785],[6.943293,4.797804],[6.943304,4.797805],[6.943307,4.797735],[6.943279,4.797734],[6.943281,4.797669],[6.943357,4.797673]]]}},{"type":"Feature","properties":{"h":3.0,"on_route":false},"geometry":{"type":"Polygon","coordinates":[[[6.94101,4.799508],[6.940987,4.799499],[6.941026,4.799401],[6.941049,4.79941],[6.94101,4.799508]]]}},{"type":"Feature","properties":{"h":3.0,"on_route":false},"geometry":{"type":"Polygon","coordinates":[[[6.945133,4.796208],[6.945115,4.796246],[6.94502,4.796199],[6.945038,4.796162],[6.945133,4.796208]]]}},{"type":"Feature","properties":{"h":3.0,"on_route":false},"geometry":{"type":"Polygon","coordinates":[[[6.944107,4.796909],[6.944063,4.796997],[6.944026,4.796978],[6.94407,4.796891],[6.944107,4.796909]]]}},{"type":"Feature","properties":{"h":3.0,"on_route":false},"geometry":{"type":"Polygon","coordinates":[[[6.944599,4.793287],[6.944324,4.793779],[6.944162,4.793688],[6.944437,4.793196],[6.944599,4.793287]]]}},{"type":"Feature","properties":{"h":3.0,"on_route":false},"geometry":{"type":"Polygon","coordinates":[[[6.939534,4.800383],[6.939446,4.800489],[6.939333,4.800395],[6.939422,4.800289],[6.939534,4.800383]]]}},{"type":"Feature","properties":{"h":3.0,"on_route":false},"geometry":{"type":"Polygon","coordinates":[[[6.943922,4.793921],[6.943715,4.794287],[6.942854,4.793799],[6.942879,4.793755],[6.942789,4.793704],[6.94297,4.793382],[6.943922,4.793921]]]}},{"type":"Feature","properties":{"h":3.0,"on_route":false},"geometry":{"type":"Polygon","coordinates":[[[6.943352,4.796285],[6.943328,4.796404],[6.943102,4.796359],[6.943126,4.79624],[6.943352,4.796285]]]}},{"type":"Feature","properties":{"h":3.0,"on_route":false},"geometry":{"type":"Polygon","coordinates":[[[6.944616,4.793704],[6.944582,4.793782],[6.944556,4.79377],[6.94459,4.793693],[6.944616,4.793704]]]}},{"type":"Feature","properties":{"h":3.0,"on_route":false},"geometry":{"type":"Polygon","coordinates":[[[6.944374,4.797028],[6.94437,4.797054],[6.944345,4.79705],[6.944349,4.797024],[6.944374,4.797028]]]}},{"type":"Feature","properties":{"h":3.0,"on_route":false},"geometry":{"type":"Polygon","coordinates":[[[6.944632,4.797668],[6.944592,4.797762],[6.944414,4.797684],[6.944455,4.797591],[6.944632,4.797668]]]}},{"type":"Feature","properties":{"h":3.0,"on_route":false},"geometry":{"type":"Polygon","coordinates":[[[6.940461,4.798323],[6.94041,4.798415],[6.940438,4.79843],[6.940374,4.798546],[6.940346,4.798531],[6.940313,4.798592],[6.940092,4.79847],[6.940142,4.798378],[6.940116,4.798364],[6.940169,4.798268],[6.940195,4.798283],[6.94024,4.798201],[6.940461,4.798323]]]}},{"type":"Feature","properties":{"h":3.0,"on_route":false},"geometry":{"type":"Polygon","coordinates":[[[6.94375,4.796299],[6.943707,4.79651],[6.943516,4.796471],[6.943527,4.796416],[6.943579,4.796427],[6.943611,4.79627],[6.94375,4.796299]]]}},{"type":"Feature","properties":{"h":3.0,"on_route":false},"geometry":{"type":"Polygon","coordinates":[[[6.940172,4.797643],[6.940197,4.79762],[6.940325,4.797766],[6.940285,4.797802],[6.940309,4.79783],[6.940144,4.797976],[6.9401,4.797925],[6.940071,4.797951],[6.939979,4.797846],[6.940008,4.79782],[6.939943,4.797746],[6.940123,4.797587],[6.940172,4.797643]]]}},{"type":"Feature","properties":{"h":3.0,"on_route":false},"geometry":{"type":"Polygon","coordinates":[[[6.942508,4.793625],[6.942493,4.793656],[6.942436,4.793627],[6.942452,4.793596],[6.942508,4.793625]]]}},{"type":"Feature","properties":{"h":3.0,"on_route":false},"geometry":{"type":"Polygon","coordinates":[[[6.943271,4.798133],[6.943263,4.798181],[6.943158,4.798164],[6.943166,4.798115],[6.943271,4.798133]]]}},{"type":"Feature","properties":{"h":3.0,"on_route":false},"geometry":{"type":"Polygon","coordinates":[[[6.940658,4.797981],[6.94069,4.797994],[6.94062,4.79816],[6.940503,4.798188],[6.940418,4.798151],[6.940426,4.798134],[6.940332,4.798093],[6.940418,4.797891],[6.940439,4.7979],[6.940468,4.797833],[6.940682,4.797925],[6.940658,4.797981]]]}},{"type":"Feature","properties":{"h":3.0,"on_route":false},"geometry":{"type":"Polygon","coordinates":[[[6.941318,4.796545],[6.941209,4.796747],[6.940964,4.796613],[6.941074,4.796412],[6.941318,4.796545]]]}},{"type":"Feature","properties":{"h":3.0,"on_route":false},"geometry":{"type":"Polygon","coordinates":[[[6.9439,4.795443],[6.943877,4.795499],[6.943834,4.795481],[6.943857,4.795425],[6.9439,4.795443]]]}},{"type":"Feature","properties":{"h":3.0,"on_route":false},"geometry":{"type":"Polygon","coordinates":[[[6.940073,4.796909],[6.940038,4.796921],[6.940028,4.796891],[6.940064,4.79688],[6.940073,4.796909]]]}},{"type":"Feature","properties":{"h":3.0,"on_route":false},"geometry":{"type":"Polygon","coordinates":[[[6.941955,4.795509],[6.941936,4.795557],[6.941891,4.795539],[6.94191,4.795491],[6.941955,4.795509]]]}},{"type":"Feature","properties":{"h":3.0,"on_route":false},"geometry":{"type":"Polygon","coordinates":[[[6.943645,4.796126],[6.943618,4.796123],[6.943602,4.796268],[6.943524,4.796259],[6.943536,4.79614],[6.943579,4.796145],[6.943593,4.796013],[6.943656,4.79602],[6.943645,4.796126]]]}},{"type":"Feature","properties":{"h":3.0,"on_route":false},"geometry":{"type":"Polygon","coordinates":[[[6.939561,4.798066],[6.939549,4.798128],[6.939399,4.798099],[6.939411,4.798036],[6.939561,4.798066]]]}},{"type":"Feature","properties":{"h":3.0,"on_route":false},"geometry":{"type":"Polygon","coordinates":[[[6.942979,4.79411],[6.94295,4.794162],[6.942819,4.794088],[6.942848,4.794036],[6.942979,4.79411]]]}},{"type":"Feature","properties":{"h":3.0,"on_route":false},"geometry":{"type":"Polygon","coordinates":[[[6.942895,4.797022],[6.942888,4.797075],[6.942787,4.79706],[6.942794,4.797008],[6.942895,4.797022]]]}},{"type":"Feature","properties":{"h":3.0,"on_route":false},"geometry":{"type":"Polygon","coordinates":[[[6.943783,4.796422],[6.943772,4.79647],[6.943746,4.796464],[6.943757,4.796416],[6.943783,4.796422]]]}},{"type":"Feature","properties":{"h":3.0,"on_route":false},"geometry":{"type":"Polygon","coordinates":[[[6.943992,4.797185],[6.943931,4.7974],[6.943803,4.797363],[6.943864,4.797149],[6.943992,4.797185]]]}},{"type":"Feature","properties":{"h":3.0,"on_route":false},"geometry":{"type":"Polygon","coordinates":[[[6.94397,4.795789],[6.943925,4.795883],[6.943706,4.795778],[6.943751,4.795684],[6.94397,4.795789]]]}},{"type":"Feature","properties":{"h":3.0,"on_route":false},"geometry":{"type":"Polygon","coordinates":[[[6.943194,4.798469],[6.943107,4.798512],[6.943073,4.798443],[6.94316,4.7984],[6.943194,4.798469]]]}},{"type":"Feature","properties":{"h":3.0,"on_route":false},"geometry":{"type":"Polygon","coordinates":[[[6.942227,4.795548],[6.942187,4.795531],[6.942232,4.795429],[6.942272,4.795447],[6.942227,4.795548]]]}},{"type":"Feature","properties":{"h":3.0,"on_route":false},"geometry":{"type":"Polygon","coordinates":[[[6.942682,4.798067],[6.942673,4.79813],[6.942602,4.79812],[6.942611,4.798057],[6.942682,4.798067]]]}},{"type":"Feature","properties":{"h":3.0,"on_route":false},"geometry":{"type":"Polygon","coordinates":[[[6.939235,4.797264],[6.939203,4.797317],[6.939139,4.797277],[6.939172,4.797225],[6.939235,4.797264]]]}},{"type":"Feature","properties":{"h":3.0,"on_route":false},"geometry":{"type":"Polygon","coordinates":[[[6.939598,4.798514],[6.939596,4.798539],[6.939673,4.798543],[6.939663,4.798713],[6.939532,4.798705],[6.939533,4.798678],[6.939477,4.798675],[6.939484,4.798569],[6.939509,4.79857],[6.939513,4.798509],[6.939598,4.798514]]]}},{"type":"Feature","properties":{"h":3.0,"on_route":false},"geometry":{"type":"Polygon","coordinates":[[[6.939897,4.79876],[6.939844,4.798798],[6.939856,4.798813],[6.939807,4.798849],[6.939796,4.798833],[6.939765,4.798855],[6.939737,4.798816],[6.93972,4.798829],[6.939673,4.798763],[6.93969,4.79875],[6.939662,4.798713],[6.939794,4.798617],[6.939897,4.79876]]]}},{"type":"Feature","properties":{"h":3.0,"on_route":false},"geometry":{"type":"Polygon","coordinates":[[[6.945026,4.795176],[6.944983,4.795264],[6.944882,4.795214],[6.944924,4.795127],[6.945026,4.795176]]]}},{"type":"Feature","properties":{"h":3.0,"on_route":false},"geometry":{"type":"Polygon","coordinates":[[[6.944668,4.794076],[6.944583,4.794248],[6.944461,4.794188],[6.944546,4.794015],[6.944668,4.794076]]]}},{"type":"Feature","properties":{"h":3.0,"on_route":false},"geometry":{"type":"Polygon","coordinates":[[[6.94438,4.795839],[6.944333,4.795934],[6.944235,4.795885],[6.944283,4.79579],[6.94438,4.795839]]]}},{"type":"Feature","properties":{"h":3.0,"on_route":false},"geometry":{"type":"Polygon","coordinates":[[[6.942476,4.795534],[6.942431,4.795631],[6.942297,4.79557],[6.942342,4.795472],[6.942476,4.795534]]]}},{"type":"Feature","properties":{"h":3.0,"on_route":false},"geometry":{"type":"Polygon","coordinates":[[[6.945069,4.797525],[6.944985,4.797689],[6.944581,4.79748],[6.944665,4.797316],[6.945069,4.797525]]]}},{"type":"Feature","properties":{"h":3.0,"on_route":false},"geometry":{"type":"Polygon","coordinates":[[[6.939109,4.797805],[6.939104,4.79785],[6.939059,4.797844],[6.939064,4.7978],[6.939109,4.797805]]]}},{"type":"Feature","properties":{"h":3.0,"on_route":false},"geometry":{"type":"Polygon","coordinates":[[[6.943646,4.795799],[6.943627,4.795892],[6.943585,4.795883],[6.943604,4.79579],[6.943646,4.795799]]]}},{"type":"Feature","properties":{"h":3.0,"on_route":false},"geometry":{"type":"Polygon","coordinates":[[[6.943805,4.796065],[6.943754,4.796311],[6.943613,4.796282],[6.943663,4.796036],[6.943805,4.796065]]]}},{"type":"Feature","properties":{"h":3.0,"on_route":false},"geometry":{"type":"Polygon","coordinates":[[[6.94156,4.798864],[6.941463,4.799028],[6.941131,4.79883],[6.941229,4.798666],[6.94156,4.798864]]]}},{"type":"Feature","properties":{"h":3.0,"on_route":false},"geometry":{"type":"Polygon","coordinates":[[[6.93923,4.79839],[6.939224,4.798425],[6.939181,4.798417],[6.93917,4.798476],[6.939119,4.798467],[6.939136,4.798373],[6.93923,4.79839]]]}},{"type":"Feature","properties":{"h":3.0,"on_route":false},"geometry":{"type":"Polygon","coordinates":[[[6.943603,4.795271],[6.943568,4.795342],[6.943518,4.795317],[6.943553,4.795246],[6.943603,4.795271]]]}},{"type":"Feature","properties":{"h":3.0,"on_route":false},"geometry":{"type":"Polygon","coordinates":[[[6.939557,4.797103],[6.93954,4.797138],[6.939503,4.79712],[6.939519,4.797085],[6.939557,4.797103]]]}},{"type":"Feature","properties":{"h":3.0,"on_route":false},"geometry":{"type":"Polygon","coordinates":[[[6.942295,4.796286],[6.942074,4.796693],[6.941278,4.796258],[6.941498,4.795851],[6.942295,4.796286]]]}},{"type":"Feature","properties":{"h":3.0,"on_route":false},"geometry":{"type":"Polygon","coordinates":[[[6.944697,4.795669],[6.944673,4.795708],[6.944577,4.795651],[6.9446,4.795611],[6.944697,4.795669]]]}},{"type":"Feature","properties":{"h":3.0,"on_route":false},"geometry":{"type":"Polygon","coordinates":[[[6.943587,4.79663],[6.943563,4.79674],[6.94352,4.796731],[6.943543,4.796621],[6.943587,4.79663]]]}},{"type":"Feature","properties":{"h":3.0,"on_route":false},"geometry":{"type":"Polygon","coordinates":[[[6.942877,4.798539],[6.942915,4.798617],[6.942876,4.798636],[6.942838,4.798558],[6.942877,4.798539]]]}},{"type":"Feature","properties":{"h":3.0,"on_route":false},"geometry":{"type":"Polygon","coordinates":[[[6.939411,4.797808],[6.939394,4.79785],[6.939361,4.797837],[6.939379,4.797795],[6.939411,4.797808]]]}},{"type":"Feature","properties":{"h":3.0,"on_route":false},"geometry":{"type":"Polygon","coordinates":[[[6.943125,4.798261],[6.943053,4.798283],[6.943032,4.798214],[6.943104,4.798192],[6.943125,4.798261]]]}},{"type":"Feature","properties":{"h":3.0,"on_route":false},"geometry":{"type":"Polygon","coordinates":[[[6.943526,4.798248],[6.943526,4.798325],[6.943499,4.798325],[6.943499,4.798248],[6.943526,4.798248]]]}},{"type":"Feature","properties":{"h":3.0,"on_route":false},"geometry":{"type":"Polygon","coordinates":[[[6.943712,4.796604],[6.943678,4.796765],[6.943629,4.796754],[6.943634,4.79673],[6.94357,4.796716],[6.943599,4.79658],[6.943712,4.796604]]]}},{"type":"Feature","properties":{"h":3.0,"on_route":false},"geometry":{"type":"Polygon","coordinates":[[[6.939883,4.797481],[6.939912,4.797481],[6.939908,4.797639],[6.939861,4.797637],[6.939859,4.797703],[6.939683,4.797698],[6.939684,4.797673],[6.939598,4.79767],[6.939603,4.797468],[6.939638,4.797469],[6.93964,4.797392],[6.939886,4.797399],[6.939883,4.797481]]]}},{"type":"Feature","properties":{"h":3.0,"on_route":false},"geometry":{"type":"Polygon","coordinates":[[[6.942896,4.795935],[6.942885,4.795985],[6.942801,4.795967],[6.942811,4.795917],[6.942896,4.795935]]]}},{"type":"Feature","properties":{"h":3.0,"on_route":false},"geometry":{"type":"Polygon","coordinates":[[[6.943748,4.795072],[6.943641,4.795289],[6.943553,4.795246],[6.943661,4.795028],[6.943748,4.795072]]]}},{"type":"Feature","properties":{"h":3.0,"on_route":false},"geometry":{"type":"Polygon","coordinates":[[[6.943226,4.795961],[6.943222,4.795985],[6.943113,4.795967],[6.943117,4.795943],[6.943226,4.795961]]]}},{"type":"Feature","properties":{"h":3.0,"on_route":false},"geometry":{"type":"Polygon","coordinates":[[[6.942333,4.798787],[6.942298,4.798798],[6.942287,4.798763],[6.942322,4.798752],[6.942333,4.798787]]]}},{"type":"Feature","properties":{"h":3.0,"on_route":false},"geometry":{"type":"Polygon","coordinates":[[[6.944839,4.79592],[6.944781,4.796032],[6.944614,4.795945],[6.944672,4.795834],[6.944839,4.79592]]]}},{"type":"Feature","properties":{"h":3.0,"on_route":false},"geometry":{"type":"Polygon","coordinates":[[[6.944073,4.798439],[6.943938,4.79857],[6.943873,4.798501],[6.944008,4.798371],[6.944073,4.798439]]]}},{"type":"Feature","properties":{"h":3.0,"on_route":false},"geometry":{"type":"Polygon","coordinates":[[[6.942838,4.798558],[6.942874,4.798632],[6.942836,4.798651],[6.9428,4.798577],[6.942838,4.798558]]]}},{"type":"Feature","properties":{"h":3.0,"on_route":false},"geometry":{"type":"Polygon","coordinates":[[[6.942591,4.7981],[6.942578,4.798179],[6.942534,4.798171],[6.942547,4.798093],[6.942591,4.7981]]]}},{"type":"Feature","properties":{"h":3.0,"on_route":false},"geometry":{"type":"Polygon","coordinates":[[[6.944775,4.79636],[6.944734,4.796446],[6.944507,4.796336],[6.944549,4.79625],[6.944775,4.79636]]]}},{"type":"Feature","properties":{"h":3.0,"on_route":false},"geometry":{"type":"Polygon","coordinates":[[[6.941949,4.79757],[6.941921,4.797556],[6.941954,4.797489],[6.941982,4.797504],[6.941949,4.79757]]]}},{"type":"Feature","properties":{"h":3.0,"on_route":false},"geometry":{"type":"Polygon","coordinates":[[[6.943753,4.79559],[6.943736,4.795643],[6.943685,4.795626],[6.943702,4.795573],[6.943753,4.79559]]]}},{"type":"Feature","properties":{"h":3.0,"on_route":false},"geometry":{"type":"Polygon","coordinates":[[[6.944142,4.796732],[6.944129,4.796782],[6.944089,4.796772],[6.944069,4.796849],[6.943956,4.796819],[6.94399,4.796691],[6.944142,4.796732]]]}},{"type":"Feature","properties":{"h":3.0,"on_route":false},"geometry":{"type":"Polygon","coordinates":[[[6.940999,4.79974],[6.940938,4.799857],[6.940904,4.79984],[6.940965,4.799723],[6.940999,4.79974]]]}},{"type":"Feature","properties":{"h":3.0,"on_route":false},"geometry":{"type":"Polygon","coordinates":[[[6.939152,4.79783],[6.939146,4.797871],[6.939117,4.797867],[6.939123,4.797826],[6.939152,4.79783]]]}},{"type":"Feature","properties":{"h":3.0,"on_route":false},"geometry":{"type":"Polygon","coordinates":[[[6.942629,4.795598],[6.942628,4.795624],[6.942578,4.795622],[6.94258,4.795596],[6.942629,4.795598]]]}},{"type":"Feature","properties":{"h":3.0,"on_route":false},"geometry":{"type":"Polygon","coordinates":[[[6.944334,4.796885],[6.94429,4.796981],[6.944208,4.796943],[6.944253,4.796846],[6.944334,4.796885]]]}},{"type":"Feature","properties":{"h":3.0,"on_route":false},"geometry":{"type":"Polygon","coordinates":[[[6.942802,4.79868],[6.942581,4.798803],[6.942528,4.798708],[6.94275,4.798585],[6.942802,4.79868]]]}},{"type":"Feature","properties":{"h":3.0,"on_route":false},"geometry":{"type":"Polygon","coordinates":[[[6.944438,4.796191],[6.944413,4.796274],[6.944362,4.796259],[6.944386,4.796176],[6.944438,4.796191]]]}},{"type":"Feature","properties":{"h":3.0,"on_route":false},"geometry":{"type":"Polygon","coordinates":[[[6.94379,4.79499],[6.943783,4.795019],[6.943737,4.795007],[6.943744,4.794979],[6.94379,4.79499]]]}},{"type":"Feature","properties":{"h":3.0,"on_route":false},"geometry":{"type":"Polygon","coordinates":[[[6.939208,4.798252],[6.939201,4.798294],[6.939117,4.798281],[6.939123,4.798239],[6.939208,4.798252]]]}},{"type":"Feature","properties":{"h":3.0,"on_route":false},"geometry":{"type":"Polygon","coordinates":[[[6.942215,4.794644],[6.942203,4.794671],[6.942169,4.794656],[6.942181,4.794629],[6.942215,4.794644]]]}},{"type":"Feature","properties":{"h":3.0,"on_route":false},"geometry":{"type":"Polygon","coordinates":[[[6.944058,4.798681],[6.944198,4.79884],[6.944163,4.798871],[6.944023,4.798712],[6.944058,4.798681]]]}},{"type":"Feature","properties":{"h":3.0,"on_route":false},"geometry":{"type":"Polygon","coordinates":[[[6.93635,4.796226],[6.936349,4.796256],[6.936318,4.796255],[6.936319,4.796225],[6.93635,4.796226]]]}},{"type":"Feature","properties":{"h":3.0,"on_route":false},"geometry":{"type":"Polygon","coordinates":[[[6.9442,4.796623],[6.944188,4.796676],[6.944072,4.79665],[6.944083,4.796597],[6.9442,4.796623]]]}},{"type":"Feature","properties":{"h":3.0,"on_route":false},"geometry":{"type":"Polygon","coordinates":[[[6.940517,4.796773],[6.94046,4.79683],[6.940695,4.797069],[6.940595,4.797168],[6.940271,4.796838],[6.940428,4.796682],[6.940517,4.796773]]]}},{"type":"Feature","properties":{"h":3.0,"on_route":false},"geometry":{"type":"Polygon","coordinates":[[[6.942911,4.799417],[6.942855,4.799591],[6.941564,4.799171],[6.94162,4.798996],[6.942911,4.799417]]]}},{"type":"Feature","properties":{"h":3.0,"on_route":false},"geometry":{"type":"Polygon","coordinates":[[[6.942644,4.798434],[6.942615,4.798512],[6.942555,4.79849],[6.942584,4.798412],[6.942644,4.798434]]]}},{"type":"Feature","properties":{"h":3.0,"on_route":false},"geometry":{"type":"Polygon","coordinates":[[[6.944041,4.796348],[6.943983,4.796594],[6.943891,4.796572],[6.943949,4.796326],[6.944041,4.796348]]]}},{"type":"Feature","properties":{"h":3.0,"on_route":false},"geometry":{"type":"Polygon","coordinates":[[[6.944829,4.79456],[6.944804,4.794616],[6.944728,4.794582],[6.944753,4.794526],[6.944829,4.79456]]]}},{"type":"Feature","properties":{"h":3.0,"on_route":false},"geometry":{"type":"Polygon","coordinates":[[[6.943921,4.796704],[6.943906,4.796788],[6.943768,4.796764],[6.943783,4.79668],[6.943921,4.796704]]]}}]}