{"type":"FeatureCollection","features":[{"type":"Feature","properties":{"h":3.0,"on_route":false},"geometry":{"type":"Polygon","coordinates":[[[7.007214,4.760495],[7.00719,4.760526],[7.007275,4.760592],[7.007201,4.760687],[7.006993,4.760525],[7.00705,4.760452],[7.007067,4.760466],[7.007108,4.760413],[7.007214,4.760495]]]}},{"type":"Feature","properties":{"h":3.0,"on_route":false},"geometry":{"type":"Polygon","coordinates":[[[7.00835,4.761828],[7.008339,4.761964],[7.008204,4.761952],[7.008216,4.761817],[7.00835,4.761828]]]}},{"type":"Feature","properties":{"h":3.0,"on_route":false},"geometry":{"type":"Polygon","coordinates":[[[7.007839,4.760135],[7.007835,4.760186],[7.007777,4.760181],[7.007781,4.76013],[7.007839,4.760135]]]}},{"type":"Feature","properties":{"h":3.0,"on_route":false},"geometry":{"type":"Polygon","coordinates":[[[7.007839,4.76195],[7.007772,4.761996],[7.007652,4.761823],[7.007719,4.761776],[7.007839,4.76195]]]}},{"type":"Feature","properties":{"h":3.0,"on_route":false},"geometry":{"type":"Polygon","coordinates":[[[7.007096,4.758126],[7.007094,4.758156],[7.007058,4.758154],[7.00706,4.758124],[7.007096,4.758126]]]}},{"type":"Feature","properties":{"h":3.0,"on_route":false},"geometry":{"type":"Polygon","coordinates":[[[7.00651,4.75805],[7.006455,4.758108],[7.006372,4.75803],[7.006426,4.757972],[7.00651,4.75805]]]}},{"type":"Feature","properties":{"h":3.0,"on_route":false},"geometry":{"type":"Polygon","coordinates":[[[7.009362,4.762677],[7.009361,4.762704],[7.009334,4.762702],[7.009336,4.762676],[7.009362,4.762677]]]}},{"type":"Feature","properties":{"h":3.0,"on_route":false},"geometry":{"type":"Polygon","coordinates":[[[7.006249,4.762952],[7.006255,4.763036],[7.006163,4.763042],[7.006157,4.762959],[7.006249,4.762952]]]}},{"type":"Feature","properties":{"h":3.0,"on_route":false},"geometry":{"type":"Polygon","coordinates":[[[7.006185,4.759851],[7.006033,4.759873],[7.006027,4.759823],[7.006178,4.759802],[7.006185,4.759851]]]}},{"type":"Feature","properties":{"h":3.0,"on_route":false},"geometry":{"type":"Polygon","coordinates":[[[7.00619,4.76254],[7.006187,4.762592],[7.006209,4.762593],[7.006203,4.762692],[7.00605,4.762683],[7.006059,4.762532],[7.00619,4.76254]]]}},{"type":"Feature","properties":{"h":3.0,"on_route":false},"geometry":{"type":"Polygon","coordinates":[[[7.007985,4.760117],[7.008102,4.760123],[7.008096,4.760239],[7.007979,4.760234],[7.007985,4.760117]]]}},{"type":"Feature","properties":{"h":3.0,"on_route":false},"geometry":{"type":"Polygon","coordinates":[[[7.008206,4.76027],[7.00821,4.760387],[7.00812,4.76039],[7.008116,4.760273],[7.008206,4.76027]]]}},{"type":"Feature","properties":{"h":3.0,"on_route":false},"geometry":{"type":"Polygon","coordinates":[[[7.007639,4.761282],[7.007603,4.761304],[7.007549,4.761214],[7.007585,4.761192],[7.007639,4.761282]]]}},{"type":"Feature","properties":{"h":3.0,"on_route":false},"geometry":{"type":"Polygon","coordinates":[[[7.007937,4.76178],[7.007939,4.761956],[7.007881,4.761956],[7.00788,4.761873],[7.007857,4.761874],[7.007857,4.761831],[7.007838,4.761831],[7.007837,4.761781],[7.007937,4.76178]]]}},{"type":"Feature","properties":{"h":3.0,"on_route":false},"geometry":{"type":"Polygon","coordinates":[[[7.00835,4.761534],[7.008349,4.761554],[7.008397,4.761558],[7.00839,4.761649],[7.008259,4.761639],[7.008268,4.761528],[7.00835,4.761534]]]}},{"type":"Feature","properties":{"h":3.0,"on_route":false},"geometry":{"type":"Polygon","coordinates":[[[7.00933,4.762401],[7.009322,4.762767],[7.00924,4.762765],[7.009248,4.762399],[7.00933,4.762401]]]}},{"type":"Feature","properties":{"h":3.0,"on_route":false},"geometry":{"type":"Polygon","coordinates":[[[7.010315,4.765399],[7.010249,4.765421],[7.010217,4.765319],[7.010194,4.765327],[7.010165,4.765238],[7.010254,4.765209],[7.010315,4.765399]]]}},{"type":"Feature","properties":{"h":3.0,"on_route":false},"geometry":{"type":"Polygon","coordinates":[[[7.007808,4.759408],[7.007807,4.75949],[7.007667,4.759488],[7.007668,4.759406],[7.007808,4.759408]]]}},{"type":"Feature","properties":{"h":3.0,"on_route":false},"geometry":{"type":"Polygon","coordinates":[[[7.010422,4.764133],[7.010212,4.764328],[7.010144,4.764254],[7.010354,4.76406],[7.010422,4.764133]]]}},{"type":"Feature","properties":{"h":3.0,"on_route":false},"geometry":{"type":"Polygon","coordinates":[[[7.008397,4.75956],[7.008394,4.759642],[7.008323,4.759639],[7.008325,4.759557],[7.008397,4.75956]]]}},{"type":"Feature","properties":{"h":3.0,"on_route":false},"geometry":{"type":"Polygon","coordinates":[[[7.006472,4.760373],[7.006422,4.760434],[7.00631,4.760341],[7.00636,4.76028],[7.006472,4.760373]]]}},{"type":"Feature","properties":{"h":3.0,"on_route":false},"geometry":{"type":"Polygon","coordinates":[[[7.009087,4.764633],[7.008999,4.764719],[7.008975,4.764695],[7.009064,4.764609],[7.009087,4.764633]]]}},{"type":"Feature","properties":{"h":3.0,"on_route":false},"geometry":{"type":"Polygon","coordinates":[[[7.007975,4.758551],[7.00797,4.758701],[7.007919,4.758699],[7.00792,4.758664],[7.007873,4.758662],[7.007874,4.758632],[7.007856,4.758631],[7.007853,4.758697],[7.007813,4.758695],[7.007818,4.758546],[7.007975,4.758551]]]}},{"type":"Feature","properties":{"h":3.0,"on_route":false},"geometry":{"type":"Polygon","coordinates":[[[7.008131,4.761657],[7.008127,4.761724],[7.00808,4.761722],[7.008083,4.761655],[7.008131,4.761657]]]}},{"type":"Feature","properties":{"h":3.0,"on_route":false},"geometry":{"type":"Polygon","coordinates":[[[7.006999,4.760776],[7.006949,4.760841],[7.006868,4.76078],[7.006918,4.760714],[7.006999,4.760776]]]}},{"type":"Feature","properties":{"h":3.0,"on_route":false},"geometry":{"type":"Polygon","coordinates":[[[7.010335,4.763253],[7.010257,4.7633],[7.010236,4.763263],[7.010313,4.763217],[7.010335,4.763253]]]}},{"type":"Feature","properties":{"h":3.0,"on_route":false},"geometry":{"type":"Polygon","coordinates":[[[7.009607,4.762058],[7.009606,4.762103],[7.009562,4.762102],[7.009563,4.762057],[7.009607,4.762058]]]}},{"type":"Feature","properties":{"h":3.0,"on_route":false},"geometry":{"type":"Polygon","coordinates":[[[7.008026,4.761615],[7.007968,4.761651],[7.007984,4.761676],[7.007941,4.761704],[7.007888,4.761621],[7.007989,4.761557],[7.008026,4.761615]]]}},{"type":"Feature","properties":{"h":3.0,"on_route":false},"geometry":{"type":"Polygon","coordinates":[[[7.00676,4.760358],[7.006668,4.760464],[7.006566,4.760375],[7.006657,4.760269],[7.00676,4.760358]]]}},{"type":"Feature","properties":{"h":3.0,"on_route":false},"geometry":{"type":"Polygon","coordinates":[[[7.006418,4.758064],[7.006389,4.758102],[7.006332,4.758059],[7.006361,4.758021],[7.006418,4.758064]]]}},{"type":"Feature","properties":{"h":3.0,"on_route":false},"geometry":{"type":"Polygon","coordinates":[[[7.007687,4.761149],[7.007712,4.761134],[7.007758,4.761209],[7.007639,4.761282],[7.007573,4.761173],[7.007667,4.761115],[7.007687,4.761149]]]}},{"type":"Feature","properties":{"h":3.0,"on_route":false},"geometry":{"type":"Polygon","coordinates":[[[7.006969,4.760536],[7.006886,4.76064],[7.00677,4.760548],[7.006853,4.760443],[7.006969,4.760536]]]}},{"type":"Feature","properties":{"h":3.0,"on_route":false},"geometry":{"type":"Polygon","coordinates":[[[7.008417,4.761167],[7.008408,4.761278],[7.008364,4.761274],[7.008366,4.761249],[7.008284,4.761242],[7.008291,4.761157],[7.008417,4.761167]]]}},{"type":"Feature","properties":{"h":3.0,"on_route":false},"geometry":{"type":"Polygon","coordinates":[[[7.006891,4.763848],[7.006971,4.763792],[7.007484,4.764534],[7.007467,4.764546],[7.007482,4.764567],[7.007442,4.764595],[7.007472,4.764639],[7.00745,4.764655],[7.007487,4.764709],[7.007137,4.764953],[7.006502,4.764035],[7.006852,4.763791],[7.006891,4.763848]]]}},{"type":"Feature","properties":{"h":3.0,"on_route":false},"geometry":{"type":"Polygon","coordinates":[[[7.007749,4.759535],[7.007742,4.759664],[7.007677,4.75966],[7.007684,4.759531],[7.007749,4.759535]]]}},{"type":"Feature","properties":{"h":3.0,"on_route":false},"geometry":{"type":"Polygon","coordinates":[[[7.006549,4.760893],[7.006539,4.760921],[7.006512,4.760912],[7.006523,4.760883],[7.006549,4.760893]]]}},{"type":"Feature","properties":{"h":3.0,"on_route":false},"geometry":{"type":"Polygon","coordinates":[[[7.007101,4.760199],[7.00711,4.760363],[7.007056,4.760366],[7.007054,4.760339],[7.007025,4.760341],[7.007023,4.760301],[7.006982,4.760303],[7.006977,4.760206],[7.007101,4.760199]]]}},{"type":"Feature","properties":{"h":3.0,"on_route":false},"geometry":{"type":"Polygon","coordinates":[[[7.006333,4.759747],[7.006197,4.759766],[7.006184,4.759673],[7.006321,4.759654],[7.006333,4.759747]]]}},{"type":"Feature","properties":{"h":3.0,"on_route":false},"geometry":{"type":"Polygon","coordinates":[[[7.006706,4.759633],[7.006513,4.759661],[7.006496,4.759545],[7.006689,4.759518],[7.006706,4.759633]]]}},{"type":"Feature","properties":{"h":3.0,"on_route":false},"geometry":{"type":"Polygon","coordinates":[[[7.006493,4.760008],[7.006497,4.760077],[7.006436,4.760081],[7.006435,4.760058],[7.00638,4.760061],[7.006377,4.760015],[7.006493,4.760008]]]}},{"type":"Feature","properties":{"h":3.0,"on_route":false},"geometry":{"type":"Polygon","coordinates":[[[7.007406,4.760929],[7.007295,4.761003],[7.007232,4.76091],[7.007344,4.760835],[7.007406,4.760929]]]}},{"type":"Feature","properties":{"h":3.0,"on_route":false},"geometry":{"type":"Polygon","coordinates":[[[7.008947,4.761867],[7.008934,4.761964],[7.008846,4.761952],[7.008858,4.761855],[7.008947,4.761867]]]}},{"type":"Feature","properties":{"h":3.0,"on_route":false},"geometry":{"type":"Polygon","coordinates":[[[7.007586,4.758417],[7.007571,4.758508],[7.007422,4.758483],[7.007437,4.758391],[7.007586,4.758417]]]}},{"type":"Feature","properties":{"h":3.0,"on_route":false},"geometry":{"type":"Polygon","coordinates":[[[7.008426,4.762762],[7.008431,4.762787],[7.008405,4.762791],[7.008401,4.762766],[7.008426,4.762762]]]}},{"type":"Feature","properties":{"h":3.0,"on_route":false},"geometry":{"type":"Polygon","coordinates":[[[7.006394,4.757944],[7.006333,4.758],[7.006282,4.757944],[7.006342,4.757888],[7.006394,4.757944]]]}},{"type":"Feature","properties":{"h":3.0,"on_route":false},"geometry":{"type":"Polygon","coordinates":[[[7.007708,4.760853],[7.007617,4.760879],[7.00758,4.760747],[7.007671,4.760722],[7.007708,4.760853]]]}},{"type":"Feature","properties":{"h":3.0,"on_route":false},"geometry":{"type":"Polygon","coordinates":[[[7.009466,4.762871],[7.009464,4.762902],[7.009433,4.762901],[7.009435,4.76287],[7.009466,4.762871]]]}},{"type":"Feature","properties":{"h":3.0,"on_route":false},"geometry":{"type":"Polygon","coordinates":[[[7.005878,4.762149],[7.005856,4.762154],[7.005886,4.76229],[7.005743,4.762322],[7.005713,4.762185],[7.00574,4.762179],[7.005724,4.762109],[7.005818,4.762089],[7.005821,4.762104],[7.005866,4.762094],[7.005878,4.762149]]]}},{"type":"Feature","properties":{"h":3.0,"on_route":false},"geometry":{"type":"Polygon","coordinates":[[[7.009246,4.763481],[7.009244,4.763517],[7.009215,4.763515],[7.009217,4.763479],[7.009246,4.763481]]]}},{"type":"Feature","properties":{"h":3.0,"on_route":false},"geometry":{"type":"Polygon","coordinates":[[[7.009552,4.763623],[7.009536,4.763647],[7.009511,4.763631],[7.009526,4.763607],[7.009552,4.763623]]]}},{"type":"Feature","properties":{"h":3.0,"on_route":false},"geometry":{"type":"Polygon","coordinates":[[[7.007308,4.759683],[7.007315,4.759812],[7.007205,4.759817],[7.007198,4.759689],[7.007308,4.759683]]]}},{"type":"Feature","properties":{"h":3.0,"on_route":false},"geometry":{"type":"Polygon","coordinates":[[[7.009825,4.763299],[7.009781,4.763314],[7.009759,4.763248],[7.009802,4.763233],[7.009825,4.763299]]]}},{"type":"Feature","properties":{"h":3.0,"on_route":false},"geometry":{"type":"Polygon","coordinates":[[[7.01048,4.76441],[7.01041,4.764473],[7.010384,4.764443],[7.010454,4.76438],[7.01048,4.76441]]]}},{"type":"Feature","properties":{"h":3.0,"on_route":false},"geometry":{"type":"Polygon","coordinates":[[[7.008176,4.760795],[7.008167,4.760878],[7.008028,4.760863],[7.008037,4.76078],[7.008176,4.760795]]]}},{"type":"Feature","properties":{"h":3.0,"on_route":false},"geometry":{"type":"Polygon","coordinates":[[[7.006533,4.758521],[7.006529,4.758614],[7.006369,4.758606],[7.006373,4.758513],[7.006533,4.758521]]]}},{"type":"Feature","properties":{"h":3.0,"on_route":false},"geometry":{"type":"Polygon","coordinates":[[[7.006493,4.759928],[7.006362,4.759946],[7.006348,4.759842],[7.006479,4.759824],[7.006493,4.759928]]]}},{"type":"Feature","properties":{"h":3.0,"on_route":false},"geometry":{"type":"Polygon","coordinates":[[[7.007207,4.760995],[7.007139,4.761041],[7.007102,4.760985],[7.00717,4.760939],[7.007207,4.760995]]]}},{"type":"Feature","properties":{"h":3.0,"on_route":false},"geometry":{"type":"Polygon","coordinates":[[[7.008054,4.758558],[7.008052,4.758581],[7.008134,4.758589],[7.008123,4.758706],[7.007965,4.75869],[7.007979,4.75855],[7.008054,4.758558]]]}},{"type":"Feature","properties":{"h":3.0,"on_route":false},"geometry":{"type":"Polygon","coordinates":[[[7.007929,4.759755],[7.007928,4.759824],[7.0078,4.759822],[7.007801,4.759753],[7.007929,4.759755]]]}},{"type":"Feature","properties":{"h":3.0,"on_route":false},"geometry":{"type":"Polygon","coordinates":[[[7.005982,4.760848],[7.005718,4.7609],[7.005702,4.760815],[7.005966,4.760764],[7.005982,4.760848]]]}},{"type":"Feature","properties":{"h":3.0,"on_route":false},"geometry":{"type":"Polygon","coordinates":[[[7.007543,4.759402],[7.007548,4.759501],[7.007448,4.759506],[7.007444,4.759407],[7.007543,4.759402]]]}},{"type":"Feature","properties":{"h":3.0,"on_route":false},"geometry":{"type":"Polygon","coordinates":[[[7.007959,4.759538],[7.007949,4.759677],[7.007834,4.759669],[7.007844,4.75953],[7.007959,4.759538]]]}},{"type":"Feature","properties":{"h":3.0,"on_route":false},"geometry":{"type":"Polygon","coordinates":[[[7.009618,4.761546],[7.009618,4.761592],[7.009595,4.761592],[7.009595,4.761546],[7.009618,4.761546]]]}},{"type":"Feature","properties":{"h":3.0,"on_route":false},"geometry":{"type":"Polygon","coordinates":[[[7.006142,4.759871],[7.006146,4.759903],[7.006104,4.759909],[7.0061,4.759877],[7.006142,4.759871]]]}},{"type":"Feature","properties":{"h":3.0,"on_route":false},"geometry":{"type":"Polygon","coordinates":[[[7.005468,4.758244],[7.005451,4.758178],[7.005352,4.758204],[7.005319,4.758076],[7.005001,4.758158],[7.004982,4.758081],[7.004783,4.758133],[7.004725,4.757906],[7.004755,4.757899],[7.004743,4.75785],[7.004769,4.757843],[7.004782,4.757892],[7.004959,4.757846],[7.004946,4.757797],[7.005417,4.757675],[7.005507,4.758023],[7.005546,4.758013],[7.005596,4.758211],[7.005468,4.758244]]]}},{"type":"Feature","properties":{"h":3.0,"on_route":false},"geometry":{"type":"Polygon","coordinates":[[[7.006696,4.757865],[7.006645,4.757918],[7.006562,4.757837],[7.006612,4.757785],[7.006696,4.757865]]]}},{"type":"Feature","properties":{"h":3.0,"on_route":false},"geometry":{"type":"Polygon","coordinates":[[[7.007836,4.761337],[7.007735,4.761398],[7.007658,4.761271],[7.007758,4.761209],[7.007836,4.761337]]]}},{"type":"Feature","properties":{"h":3.0,"on_route":false},"geometry":{"type":"Polygon","coordinates":[[[7.007936,4.761682],[7.007928,4.761736],[7.007947,4.761739],[7.007943,4.76177],[7.007799,4.761749],[7.007812,4.761664],[7.007936,4.761682]]]}},{"type":"Feature","properties":{"h":3.0,"on_route":false},"geometry":{"type":"Polygon","coordinates":[[[7.008004,4.760877],[7.007993,4.761002],[7.007917,4.760995],[7.007928,4.760871],[7.008004,4.760877]]]}},{"type":"Feature","properties":{"h":3.0,"on_route":false},"geometry":{"type":"Polygon","coordinates":[[[7.009567,4.762815],[7.009555,4.763175],[7.009474,4.763172],[7.009486,4.762812],[7.009567,4.762815]]]}},{"type":"Feature","properties":{"h":3.0,"on_route":false},"geometry":{"type":"Polygon","coordinates":[[[7.007865,4.76082],[7.007765,4.760824],[7.007762,4.760745],[7.007742,4.760746],[7.00774,4.760698],[7.00786,4.760693],[7.007865,4.76082]]]}},{"type":"Feature","properties":{"h":3.0,"on_route":false},"geometry":{"type":"Polygon","coordinates":[[[7.008232,4.762127],[7.008207,4.762277],[7.008125,4.762263],[7.008151,4.762113],[7.008232,4.762127]]]}},{"type":"Feature","properties":{"h":3.0,"on_route":false},"geometry":{"type":"Polygon","coordinates":[[[7.007984,4.761],[7.007972,4.761143],[7.0079,4.761137],[7.007912,4.760994],[7.007984,4.761]]]}},{"type":"Feature","properties":{"h":3.0,"on_route":false},"geometry":{"type":"Polygon","coordinates":[[[7.007987,4.759675],[7.007986,4.759697],[7.007963,4.759696],[7.007964,4.759673],[7.007987,4.759675]]]}},{"type":"Feature","properties":{"h":3.0,"on_route":false},"geometry":{"type":"Polygon","coordinates":[[[7.009649,4.762104],[7.009647,4.762186],[7.009426,4.76218],[7.009428,4.762098],[7.009649,4.762104]]]}},{"type":"Feature","properties":{"h":3.0,"on_route":false},"geometry":{"type":"Polygon","coordinates":[[[7.007316,4.758525],[7.00731,4.75867],[7.00715,4.758665],[7.007155,4.758519],[7.007316,4.758525]]]}},{"type":"Feature","properties":{"h":3.0,"on_route":false},"geometry":{"type":"Polygon","coordinates":[[[7.007727,4.758692],[7.00764,4.75869],[7.007645,4.758543],[7.007732,4.758546],[7.007727,4.758692]]]}},{"type":"Feature","properties":{"h":3.0,"on_route":false},"geometry":{"type":"Polygon","coordinates":[[[7.005339,4.759111],[7.005321,4.759132],[7.005346,4.759154],[7.005328,4.759174],[7.005266,4.759117],[7.005302,4.759077],[7.005339,4.759111]]]}},{"type":"Feature","properties":{"h":3.0,"on_route":false},"geometry":{"type":"Polygon","coordinates":[[[7.008361,4.760412],[7.008353,4.760469],[7.008283,4.760459],[7.008292,4.760402],[7.008361,4.760412]]]}},{"type":"Feature","properties":{"h":3.0,"on_route":false},"geometry":{"type":"Polygon","coordinates":[[[7.005212,4.75908],[7.005109,4.758961],[7.005407,4.758701],[7.005466,4.75877],[7.005548,4.758698],[7.005592,4.758749],[7.005212,4.75908]]]}},{"type":"Feature","properties":{"h":3.0,"on_route":false},"geometry":{"type":"Polygon","coordinates":[[[7.010079,4.765211],[7.01004,4.765251],[7.00994,4.765152],[7.00998,4.765113],[7.010079,4.765211]]]}},{"type":"Feature","properties":{"h":3.0,"on_route":false},"geometry":{"type":"Polygon","coordinates":[[[7.008457,4.759889],[7.008391,4.759892],[7.008387,4.759822],[7.008454,4.759818],[7.008457,4.759889]]]}},{"type":"Feature","properties":{"h":3.0,"on_route":false},"geometry":{"type":"Polygon","coordinates":[[[7.006788,4.75833],[7.006778,4.758422],[7.00652,4.758395],[7.00653,4.758302],[7.006788,4.75833]]]}},{"type":"Feature","properties":{"h":3.0,"on_route":false},"geometry":{"type":"Polygon","coordinates":[[[7.008179,4.76149],[7.008169,4.761595],[7.008061,4.761585],[7.008071,4.76148],[7.008179,4.76149]]]}},{"type":"Feature","properties":{"h":3.0,"on_route":false},"geometry":{"type":"Polygon","coordinates":[[[7.009731,4.761621],[7.009729,4.761674],[7.009637,4.761671],[7.009639,4.761618],[7.009731,4.761621]]]}},{"type":"Feature","properties":{"h":3.0,"on_route":false},"geometry":{"type":"Polygon","coordinates":[[[7.008339,4.761964],[7.008332,4.762046],[7.008274,4.762041],[7.008271,4.762075],[7.008195,4.762068],[7.008204,4.761952],[7.008339,4.761964]]]}},{"type":"Feature","properties":{"h":3.0,"on_route":false},"geometry":{"type":"Polygon","coordinates":[[[7.008178,4.760724],[7.008177,4.760757],[7.008013,4.760751],[7.008014,4.760717],[7.008178,4.760724]]]}},{"type":"Feature","properties":{"h":3.0,"on_route":false},"geometry":{"type":"Polygon","coordinates":[[[7.007735,4.761398],[7.007619,4.761469],[7.007565,4.76138],[7.007682,4.761309],[7.007735,4.761398]]]}},{"type":"Feature","properties":{"h":3.0,"on_route":false},"geometry":{"type":"Polygon","coordinates":[[[7.007092,4.758273],[7.007096,4.758244],[7.007266,4.758265],[7.007251,4.758389],[7.007081,4.758368],[7.007085,4.758335],[7.007061,4.758332],[7.007069,4.75827],[7.007092,4.758273]]]}},{"type":"Feature","properties":{"h":3.0,"on_route":false},"geometry":{"type":"Polygon","coordinates":[[[7.008131,4.759713],[7.008122,4.759835],[7.007987,4.759826],[7.007995,4.759704],[7.008131,4.759713]]]}},{"type":"Feature","properties":{"h":3.0,"on_route":false},"geometry":{"type":"Polygon","coordinates":[[[7.010104,4.764149],[7.010018,4.764211],[7.009893,4.764034],[7.009979,4.763973],[7.010104,4.764149]]]}},{"type":"Feature","properties":{"h":3.0,"on_route":false},"geometry":{"type":"Polygon","coordinates":[[[7.008462,4.759184],[7.008461,4.759333],[7.008406,4.759333],[7.008406,4.759184],[7.008462,4.759184]]]}},{"type":"Feature","properties":{"h":3.0,"on_route":false},"geometry":{"type":"Polygon","coordinates":[[[7.009373,4.76339],[7.009368,4.763475],[7.009155,4.763463],[7.00916,4.763378],[7.009373,4.76339]]]}},{"type":"Feature","properties":{"h":3.0,"on_route":false},"geometry":{"type":"Polygon","coordinates":[[[7.00897,4.766227],[7.008927,4.766254],[7.008894,4.766202],[7.008938,4.766175],[7.00897,4.766227]]]}},{"type":"Feature","properties":{"h":3.0,"on_route":false},"geometry":{"type":"Polygon","coordinates":[[[7.009433,4.766728],[7.009514,4.766843],[7.009482,4.766866],[7.0094,4.766752],[7.009433,4.766728]]]}},{"type":"Feature","properties":{"h":3.0,"on_route":false},"geometry":{"type":"Polygon","coordinates":[[[7.008396,4.761657],[7.008386,4.761773],[7.008251,4.761762],[7.008261,4.761645],[7.008396,4.761657]]]}},{"type":"Feature","properties":{"h":3.0,"on_route":false},"geometry":{"type":"Polygon","coordinates":[[[7.007932,4.759884],[7.007927,4.760003],[7.00784,4.759999],[7.007846,4.75988],[7.007932,4.759884]]]}},{"type":"Feature","properties":{"h":3.0,"on_route":false},"geometry":{"type":"Polygon","coordinates":[[[7.008116,4.759985],[7.008108,4.760105],[7.00798,4.760096],[7.007988,4.759976],[7.008116,4.759985]]]}},{"type":"Feature","properties":{"h":3.0,"on_route":false},"geometry":{"type":"Polygon","coordinates":[[[7.008923,4.763964],[7.008883,4.763999],[7.008854,4.763965],[7.008895,4.76393],[7.008923,4.763964]]]}},{"type":"Feature","properties":{"h":3.0,"on_route":false},"geometry":{"type":"Polygon","coordinates":[[[7.008663,4.763333],[7.008667,4.763362],[7.008637,4.763367],[7.008633,4.763338],[7.008663,4.763333]]]}},{"type":"Feature","properties":{"h":3.0,"on_route":false},"geometry":{"type":"Polygon","coordinates":[[[7.008459,4.762615],[7.008384,4.762646],[7.008248,4.762318],[7.008323,4.762287],[7.008459,4.762615]]]}},{"type":"Feature","properties":{"h":3.0,"on_route":false},"geometry":{"type":"Polygon","coordinates":[[[7.006465,4.761404],[7.006461,4.761457],[7.006483,4.761459],[7.006473,4.761582],[7.006284,4.761567],[7.006299,4.76139],[7.006465,4.761404]]]}},{"type":"Feature","properties":{"h":3.0,"on_route":false},"geometry":{"type":"Polygon","coordinates":[[[7.006312,4.759582],[7.006321,4.759649],[7.006276,4.759655],[7.006266,4.759589],[7.006312,4.759582]]]}},{"type":"Feature","properties":{"h":3.0,"on_route":false},"geometry":{"type":"Polygon","coordinates":[[[7.00753,4.76102],[7.007381,4.761114],[7.00733,4.761033],[7.007479,4.760939],[7.00753,4.76102]]]}},{"type":"Feature","properties":{"h":3.0,"on_route":false},"geometry":{"type":"Polygon","coordinates":[[[7.003988,4.758477],[7.003979,4.758504],[7.003952,4.758494],[7.003961,4.758467],[7.003988,4.758477]]]}},{"type":"Feature","properties":{"h":3.0,"on_route":false},"geometry":{"type":"Polygon","coordinates":[[[7.01008,4.764821],[7.010053,4.764819],[7.010055,4.764788],[7.010082,4.76479],[7.01008,4.764821]]]}},{"type":"Feature","properties":{"h":3.0,"on_route":false},"geometry":{"type":"Polygon","coordinates":[[[7.007414,4.759538],[7.00742,4.75966],[7.007307,4.759665],[7.007301,4.759544],[7.007414,4.759538]]]}},{"type":"Feature","properties":{"h":3.0,"on_route":false},"geometry":{"type":"Polygon","coordinates":[[[7.00632,4.759512],[7.006287,4.759517],[7.00628,4.759471],[7.006313,4.759466],[7.00632,4.759512]]]}},{"type":"Feature","properties":{"h":3.0,"on_route":false},"geometry":{"type":"Polygon","coordinates":[[[7.007436,4.758395],[7.007417,4.758486],[7.007335,4.758469],[7.007331,4.758485],[7.00728,4.758475],[7.007301,4.758368],[7.007436,4.758395]]]}},{"type":"Feature","properties":{"h":3.0,"on_route":false},"geometry":{"type":"Polygon","coordinates":[[[7.006697,4.765093],[7.006642,4.765016],[7.006795,4.764907],[7.00685,4.764985],[7.006697,4.765093]]]}},{"type":"Feature","properties":{"h":3.0,"on_route":false},"geometry":{"type":"Polygon","coordinates":[[[7.008192,4.762286],[7.008141,4.76242],[7.008086,4.762399],[7.008136,4.762265],[7.008192,4.762286]]]}},{"type":"Feature","properties":{"h":3.0,"on_route":false},"geometry":{"type":"Polygon","coordinates":[[[7.008211,4.761021],[7.008199,4.761156],[7.008032,4.761142],[7.008044,4.761007],[7.008211,4.761021]]]}},{"type":"Feature","properties":{"h":3.0,"on_route":false},"geometry":{"type":"Polygon","coordinates":[[[7.008246,4.758545],[7.008234,4.758675],[7.008142,4.758667],[7.008149,4.758588],[7.008105,4.758584],[7.008107,4.75856],[7.008078,4.758557],[7.008081,4.75853],[7.008246,4.758545]]]}},{"type":"Feature","properties":{"h":3.0,"on_route":false},"geometry":{"type":"Polygon","coordinates":[[[7.00866,4.764611],[7.008653,4.76468],[7.00862,4.764677],[7.008627,4.764608],[7.00866,4.764611]]]}},{"type":"Feature","properties":{"h":3.0,"on_route":false},"geometry":{"type":"Polygon","coordinates":[[[7.008386,4.761773],[7.008381,4.761831],[7.00835,4.761828],[7.008355,4.761771],[7.008386,4.761773]]]}},{"type":"Feature","properties":{"h":3.0,"on_route":false},"geometry":{"type":"Polygon","coordinates":[[[7.006497,4.757836],[7.006453,4.757881],[7.006398,4.757828],[7.006442,4.757782],[7.006497,4.757836]]]}},{"type":"Feature","properties":{"h":3.0,"on_route":false},"geometry":{"type":"Polygon","coordinates":[[[7.007811,4.761522],[7.007694,4.761594],[7.007618,4.761468],[7.007735,4.761397],[7.007811,4.761522]]]}},{"type":"Feature","properties":{"h":3.0,"on_route":false},"geometry":{"type":"Polygon","coordinates":[[[7.010335,4.764463],[7.010262,4.764382],[7.010521,4.764151],[7.010593,4.764233],[7.010335,4.764463]]]}},{"type":"Feature","properties":{"h":3.0,"on_route":false},"geometry":{"type":"Polygon","coordinates":[[[7.009584,4.762415],[7.009569,4.762774],[7.00949,4.762771],[7.009505,4.762412],[7.009584,4.762415]]]}},{"type":"Feature","properties":{"h":3.0,"on_route":false},"geometry":{"type":"Polygon","coordinates":[[[7.00943,4.761764],[7.009428,4.761827],[7.009382,4.761825],[7.009384,4.761763],[7.00943,4.761764]]]}},{"type":"Feature","properties":{"h":3.0,"on_route":false},"geometry":{"type":"Polygon","coordinates":[[[7.006377,4.763025],[7.00637,4.763099],[7.006429,4.763104],[7.006423,4.763179],[7.006306,4.763169],[7.006318,4.76302],[7.006377,4.763025]]]}},{"type":"Feature","properties":{"h":3.0,"on_route":false},"geometry":{"type":"Polygon","coordinates":[[[7.010371,4.763788],[7.010288,4.763852],[7.010228,4.763774],[7.010311,4.76371],[7.010371,4.763788]]]}},{"type":"Feature","properties":{"h":3.0,"on_route":false},"geometry":{"type":"Polygon","coordinates":[[[7.008631,4.762994],[7.00855,4.763029],[7.008408,4.762699],[7.008489,4.762664],[7.008631,4.762994]]]}},{"type":"Feature","properties":{"h":3.0,"on_route":false},"geometry":{"type":"Polygon","coordinates":[[[7.007454,4.759997],[7.007323,4.760009],[7.007312,4.759891],[7.007443,4.759878],[7.007454,4.759997]]]}},{"type":"Feature","properties":{"h":3.0,"on_route":false},"geometry":{"type":"Polygon","coordinates":[[[7.010219,4.76339],[7.010163,4.763424],[7.010112,4.763338],[7.010167,4.763305],[7.010219,4.76339]]]}},{"type":"Feature","properties":{"h":3.0,"on_route":false},"geometry":{"type":"Polygon","coordinates":[[[7.008508,4.765534],[7.008466,4.765563],[7.008389,4.765448],[7.008431,4.76542],[7.008508,4.765534]]]}},{"type":"Feature","properties":{"h":3.0,"on_route":false},"geometry":{"type":"Polygon","coordinates":[[[7.007512,4.759275],[7.007405,4.759299],[7.007388,4.759227],[7.007496,4.759203],[7.007512,4.759275]]]}},{"type":"Feature","properties":{"h":3.0,"on_route":false},"geometry":{"type":"Polygon","coordinates":[[[7.006731,4.76056],[7.006686,4.760617],[7.006673,4.760607],[7.006659,4.760625],[7.006586,4.760567],[7.006644,4.760492],[7.006731,4.76056]]]}},{"type":"Feature","properties":{"h":3.0,"on_route":false},"geometry":{"type":"Polygon","coordinates":[[[7.008168,4.760988],[7.008165,4.761019],[7.008083,4.761012],[7.008085,4.760981],[7.008168,4.760988]]]}},{"type":"Feature","properties":{"h":3.0,"on_route":false},"geometry":{"type":"Polygon","coordinates":[[[7.007241,4.7652],[7.007282,4.76527],[7.007262,4.765282],[7.00722,4.765212],[7.007241,4.7652]]]}},{"type":"Feature","properties":{"h":3.0,"on_route":false},"geometry":{"type":"Polygon","coordinates":[[[7.00638,4.763175],[7.006384,4.763222],[7.006268,4.763231],[7.006265,4.763184],[7.00638,4.763175]]]}},{"type":"Feature","properties":{"h":3.0,"on_route":false},"geometry":{"type":"Polygon","coordinates":[[[7.009599,4.761732],[7.009591,4.761852],[7.009466,4.761843],[7.009474,4.761723],[7.009599,4.761732]]]}},{"type":"Feature","properties":{"h":3.0,"on_route":false},"geometry":{"type":"Polygon","coordinates":[[[7.008737,4.759334],[7.008736,4.759384],[7.008629,4.759384],[7.008629,4.759334],[7.008737,4.759334]]]}},{"type":"Feature","properties":{"h":3.0,"on_route":false},"geometry":{"type":"Polygon","coordinates":[[[7.00838,4.765592],[7.008362,4.765609],[7.008325,4.765572],[7.008343,4.765554],[7.00838,4.765592]]]}},{"type":"Feature","properties":{"h":3.0,"on_route":false},"geometry":{"type":"Polygon","coordinates":[[[7.009182,4.762006],[7.009179,4.762089],[7.009128,4.762087],[7.009132,4.762004],[7.009182,4.762006]]]}},{"type":"Feature","properties":{"h":3.0,"on_route":false},"geometry":{"type":"Polygon","coordinates":[[[7.00942,4.762561],[7.009419,4.762624],[7.009376,4.762622],[7.009378,4.76256],[7.00942,4.762561]]]}},{"type":"Feature","properties":{"h":3.0,"on_route":false},"geometry":{"type":"Polygon","coordinates":[[[7.008909,4.76426],[7.008859,4.764294],[7.008825,4.764242],[7.008875,4.764209],[7.008909,4.76426]]]}},{"type":"Feature","properties":{"h":3.0,"on_route":false},"geometry":{"type":"Polygon","coordinates":[[[7.010141,4.765538],[7.010097,4.765577],[7.010267,4.765766],[7.010311,4.765727],[7.010536,4.765977],[7.010243,4.766242],[7.010207,4.766202],[7.010191,4.766216],[7.009621,4.765583],[7.00993,4.765304],[7.010141,4.765538]]]}},{"type":"Feature","properties":{"h":3.0,"on_route":false},"geometry":{"type":"Polygon","coordinates":[[[7.009671,4.763638],[7.009602,4.763678],[7.009458,4.763432],[7.009527,4.763392],[7.009671,4.763638]]]}},{"type":"Feature","properties":{"h":3.0,"on_route":false},"geometry":{"type":"Polygon","coordinates":[[[7.008031,4.7594],[7.008024,4.759562],[7.007983,4.75956],[7.00799,4.759398],[7.008031,4.7594]]]}},{"type":"Feature","properties":{"h":3.0,"on_route":false},"geometry":{"type":"Polygon","coordinates":[[[7.008407,4.760879],[7.008397,4.760992],[7.00824,4.760978],[7.00825,4.760865],[7.008407,4.760879]]]}},{"type":"Feature","properties":{"h":3.0,"on_route":false},"geometry":{"type":"Polygon","coordinates":[[[7.008675,4.762099],[7.008675,4.762074],[7.009015,4.762083],[7.009013,4.762169],[7.008659,4.76216],[7.00866,4.762099],[7.008675,4.762099]]]}},{"type":"Feature","properties":{"h":3.0,"on_route":false},"geometry":{"type":"Polygon","coordinates":[[[7.006778,4.760186],[7.006692,4.760275],[7.006591,4.760176],[7.006676,4.760088],[7.006778,4.760186]]]}},{"type":"Feature","properties":{"h":3.0,"on_route":false},"geometry":{"type":"Polygon","coordinates":[[[7.010094,4.763465],[7.010035,4.763501],[7.009984,4.763415],[7.010043,4.763379],[7.010094,4.763465]]]}},{"type":"Feature","properties":{"h":3.0,"on_route":false},"geometry":{"type":"Polygon","coordinates":[[[7.009803,4.763936],[7.009768,4.763906],[7.009809,4.763856],[7.009845,4.763886],[7.009803,4.763936]]]}},{"type":"Feature","properties":{"h":3.0,"on_route":false},"geometry":{"type":"Polygon","coordinates":[[[7.004919,4.758526],[7.004942,4.758603],[7.004916,4.75861],[7.004893,4.758534],[7.004919,4.758526]]]}},{"type":"Feature","properties":{"h":3.0,"on_route":false},"geometry":{"type":"Polygon","coordinates":[[[7.006795,4.764907],[7.006642,4.765016],[7.006591,4.764944],[7.006745,4.764835],[7.006795,4.764907]]]}},{"type":"Feature","properties":{"h":3.0,"on_route":false},"geometry":{"type":"Polygon","coordinates":[[[7.006326,4.76],[7.006349,4.760023],[7.006262,4.76011],[7.006154,4.760001],[7.006326,4.76]]]}},{"type":"Feature","properties":{"h":3.0,"on_route":false},"geometry":{"type":"Polygon","coordinates":[[[7.008485,4.760146],[7.008487,4.760197],[7.008445,4.760198],[7.008443,4.760147],[7.008485,4.760146]]]}},{"type":"Feature","properties":{"h":3.0,"on_route":false},"geometry":{"type":"Polygon","coordinates":[[[7.006392,4.76233],[7.00639,4.762349],[7.006447,4.762353],[7.006436,4.762482],[7.006415,4.76248],[7.006413,4.762504],[7.006277,4.762493],[7.006282,4.762428],[7.006263,4.762427],[7.006267,4.762381],[7.006286,4.762383],[7.006292,4.762322],[7.006392,4.76233]]]}},{"type":"Feature","properties":{"h":3.0,"on_route":false},"geometry":{"type":"Polygon","coordinates":[[[7.006148,4.759757],[7.006037,4.759772],[7.006029,4.759711],[7.00614,4.759696],[7.006148,4.759757]]]}},{"type":"Feature","properties":{"h":3.0,"on_route":false},"geometry":{"type":"Polygon","coordinates":[[[7.008498,4.759567],[7.008493,4.759657],[7.00839,4.759652],[7.008394,4.759562],[7.008498,4.759567]]]}},{"type":"Feature","properties":{"h":3.0,"on_route":false},"geometry":{"type":"Polygon","coordinates":[[[7.006848,4.760034],[7.006816,4.760039],[7.00682,4.76006],[7.006771,4.760069],[7.006767,4.760048],[7.006734,4.760054],[7.006721,4.759979],[7.006835,4.759959],[7.006848,4.760034]]]}},{"type":"Feature","properties":{"h":3.0,"on_route":false},"geometry":{"type":"Polygon","coordinates":[[[7.009599,4.765064],[7.009277,4.765387],[7.009043,4.765152],[7.009002,4.765193],[7.008937,4.765128],[7.009299,4.764764],[7.009599,4.765064]]]}},{"type":"Feature","properties":{"h":3.0,"on_route":false},"geometry":{"type":"Polygon","coordinates":[[[7.007619,4.760528],[7.007613,4.760656],[7.007466,4.76065],[7.007472,4.760522],[7.007619,4.760528]]]}},{"type":"Feature","properties":{"h":3.0,"on_route":false},"geometry":{"type":"Polygon","coordinates":[[[7.007534,4.758557],[7.007528,4.758687],[7.007388,4.758679],[7.007394,4.75855],[7.007534,4.758557]]]}},{"type":"Feature","properties":{"h":3.0,"on_route":false},"geometry":{"type":"Polygon","coordinates":[[[7.006828,4.758502],[7.006827,4.758563],[7.006896,4.758565],[7.006894,4.758668],[7.006824,4.758667],[7.006825,4.758636],[7.006739,4.758634],[7.006742,4.7585],[7.006828,4.758502]]]}},{"type":"Feature","properties":{"h":3.0,"on_route":false},"geometry":{"type":"Polygon","coordinates":[[[7.006243,4.757868],[7.006177,4.757904],[7.006126,4.75781],[7.006193,4.757774],[7.006243,4.757868]]]}},{"type":"Feature","properties":{"h":3.0,"on_route":false},"geometry":{"type":"Polygon","coordinates":[[[7.009019,4.763991],[7.00896,4.764041],[7.008907,4.763978],[7.008965,4.763928],[7.009019,4.763991]]]}},{"type":"Feature","properties":{"h":3.0,"on_route":false},"geometry":{"type":"Polygon","coordinates":[[[7.005853,4.75947],[7.005852,4.759522],[7.005807,4.759521],[7.005808,4.759469],[7.005853,4.75947]]]}},{"type":"Feature","properties":{"h":3.0,"on_route":false},"geometry":{"type":"Polygon","coordinates":[[[7.005544,4.759134],[7.005519,4.759157],[7.005482,4.759119],[7.005507,4.759095],[7.005544,4.759134]]]}},{"type":"Feature","properties":{"h":3.0,"on_route":false},"geometry":{"type":"Polygon","coordinates":[[[7.006422,4.761104],[7.00642,4.761149],[7.006387,4.761147],[7.00639,4.761102],[7.006422,4.761104]]]}},{"type":"Feature","properties":{"h":3.0,"on_route":false},"geometry":{"type":"Polygon","coordinates":[[[7.006031,4.758834],[7.006009,4.758856],[7.005972,4.75882],[7.005994,4.758798],[7.006031,4.758834]]]}},{"type":"Feature","properties":{"h":3.0,"on_route":false},"geometry":{"type":"Polygon","coordinates":[[[7.006211,4.759861],[7.006225,4.759965],[7.006201,4.759968],[7.006195,4.759928],[7.006151,4.759934],[7.006142,4.759871],[7.006211,4.759861]]]}},{"type":"Feature","properties":{"h":3.0,"on_route":false},"geometry":{"type":"Polygon","coordinates":[[[7.008935,4.765342],[7.008774,4.765378],[7.008699,4.765043],[7.00886,4.765007],[7.008935,4.765342]]]}},{"type":"Feature","properties":{"h":3.0,"on_route":false},"geometry":{"type":"Polygon","coordinates":[[[7.00614,4.759532],[7.006148,4.759588],[7.006104,4.759594],[7.006106,4.759611],[7.006046,4.75962],[7.006036,4.759547],[7.00614,4.759532]]]}},{"type":"Feature","properties":{"h":3.0,"on_route":false},"geometry":{"type":"Polygon","coordinates":[[[7.009433,4.762952],[7.009431,4.762989],[7.009406,4.762988],[7.009408,4.762951],[7.009433,4.762952]]]}},{"type":"Feature","properties":{"h":3.0,"on_route":false},"geometry":{"type":"Polygon","coordinates":[[[7.007882,4.760256],[7.007876,4.760351],[7.007801,4.760346],[7.007807,4.760251],[7.007882,4.760256]]]}},{"type":"Feature","properties":{"h":3.0,"on_route":false},"geometry":{"type":"Polygon","coordinates":[[[7.005605,4.759317],[7.005564,4.759336],[7.005543,4.75929],[7.005584,4.759271],[7.005605,4.759317]]]}},{"type":"Feature","properties":{"h":3.0,"on_route":false},"geometry":{"type":"Polygon","coordinates":[[[7.006968,4.760124],[7.006967,4.760174],[7.006928,4.760173],[7.006929,4.760123],[7.006968,4.760124]]]}},{"type":"Feature","properties":{"h":3.0,"on_route":false},"geometry":{"type":"Polygon","coordinates":[[[7.006629,4.759724],[7.006556,4.759735],[7.006546,4.759665],[7.006619,4.759654],[7.006629,4.759724]]]}},{"type":"Feature","properties":{"h":3.0,"on_route":false},"geometry":{"type":"Polygon","coordinates":[[[7.007071,4.757742],[7.007013,4.757993],[7.006911,4.75797],[7.006968,4.757718],[7.007071,4.757742]]]}},{"type":"Feature","properties":{"h":3.0,"on_route":false},"geometry":{"type":"Polygon","coordinates":[[[7.01028,4.76337],[7.010221,4.763398],[7.010192,4.763337],[7.010251,4.763309],[7.01028,4.76337]]]}},{"type":"Feature","properties":{"h":3.0,"on_route":false},"geometry":{"type":"Polygon","coordinates":[[[7.007778,4.759877],[7.007777,4.759902],[7.007795,4.759903],[7.007791,4.759997],[7.007659,4.759991],[7.007664,4.759871],[7.007778,4.759877]]]}},{"type":"Feature","properties":{"h":3.0,"on_route":false},"geometry":{"type":"Polygon","coordinates":[[[7.008339,4.758684],[7.00831,4.758785],[7.008249,4.758767],[7.008278,4.758667],[7.008339,4.758684]]]}},{"type":"Feature","properties":{"h":3.0,"on_route":false},"geometry":{"type":"Polygon","coordinates":[[[7.007916,4.760023],[7.007913,4.760083],[7.007777,4.760077],[7.00778,4.760017],[7.007916,4.760023]]]}},{"type":"Feature","properties":{"h":3.0,"on_route":false},"geometry":{"type":"Polygon","coordinates":[[[7.006443,4.759564],[7.006312,4.759582],[7.006301,4.75951],[7.006432,4.759491],[7.006443,4.759564]]]}},{"type":"Feature","properties":{"h":3.0,"on_route":false},"geometry":{"type":"Polygon","coordinates":[[[7.008771,4.759459],[7.008772,4.759499],[7.008688,4.759501],[7.008687,4.759461],[7.008771,4.759459]]]}},{"type":"Feature","properties":{"h":3.0,"on_route":false},"geometry":{"type":"Polygon","coordinates":[[[7.007302,4.760801],[7.007212,4.760898],[7.00711,4.760803],[7.0072,4.760705],[7.007302,4.760801]]]}},{"type":"Feature","properties":{"h":3.0,"on_route":false},"geometry":{"type":"Polygon","coordinates":[[[7.010043,4.763784],[7.010003,4.763805],[7.009985,4.763773],[7.010026,4.763751],[7.010043,4.763784]]]}},{"type":"Feature","properties":{"h":3.0,"on_route":false},"geometry":{"type":"Polygon","coordinates":[[[7.009366,4.762866],[7.009366,4.762893],[7.009335,4.762893],[7.009335,4.762866],[7.009366,4.762866]]]}},{"type":"Feature","properties":{"h":3.0,"on_route":false},"geometry":{"type":"Polygon","coordinates":[[[7.008654,4.764038],[7.008666,4.764196],[7.008581,4.764203],[7.008568,4.764045],[7.008654,4.764038]]]}},{"type":"Feature","properties":{"h":3.0,"on_route":false},"geometry":{"type":"Polygon","coordinates":[[[7.008228,4.760055],[7.008223,4.760099],[7.008169,4.760093],[7.008174,4.760049],[7.008228,4.760055]]]}},{"type":"Feature","properties":{"h":3.0,"on_route":false},"geometry":{"type":"Polygon","coordinates":[[[7.007871,4.761635],[7.007809,4.761674],[7.007751,4.761582],[7.007813,4.761543],[7.007871,4.761635]]]}},{"type":"Feature","properties":{"h":3.0,"on_route":false},"geometry":{"type":"Polygon","coordinates":[[[7.005978,4.759483],[7.00593,4.759486],[7.00592,4.759325],[7.005968,4.759322],[7.005978,4.759483]]]}},{"type":"Feature","properties":{"h":3.0,"on_route":false},"geometry":{"type":"Polygon","coordinates":[[[7.006315,4.763053],[7.00631,4.76312],[7.00624,4.763114],[7.006246,4.763047],[7.006315,4.763053]]]}},{"type":"Feature","properties":{"h":3.0,"on_route":false},"geometry":{"type":"Polygon","coordinates":[[[7.008214,4.760428],[7.008205,4.760588],[7.008115,4.760583],[7.008124,4.760423],[7.008214,4.760428]]]}},{"type":"Feature","properties":{"h":3.0,"on_route":false},"geometry":{"type":"Polygon","coordinates":[[[7.006447,4.758123],[7.006323,4.758259],[7.006244,4.758187],[7.006348,4.758072],[7.006386,4.758107],[7.006406,4.758085],[7.006447,4.758123]]]}},{"type":"Feature","properties":{"h":3.0,"on_route":false},"geometry":{"type":"Polygon","coordinates":[[[7.007968,4.75941],[7.007959,4.759538],[7.007844,4.75953],[7.007853,4.759401],[7.007968,4.75941]]]}},{"type":"Feature","properties":{"h":3.0,"on_route":false},"geometry":{"type":"Polygon","coordinates":[[[7.009487,4.763483],[7.009438,4.763511],[7.009409,4.763461],[7.009458,4.763433],[7.009487,4.763483]]]}},{"type":"Feature","properties":{"h":3.0,"on_route":false},"geometry":{"type":"Polygon","coordinates":[[[7.006816,4.760627],[7.006757,4.760702],[7.006694,4.760653],[7.006708,4.760635],[7.006686,4.760617],[7.006731,4.76056],[7.006816,4.760627]]]}},{"type":"Feature","properties":{"h":3.0,"on_route":false},"geometry":{"type":"Polygon","coordinates":[[[7.009423,4.762481],[7.009421,4.762546],[7.009325,4.762543],[7.009327,4.762478],[7.009423,4.762481]]]}},{"type":"Feature","properties":{"h":3.0,"on_route":false},"geometry":{"type":"Polygon","coordinates":[[[7.007983,4.759686],[7.007983,4.759701],[7.007929,4.759698],[7.00793,4.759683],[7.007983,4.759686]]]}},{"type":"Feature","properties":{"h":3.0,"on_route":false},"geometry":{"type":"Polygon","coordinates":[[[7.009416,4.7627],[7.009413,4.762786],[7.009318,4.762783],[7.00932,4.762697],[7.009416,4.7627]]]}},{"type":"Feature","properties":{"h":3.0,"on_route":false},"geometry":{"type":"Polygon","coordinates":[[[7.006467,4.761881],[7.006401,4.762063],[7.006237,4.762004],[7.006302,4.761821],[7.006467,4.761881]]]}},{"type":"Feature","properties":{"h":3.0,"on_route":false},"geometry":{"type":"Polygon","coordinates":[[[7.006807,4.759493],[7.006818,4.759597],[7.006775,4.759601],[7.006764,4.759497],[7.006807,4.759493]]]}},{"type":"Feature","properties":{"h":3.0,"on_route":false},"geometry":{"type":"Polygon","coordinates":[[[7.008026,4.76217],[7.007931,4.762218],[7.007881,4.762116],[7.007976,4.762069],[7.008026,4.76217]]]}},{"type":"Feature","properties":{"h":3.0,"on_route":false},"geometry":{"type":"Polygon","coordinates":[[[7.006647,4.760494],[7.006602,4.760551],[7.006447,4.760428],[7.006492,4.760371],[7.006647,4.760494]]]}},{"type":"Feature","properties":{"h":3.0,"on_route":false},"geometry":{"type":"Polygon","coordinates":[[[7.007785,4.759676],[7.007779,4.759808],[7.007507,4.759796],[7.007512,4.759664],[7.007785,4.759676]]]}},{"type":"Feature","properties":{"h":3.0,"on_route":false},"geometry":{"type":"Polygon","coordinates":[[[7.006964,4.761521],[7.006994,4.761565],[7.00697,4.761581],[7.00694,4.761538],[7.006964,4.761521]]]}},{"type":"Feature","properties":{"h":3.0,"on_route":false},"geometry":{"type":"Polygon","coordinates":[[[7.006486,4.759733],[7.006499,4.759823],[7.006349,4.759845],[7.006336,4.759755],[7.006486,4.759733]]]}},{"type":"Feature","properties":{"h":3.0,"on_route":false},"geometry":{"type":"Polygon","coordinates":[[[7.007755,4.760553],[7.007741,4.760696],[7.007676,4.760689],[7.00769,4.760547],[7.007755,4.760553]]]}},{"type":"Feature","properties":{"h":3.0,"on_route":false},"geometry":{"type":"Polygon","coordinates":[[[7.006716,4.759488],[7.006463,4.759529],[7.006455,4.759481],[7.006708,4.75944],[7.006716,4.759488]]]}},{"type":"Feature","properties":{"h":3.0,"on_route":false},"geometry":{"type":"Polygon","coordinates":[[[7.007496,4.760346],[7.007831,4.760367],[7.007824,4.760478],[7.007636,4.760466],[7.007634,4.760487],[7.0075,4.760479],[7.007501,4.760458],[7.007489,4.760457],[7.007496,4.760346]]]}},{"type":"Feature","properties":{"h":3.0,"on_route":false},"geometry":{"type":"Polygon","coordinates":[[[7.009483,4.76241],[7.009483,4.762432],[7.009453,4.762432],[7.009453,4.762409],[7.009483,4.76241]]]}},{"type":"Feature","properties":{"h":3.0,"on_route":false},"geometry":{"type":"Polygon","coordinates":[[[7.01003,4.764866],[7.010019,4.764895],[7.009996,4.764887],[7.010006,4.764858],[7.01003,4.764866]]]}},{"type":"Feature","properties":{"h":3.0,"on_route":false},"geometry":{"type":"Polygon","coordinates":[[[7.008935,4.759572],[7.008934,4.759609],[7.008906,4.759608],[7.008907,4.759571],[7.008935,4.759572]]]}},{"type":"Feature","properties":{"h":3.0,"on_route":false},"geometry":{"type":"Polygon","coordinates":[[[7.007854,4.760846],[7.007846,4.76096],[7.007817,4.760958],[7.007815,4.760986],[7.007768,4.760983],[7.00777,4.760955],[7.007718,4.760951],[7.007725,4.760837],[7.007854,4.760846]]]}},{"type":"Feature","properties":{"h":3.0,"on_route":false},"geometry":{"type":"Polygon","coordinates":[[[7.008338,4.759277],[7.008322,4.759407],[7.008182,4.759389],[7.008198,4.759259],[7.008338,4.759277]]]}},{"type":"Feature","properties":{"h":3.0,"on_route":false},"geometry":{"type":"Polygon","coordinates":[[[7.006463,4.759713],[7.006332,4.759731],[7.006312,4.759582],[7.006443,4.759564],[7.006463,4.759713]]]}},{"type":"Feature","properties":{"h":3.0,"on_route":false},"geometry":{"type":"Polygon","coordinates":[[[7.007645,4.75854],[7.00764,4.75869],[7.00756,4.758687],[7.007565,4.758537],[7.007645,4.75854]]]}},{"type":"Feature","properties":{"h":3.0,"on_route":false},"geometry":{"type":"Polygon","coordinates":[[[7.005154,4.759084],[7.005138,4.759118],[7.005105,4.759103],[7.00512,4.759069],[7.005154,4.759084]]]}},{"type":"Feature","properties":{"h":3.0,"on_route":false},"geometry":{"type":"Polygon","coordinates":[[[7.006797,4.759876],[7.006677,4.759894],[7.006602,4.759906],[7.006586,4.759796],[7.00678,4.759766],[7.006797,4.759876]]]}},{"type":"Feature","properties":{"h":3.0,"on_route":false},"geometry":{"type":"Polygon","coordinates":[[[7.006207,4.762809],[7.006212,4.762834],[7.006239,4.762829],[7.006253,4.762905],[7.006164,4.762922],[7.006145,4.762821],[7.006207,4.762809]]]}},{"type":"Feature","properties":{"h":3.0,"on_route":false},"geometry":{"type":"Polygon","coordinates":[[[7.006351,4.759945],[7.006219,4.759965],[7.006203,4.759861],[7.006335,4.759842],[7.006351,4.759945]]]}},{"type":"Feature","properties":{"h":3.0,"on_route":false},"geometry":{"type":"Polygon","coordinates":[[[7.009404,4.762098],[7.0094,4.76218],[7.009042,4.762165],[7.009046,4.762083],[7.009404,4.762098]]]}},{"type":"Feature","properties":{"h":3.0,"on_route":false},"geometry":{"type":"Polygon","coordinates":[[[7.008448,4.760746],[7.008445,4.760844],[7.008268,4.760838],[7.008271,4.76074],[7.008448,4.760746]]]}},{"type":"Feature","properties":{"h":3.0,"on_route":false},"geometry":{"type":"Polygon","coordinates":[[[7.006561,4.758174],[7.006518,4.758242],[7.006468,4.75821],[7.006512,4.758142],[7.006561,4.758174]]]}},{"type":"Feature","properties":{"h":3.0,"on_route":false},"geometry":{"type":"Polygon","coordinates":[[[7.004606,4.758309],[7.004645,4.758403],[7.004622,4.758412],[7.004583,4.758318],[7.004606,4.758309]]]}},{"type":"Feature","properties":{"h":3.0,"on_route":false},"geometry":{"type":"Polygon","coordinates":[[[7.007937,4.765915],[7.00787,4.765976],[7.007816,4.765916],[7.007883,4.765855],[7.007937,4.765915]]]}},{"type":"Feature","properties":{"h":3.0,"on_route":false},"geometry":{"type":"Polygon","coordinates":[[[7.006742,4.7585],[7.006739,4.758665],[7.006687,4.758664],[7.006688,4.758633],[7.006658,4.758632],[7.00666,4.758498],[7.006742,4.7585]]]}},{"type":"Feature","properties":{"h":3.0,"on_route":false},"geometry":{"type":"Polygon","coordinates":[[[7.008564,4.765482],[7.008512,4.765515],[7.008447,4.765413],[7.008498,4.76538],[7.008564,4.765482]]]}},{"type":"Feature","properties":{"h":3.0,"on_route":false},"geometry":{"type":"Polygon","coordinates":[[[7.007888,4.76311],[7.007968,4.763055],[7.008513,4.763853],[7.008433,4.763908],[7.008476,4.763972],[7.008268,4.764115],[7.008296,4.764157],[7.008146,4.76426],[7.008074,4.764154],[7.007991,4.764211],[7.007447,4.763413],[7.00753,4.763356],[7.007487,4.763293],[7.007846,4.763047],[7.007888,4.76311]]]}},{"type":"Feature","properties":{"h":3.0,"on_route":false},"geometry":{"type":"Polygon","coordinates":[[[7.006257,4.760196],[7.006212,4.760243],[7.006117,4.760154],[7.006161,4.760106],[7.006257,4.760196]]]}},{"type":"Feature","properties":{"h":3.0,"on_route":false},"geometry":{"type":"Polygon","coordinates":[[[7.007389,4.761267],[7.007321,4.761312],[7.007244,4.761197],[7.007312,4.761152],[7.007389,4.761267]]]}},{"type":"Feature","properties":{"h":3.0,"on_route":false},"geometry":{"type":"Polygon","coordinates":[[[7.005021,4.75907],[7.005053,4.759175],[7.005013,4.759187],[7.004981,4.759083],[7.005021,4.75907]]]}},{"type":"Feature","properties":{"h":3.0,"on_route":false},"geometry":{"type":"Polygon","coordinates":[[[7.009974,4.764968],[7.009901,4.765038],[7.009857,4.764992],[7.00993,4.764922],[7.009974,4.764968]]]}},{"type":"Feature","properties":{"h":3.0,"on_route":false},"geometry":{"type":"Polygon","coordinates":[[[7.00991,4.763366],[7.009854,4.763389],[7.00983,4.763329],[7.009886,4.763306],[7.00991,4.763366]]]}},{"type":"Feature","properties":{"h":3.0,"on_route":false},"geometry":{"type":"Polygon","coordinates":[[[7.007428,4.760279],[7.007425,4.760314],[7.007457,4.760317],[7.007449,4.760405],[7.00731,4.760393],[7.007321,4.76027],[7.007428,4.760279]]]}},{"type":"Feature","properties":{"h":3.0,"on_route":false},"geometry":{"type":"Polygon","coordinates":[[[7.007854,4.75817],[7.00782,4.758265],[7.007804,4.758259],[7.007738,4.758447],[7.007637,4.758411],[7.007735,4.758128],[7.007854,4.75817]]]}},{"type":"Feature","properties":{"h":3.0,"on_route":false},"geometry":{"type":"Polygon","coordinates":[[[7.008926,4.764313],[7.008875,4.764337],[7.008856,4.764296],[7.008907,4.764272],[7.008926,4.764313]]]}},{"type":"Feature","properties":{"h":3.0,"on_route":false},"geometry":{"type":"Polygon","coordinates":[[[7.009718,4.761891],[7.009714,4.76199],[7.008947,4.761959],[7.008951,4.761859],[7.009718,4.761891]]]}},{"type":"Feature","properties":{"h":3.0,"on_route":false},"geometry":{"type":"Polygon","coordinates":[[[7.007467,4.761382],[7.007399,4.761428],[7.007321,4.761312],[7.007389,4.761266],[7.007467,4.761382]]]}},{"type":"Feature","properties":{"h":3.0,"on_route":false},"geometry":{"type":"Polygon","coordinates":[[[7.008887,4.764199],[7.008829,4.764235],[7.008792,4.764174],[7.00885,4.764138],[7.008887,4.764199]]]}},{"type":"Feature","properties":{"h":3.0,"on_route":false},"geometry":{"type":"Polygon","coordinates":[[[7.007823,4.759539],[7.007817,4.759668],[7.007742,4.759664],[7.007749,4.759535],[7.007823,4.759539]]]}},{"type":"Feature","properties":{"h":3.0,"on_route":false},"geometry":{"type":"Polygon","coordinates":[[[7.007774,4.760021],[7.007764,4.760145],[7.007677,4.760138],[7.007687,4.760014],[7.007774,4.760021]]]}},{"type":"Feature","properties":{"h":3.0,"on_route":false},"geometry":{"type":"Polygon","coordinates":[[[7.007295,4.759692],[7.007165,4.759699],[7.007158,4.759556],[7.007288,4.75955],[7.007295,4.759692]]]}},{"type":"Feature","properties":{"h":3.0,"on_route":false},"geometry":{"type":"Polygon","coordinates":[[[7.006647,4.760282],[7.006565,4.760375],[7.006471,4.760291],[7.006553,4.760198],[7.006647,4.760282]]]}},{"type":"Feature","properties":{"h":3.0,"on_route":false},"geometry":{"type":"Polygon","coordinates":[[[7.007726,4.758723],[7.007683,4.758722],[7.007684,4.758691],[7.007727,4.758692],[7.007726,4.758723]]]}},{"type":"Feature","properties":{"h":3.0,"on_route":false},"geometry":{"type":"Polygon","coordinates":[[[7.005334,4.758087],[7.005355,4.758173],[7.005344,4.758176],[7.005356,4.758226],[7.005462,4.7582],[7.005479,4.758268],[7.005621,4.758233],[7.005642,4.758319],[7.005604,4.758329],[7.005658,4.758552],[7.005394,4.758617],[7.005339,4.758394],[7.005289,4.758407],[7.005261,4.758296],[7.005292,4.758288],[7.005248,4.758108],[7.005334,4.758087]]]}},{"type":"Feature","properties":{"h":3.0,"on_route":false},"geometry":{"type":"Polygon","coordinates":[[[7.007838,4.761086],[7.007833,4.761163],[7.00774,4.761157],[7.007745,4.76108],[7.007838,4.761086]]]}},{"type":"Feature","properties":{"h":3.0,"on_route":false},"geometry":{"type":"Polygon","coordinates":[[[7.00846,4.760303],[7.008441,4.760422],[7.008324,4.760404],[7.008343,4.760285],[7.00846,4.760303]]]}},{"type":"Feature","properties":{"h":3.0,"on_route":false},"geometry":{"type":"Polygon","coordinates":[[[7.0091,4.763495],[7.008765,4.763631],[7.008733,4.76355],[7.009067,4.763414],[7.0091,4.763495]]]}},{"type":"Feature","properties":{"h":3.0,"on_route":false},"geometry":{"type":"Polygon","coordinates":[[[7.007016,4.760382],[7.006927,4.760489],[7.006875,4.760446],[7.006963,4.760338],[7.007016,4.760382]]]}},{"type":"Feature","properties":{"h":3.0,"on_route":false},"geometry":{"type":"Polygon","coordinates":[[[7.006175,4.759602],[7.006187,4.759689],[7.006076,4.759705],[7.006068,4.75965],[7.006111,4.759644],[7.006106,4.759611],[7.006175,4.759602]]]}},{"type":"Feature","properties":{"h":3.0,"on_route":false},"geometry":{"type":"Polygon","coordinates":[[[7.006919,4.757934],[7.006911,4.75797],[7.006841,4.757954],[7.006849,4.757918],[7.006919,4.757934]]]}},{"type":"Feature","properties":{"h":3.0,"on_route":false},"geometry":{"type":"Polygon","coordinates":[[[7.010163,4.763424],[7.010094,4.763465],[7.010043,4.763379],[7.010112,4.763338],[7.010163,4.763424]]]}},{"type":"Feature","properties":{"h":3.0,"on_route":false},"geometry":{"type":"Polygon","coordinates":[[[7.007415,4.760728],[7.007327,4.760824],[7.0072,4.760705],[7.007288,4.76061],[7.007415,4.760728]]]}},{"type":"Feature","properties":{"h":3.0,"on_route":false},"geometry":{"type":"Polygon","coordinates":[[[7.006315,4.763439],[7.006384,4.763556],[7.006344,4.76358],[7.006275,4.763462],[7.006315,4.763439]]]}},{"type":"Feature","properties":{"h":3.0,"on_route":false},"geometry":{"type":"Polygon","coordinates":[[[7.005657,4.758826],[7.005601,4.758895],[7.005521,4.75883],[7.005576,4.758761],[7.005657,4.758826]]]}},{"type":"Feature","properties":{"h":3.0,"on_route":false},"geometry":{"type":"Polygon","coordinates":[[[7.010439,4.763877],[7.010356,4.763941],[7.010288,4.763852],[7.010371,4.763788],[7.010439,4.763877]]]}},{"type":"Feature","properties":{"h":3.0,"on_route":false},"geometry":{"type":"Polygon","coordinates":[[[7.009788,4.76492],[7.009719,4.764914],[7.009721,4.764891],[7.009697,4.764889],[7.009701,4.764831],[7.009794,4.764839],[7.009788,4.76492]]]}},{"type":"Feature","properties":{"h":3.0,"on_route":false},"geometry":{"type":"Polygon","coordinates":[[[7.007641,4.759239],[7.007541,4.759272],[7.007526,4.759225],[7.007626,4.759192],[7.007641,4.759239]]]}},{"type":"Feature","properties":{"h":3.0,"on_route":false},"geometry":{"type":"Polygon","coordinates":[[[7.005279,4.75943],[7.005226,4.759475],[7.005195,4.759438],[7.005248,4.759393],[7.005279,4.75943]]]}},{"type":"Feature","properties":{"h":3.0,"on_route":false},"geometry":{"type":"Polygon","coordinates":[[[7.010267,4.764897],[7.010196,4.764962],[7.010075,4.764828],[7.010146,4.764763],[7.010267,4.764897]]]}},{"type":"Feature","properties":{"h":3.0,"on_route":false},"geometry":{"type":"Polygon","coordinates":[[[7.005969,4.759319],[7.005917,4.759318],[7.005919,4.759236],[7.00597,4.759237],[7.005969,4.759319]]]}},{"type":"Feature","properties":{"h":3.0,"on_route":false},"geometry":{"type":"Polygon","coordinates":[[[7.006854,4.759722],[7.006853,4.759762],[7.006824,4.759761],[7.006825,4.759721],[7.006854,4.759722]]]}},{"type":"Feature","properties":{"h":3.0,"on_route":false},"geometry":{"type":"Polygon","coordinates":[[[7.007304,4.761157],[7.007244,4.761197],[7.007165,4.761078],[7.007224,4.761038],[7.007304,4.761157]]]}},{"type":"Feature","properties":{"h":3.0,"on_route":false},"geometry":{"type":"Polygon","coordinates":[[[7.009218,4.763826],[7.009051,4.763964],[7.009001,4.763903],[7.009168,4.763765],[7.009218,4.763826]]]}},{"type":"Feature","properties":{"h":3.0,"on_route":false},"geometry":{"type":"Polygon","coordinates":[[[7.008139,4.758701],[7.008134,4.758753],[7.007982,4.75874],[7.007987,4.758687],[7.008139,4.758701]]]}},{"type":"Feature","properties":{"h":3.0,"on_route":false},"geometry":{"type":"Polygon","coordinates":[[[7.007281,4.759408],[7.007288,4.75955],[7.007178,4.759555],[7.007171,4.759414],[7.007281,4.759408]]]}},{"type":"Feature","properties":{"h":3.0,"on_route":false},"geometry":{"type":"Polygon","coordinates":[[[7.008408,4.76604],[7.008484,4.765988],[7.009029,4.766783],[7.008953,4.766836],[7.009,4.766905],[7.008649,4.767147],[7.008015,4.766221],[7.008366,4.765979],[7.008408,4.76604]]]}},{"type":"Feature","properties":{"h":3.0,"on_route":false},"geometry":{"type":"Polygon","coordinates":[[[7.006395,4.762693],[7.006408,4.762785],[7.006324,4.762796],[7.006312,4.762704],[7.006395,4.762693]]]}},{"type":"Feature","properties":{"h":3.0,"on_route":false},"geometry":{"type":"Polygon","coordinates":[[[7.008073,4.760539],[7.008069,4.760659],[7.007923,4.760654],[7.007928,4.760534],[7.008073,4.760539]]]}},{"type":"Feature","properties":{"h":3.0,"on_route":false},"geometry":{"type":"Polygon","coordinates":[[[7.006855,4.760262],[7.00677,4.76035],[7.006692,4.760275],[7.006778,4.760186],[7.006855,4.760262]]]}},{"type":"Feature","properties":{"h":3.0,"on_route":false},"geometry":{"type":"Polygon","coordinates":[[[7.009541,4.76463],[7.009526,4.764723],[7.009445,4.76471],[7.00946,4.764617],[7.009541,4.76463]]]}},{"type":"Feature","properties":{"h":3.0,"on_route":false},"geometry":{"type":"Polygon","coordinates":[[[7.007295,4.760011],[7.007308,4.760146],[7.007221,4.760154],[7.007208,4.76002],[7.007295,4.760011]]]}},{"type":"Feature","properties":{"h":3.0,"on_route":false},"geometry":{"type":"Polygon","coordinates":[[[7.007831,4.762724],[7.00789,4.762808],[7.007869,4.762823],[7.00781,4.762739],[7.007831,4.762724]]]}},{"type":"Feature","properties":{"h":3.0,"on_route":false},"geometry":{"type":"Polygon","coordinates":[[[7.009006,4.759815],[7.008908,4.759984],[7.008838,4.759943],[7.008936,4.759774],[7.009006,4.759815]]]}},{"type":"Feature","properties":{"h":3.0,"on_route":false},"geometry":{"type":"Polygon","coordinates":[[[7.008789,4.76337],[7.008712,4.763404],[7.008568,4.763079],[7.008646,4.763045],[7.008789,4.76337]]]}},{"type":"Feature","properties":{"h":3.0,"on_route":false},"geometry":{"type":"Polygon","coordinates":[[[7.009317,4.762803],[7.009309,4.763165],[7.009225,4.763163],[7.009234,4.762801],[7.009317,4.762803]]]}},{"type":"Feature","properties":{"h":3.0,"on_route":false},"geometry":{"type":"Polygon","coordinates":[[[7.009429,4.764331],[7.009403,4.764363],[7.009328,4.764303],[7.009354,4.764271],[7.009429,4.764331]]]}},{"type":"Feature","properties":{"h":3.0,"on_route":false},"geometry":{"type":"Polygon","coordinates":[[[7.007444,4.760133],[7.007336,4.760143],[7.007323,4.760009],[7.007432,4.759999],[7.007444,4.760133]]]}},{"type":"Feature","properties":{"h":3.0,"on_route":false},"geometry":{"type":"Polygon","coordinates":[[[7.008014,4.760717],[7.00801,4.76082],[7.007994,4.760819],[7.007993,4.760851],[7.007926,4.760848],[7.007931,4.760714],[7.008014,4.760717]]]}},{"type":"Feature","properties":{"h":3.0,"on_route":false},"geometry":{"type":"Polygon","coordinates":[[[7.007872,4.760569],[7.007863,4.760686],[7.007744,4.760678],[7.007752,4.760561],[7.007872,4.760569]]]}},{"type":"Feature","properties":{"h":3.0,"on_route":false},"geometry":{"type":"Polygon","coordinates":[[[7.00779,4.760225],[7.007781,4.760342],[7.007655,4.760333],[7.007664,4.760215],[7.00779,4.760225]]]}},{"type":"Feature","properties":{"h":3.0,"on_route":false},"geometry":{"type":"Polygon","coordinates":[[[7.008485,4.764718],[7.00841,4.764769],[7.008327,4.764648],[7.008402,4.764597],[7.008485,4.764718]]]}},{"type":"Feature","properties":{"h":3.0,"on_route":false},"geometry":{"type":"Polygon","coordinates":[[[7.006725,4.758061],[7.006705,4.75815],[7.006583,4.758122],[7.006604,4.758033],[7.006725,4.758061]]]}},{"type":"Feature","properties":{"h":3.0,"on_route":false},"geometry":{"type":"Polygon","coordinates":[[[7.010277,4.764007],[7.010195,4.76407],[7.010067,4.763902],[7.010149,4.763839],[7.010277,4.764007]]]}},{"type":"Feature","properties":{"h":3.0,"on_route":false},"geometry":{"type":"Polygon","coordinates":[[[7.004651,4.757933],[7.004663,4.758001],[7.004691,4.757996],[7.004713,4.758113],[7.004637,4.758127],[7.004615,4.75801],[7.004537,4.758024],[7.004525,4.757956],[7.004651,4.757933]]]}},{"type":"Feature","properties":{"h":3.0,"on_route":false},"geometry":{"type":"Polygon","coordinates":[[[7.006436,4.760115],[7.006363,4.760187],[7.006272,4.760096],[7.006344,4.760023],[7.006436,4.760115]]]}},{"type":"Feature","properties":{"h":3.0,"on_route":false},"geometry":{"type":"Polygon","coordinates":[[[7.005964,4.758907],[7.005957,4.758941],[7.005922,4.758933],[7.005928,4.7589],[7.005964,4.758907]]]}},{"type":"Feature","properties":{"h":3.0,"on_route":false},"geometry":{"type":"Polygon","coordinates":[[[7.009428,4.763092],[7.009427,4.763142],[7.009401,4.763141],[7.009402,4.763092],[7.009428,4.763092]]]}},{"type":"Feature","properties":{"h":3.0,"on_route":false},"geometry":{"type":"Polygon","coordinates":[[[7.006407,4.762836],[7.006386,4.762934],[7.006294,4.762914],[7.006315,4.762816],[7.006407,4.762836]]]}},{"type":"Feature","properties":{"h":3.0,"on_route":false},"geometry":{"type":"Polygon","coordinates":[[[7.008907,4.759571],[7.008906,4.759608],[7.008843,4.759606],[7.008845,4.759568],[7.008907,4.759571]]]}},{"type":"Feature","properties":{"h":3.0,"on_route":false},"geometry":{"type":"Polygon","coordinates":[[[7.008129,4.75986],[7.008122,4.75997],[7.007984,4.759961],[7.007992,4.759851],[7.008129,4.75986]]]}},{"type":"Feature","properties":{"h":3.0,"on_route":false},"geometry":{"type":"Polygon","coordinates":[[[7.010196,4.764169],[7.010173,4.764144],[7.010243,4.764079],[7.010266,4.764104],[7.010196,4.764169]]]}},{"type":"Feature","properties":{"h":3.0,"on_route":false},"geometry":{"type":"Polygon","coordinates":[[[7.007918,4.760107],[7.007913,4.760209],[7.007853,4.760207],[7.007858,4.760104],[7.007918,4.760107]]]}},{"type":"Feature","properties":{"h":3.0,"on_route":false},"geometry":{"type":"Polygon","coordinates":[[[7.006439,4.758277],[7.006439,4.758231],[7.006523,4.758231],[7.006522,4.758292],[7.00642,4.758291],[7.00642,4.758277],[7.006439,4.758277]]]}},{"type":"Feature","properties":{"h":3.0,"on_route":false},"geometry":{"type":"Polygon","coordinates":[[[7.008598,4.761763],[7.008589,4.761855],[7.008495,4.761845],[7.008504,4.761754],[7.008598,4.761763]]]}},{"type":"Feature","properties":{"h":3.0,"on_route":false},"geometry":{"type":"Polygon","coordinates":[[[7.007595,4.761313],[7.007515,4.761363],[7.007456,4.761269],[7.007536,4.761219],[7.007595,4.761313]]]}},{"type":"Feature","properties":{"h":3.0,"on_route":false},"geometry":{"type":"Polygon","coordinates":[[[7.008235,4.759712],[7.008227,4.759834],[7.00813,4.759828],[7.008139,4.759705],[7.008235,4.759712]]]}},{"type":"Feature","properties":{"h":3.0,"on_route":false},"geometry":{"type":"Polygon","coordinates":[[[7.005362,4.759431],[7.005313,4.759472],[7.005235,4.759378],[7.005283,4.759338],[7.005362,4.759431]]]}},{"type":"Feature","properties":{"h":3.0,"on_route":false},"geometry":{"type":"Polygon","coordinates":[[[7.008227,4.759866],[7.00822,4.759977],[7.008122,4.75997],[7.008129,4.75986],[7.008227,4.759866]]]}},{"type":"Feature","properties":{"h":3.0,"on_route":false},"geometry":{"type":"Polygon","coordinates":[[[7.00715,4.758665],[7.007064,4.758661],[7.007069,4.758516],[7.007127,4.758518],[7.007128,4.758488],[7.007156,4.758489],[7.00715,4.758665]]]}},{"type":"Feature","properties":{"h":3.0,"on_route":false},"geometry":{"type":"Polygon","coordinates":[[[7.006428,4.757897],[7.006403,4.757883],[7.006415,4.757861],[7.00644,4.757874],[7.006428,4.757897]]]}},{"type":"Feature","properties":{"h":3.0,"on_route":false},"geometry":{"type":"Polygon","coordinates":[[[7.007873,4.758317],[7.007819,4.758475],[7.007738,4.758447],[7.007793,4.758289],[7.007873,4.758317]]]}},{"type":"Feature","properties":{"h":3.0,"on_route":false},"geometry":{"type":"Polygon","coordinates":[[[7.008447,4.75992],[7.008446,4.759939],[7.008492,4.759939],[7.008491,4.760128],[7.00835,4.760127],[7.008351,4.760035],[7.008407,4.760035],[7.008407,4.759988],[7.008392,4.759988],[7.008392,4.759938],[7.008408,4.759938],[7.008408,4.75992],[7.008447,4.75992]]]}},{"type":"Feature","properties":{"h":3.0,"on_route":false},"geometry":{"type":"Polygon","coordinates":[[[7.008765,4.764551],[7.008742,4.764538],[7.008787,4.764455],[7.008811,4.764468],[7.008765,4.764551]]]}},{"type":"Feature","properties":{"h":3.0,"on_route":false},"geometry":{"type":"Polygon","coordinates":[[[7.007664,4.759871],[7.007659,4.759991],[7.007521,4.759985],[7.007527,4.759865],[7.007664,4.759871]]]}},{"type":"Feature","properties":{"h":3.0,"on_route":false},"geometry":{"type":"Polygon","coordinates":[[[7.008406,4.761446],[7.008399,4.761538],[7.00824,4.761526],[7.008247,4.761433],[7.008406,4.761446]]]}},{"type":"Feature","properties":{"h":3.0,"on_route":false},"geometry":{"type":"Polygon","coordinates":[[[7.005038,4.75931],[7.004894,4.75942],[7.004848,4.759359],[7.004992,4.759249],[7.005038,4.75931]]]}},{"type":"Feature","properties":{"h":3.0,"on_route":false},"geometry":{"type":"Polygon","coordinates":[[[7.007444,4.759406],[7.007449,4.75951],[7.007299,4.759518],[7.007294,4.759414],[7.007444,4.759406]]]}},{"type":"Feature","properties":{"h":3.0,"on_route":false},"geometry":{"type":"Polygon","coordinates":[[[7.007428,4.759806],[7.007315,4.759812],[7.007308,4.759683],[7.007421,4.759677],[7.007428,4.759806]]]}},{"type":"Feature","properties":{"h":3.0,"on_route":false},"geometry":{"type":"Polygon","coordinates":[[[7.007846,4.75988],[7.00784,4.759999],[7.007791,4.759997],[7.007796,4.759877],[7.007846,4.75988]]]}},{"type":"Feature","properties":{"h":3.0,"on_route":false},"geometry":{"type":"Polygon","coordinates":[[[7.008444,4.760583],[7.008463,4.760583],[7.008456,4.760725],[7.008326,4.760719],[7.008328,4.760691],[7.008302,4.76069],[7.008306,4.760619],[7.008331,4.76062],[7.008333,4.760577],[7.008407,4.760581],[7.008408,4.760561],[7.008445,4.760563],[7.008444,4.760583]]]}},{"type":"Feature","properties":{"h":3.0,"on_route":false},"geometry":{"type":"Polygon","coordinates":[[[7.010257,4.7633],[7.010189,4.763341],[7.010167,4.763305],[7.010236,4.763263],[7.010257,4.7633]]]}},{"type":"Feature","properties":{"h":3.0,"on_route":false},"geometry":{"type":"Polygon","coordinates":[[[7.006576,4.760121],[7.006544,4.760154],[7.006501,4.760111],[7.006533,4.760078],[7.006576,4.760121]]]}},{"type":"Feature","properties":{"h":3.0,"on_route":false},"geometry":{"type":"Polygon","coordinates":[[[7.009698,4.764484],[7.009712,4.764571],[7.009627,4.764584],[7.009613,4.764497],[7.009698,4.764484]]]}},{"type":"Feature","properties":{"h":3.0,"on_route":false},"geometry":{"type":"Polygon","coordinates":[[[7.00604,4.759792],[7.005944,4.759805],[7.005933,4.759725],[7.006029,4.759711],[7.00604,4.759792]]]}},{"type":"Feature","properties":{"h":3.0,"on_route":false},"geometry":{"type":"Polygon","coordinates":[[[7.0073,4.760449],[7.007193,4.760458],[7.007182,4.760328],[7.007289,4.760319],[7.0073,4.760449]]]}},{"type":"Feature","properties":{"h":3.0,"on_route":false},"geometry":{"type":"Polygon","coordinates":[[[7.006219,4.761058],[7.006204,4.761335],[7.006133,4.761331],[7.006149,4.761054],[7.006219,4.761058]]]}},{"type":"Feature","properties":{"h":3.0,"on_route":false},"geometry":{"type":"Polygon","coordinates":[[[7.007145,4.760178],[7.006998,4.760188],[7.00699,4.760073],[7.007112,4.760064],[7.007114,4.760089],[7.007139,4.760088],[7.007145,4.760178]]]}},{"type":"Feature","properties":{"h":3.0,"on_route":false},"geometry":{"type":"Polygon","coordinates":[[[7.007845,4.760988],[7.007838,4.761086],[7.007745,4.76108],[7.007747,4.761055],[7.007682,4.761051],[7.007687,4.760978],[7.007845,4.760988]]]}},{"type":"Feature","properties":{"h":3.0,"on_route":false},"geometry":{"type":"Polygon","coordinates":[[[7.006965,4.760342],[7.006829,4.760496],[7.006749,4.760424],[7.006885,4.76027],[7.006965,4.760342]]]}},{"type":"Feature","properties":{"h":3.0,"on_route":false},"geometry":{"type":"Polygon","coordinates":[[[7.008165,4.75943],[7.008161,4.75953],[7.008026,4.759525],[7.00803,4.759424],[7.008165,4.75943]]]}},{"type":"Feature","properties":{"h":3.0,"on_route":false},"geometry":{"type":"Polygon","coordinates":[[[7.007281,4.760016],[7.007157,4.760026],[7.007146,4.759897],[7.00727,4.759886],[7.007281,4.760016]]]}},{"type":"Feature","properties":{"h":3.0,"on_route":false},"geometry":{"type":"Polygon","coordinates":[[[7.006047,4.759968],[7.005993,4.759975],[7.00599,4.759957],[7.005965,4.75996],[7.005957,4.759897],[7.006035,4.759886],[7.006047,4.759968]]]}},{"type":"Feature","properties":{"h":3.0,"on_route":false},"geometry":{"type":"Polygon","coordinates":[[[7.006211,4.759868],[7.006197,4.759766],[7.006333,4.759747],[7.006347,4.759849],[7.006211,4.759868]]]}},{"type":"Feature","properties":{"h":3.0,"on_route":false},"geometry":{"type":"Polygon","coordinates":[[[7.010464,4.764094],[7.010433,4.764123],[7.010365,4.764049],[7.010397,4.76402],[7.010464,4.764094]]]}},{"type":"Feature","properties":{"h":3.0,"on_route":false},"geometry":{"type":"Polygon","coordinates":[[[7.006714,4.759775],[7.006638,4.759786],[7.006629,4.759724],[7.006705,4.759713],[7.006714,4.759775]]]}},{"type":"Feature","properties":{"h":3.0,"on_route":false},"geometry":{"type":"Polygon","coordinates":[[[7.00972,4.763013],[7.009798,4.763236],[7.009737,4.763258],[7.009674,4.763079],[7.009692,4.763072],[7.009677,4.763028],[7.00972,4.763013]]]}},{"type":"Feature","properties":{"h":3.0,"on_route":false},"geometry":{"type":"Polygon","coordinates":[[[7.008352,4.762925],[7.008269,4.762959],[7.008254,4.762921],[7.008337,4.762887],[7.008352,4.762925]]]}},{"type":"Feature","properties":{"h":3.0,"on_route":false},"geometry":{"type":"Polygon","coordinates":[[[7.00916,4.764387],[7.009122,4.764412],[7.00907,4.764333],[7.009108,4.764308],[7.00916,4.764387]]]}},{"type":"Feature","properties":{"h":3.0,"on_route":false},"geometry":{"type":"Polygon","coordinates":[[[7.010035,4.764819],[7.009896,4.764962],[7.009866,4.764933],[7.010006,4.76479],[7.010035,4.764819]]]}},{"type":"Feature","properties":{"h":3.0,"on_route":false},"geometry":{"type":"Polygon","coordinates":[[[7.006022,4.759662],[7.006024,4.759705],[7.005948,4.759709],[7.005946,4.759666],[7.006022,4.759662]]]}},{"type":"Feature","properties":{"h":3.0,"on_route":false},"geometry":{"type":"Polygon","coordinates":[[[7.009159,4.76338],[7.009159,4.763399],[7.009126,4.763398],[7.009127,4.763379],[7.009159,4.76338]]]}},{"type":"Feature","properties":{"h":3.0,"on_route":false},"geometry":{"type":"Polygon","coordinates":[[[7.007759,4.759167],[7.007679,4.759231],[7.007622,4.75916],[7.007702,4.759096],[7.007759,4.759167]]]}},{"type":"Feature","properties":{"h":3.0,"on_route":false},"geometry":{"type":"Polygon","coordinates":[[[7.005445,4.759297],[7.005372,4.759368],[7.005298,4.759291],[7.005371,4.75922],[7.005445,4.759297]]]}},{"type":"Feature","properties":{"h":3.0,"on_route":false},"geometry":{"type":"Polygon","coordinates":[[[7.008832,4.764642],[7.008809,4.764648],[7.008831,4.764741],[7.008766,4.764757],[7.008737,4.764637],[7.008826,4.764615],[7.008832,4.764642]]]}},{"type":"Feature","properties":{"h":3.0,"on_route":false},"geometry":{"type":"Polygon","coordinates":[[[7.007494,4.758273],[7.007471,4.758379],[7.007328,4.758348],[7.007351,4.758242],[7.007494,4.758273]]]}},{"type":"Feature","properties":{"h":3.0,"on_route":false},"geometry":{"type":"Polygon","coordinates":[[[7.010138,4.763665],[7.010116,4.76369],[7.010089,4.763665],[7.010111,4.763641],[7.010138,4.763665]]]}},{"type":"Feature","properties":{"h":3.0,"on_route":false},"geometry":{"type":"Polygon","coordinates":[[[7.00797,4.758701],[7.007969,4.758732],[7.007918,4.75873],[7.007919,4.758699],[7.00797,4.758701]]]}},{"type":"Feature","properties":{"h":3.0,"on_route":false},"geometry":{"type":"Polygon","coordinates":[[[7.006515,4.761248],[7.006438,4.761354],[7.006392,4.761358],[7.006387,4.761292],[7.006367,4.761294],[7.006363,4.761241],[7.006384,4.761239],[7.006379,4.761179],[7.006509,4.761169],[7.006515,4.761248]]]}},{"type":"Feature","properties":{"h":3.0,"on_route":false},"geometry":{"type":"Polygon","coordinates":[[[7.00793,4.759683],[7.007926,4.759748],[7.007804,4.759741],[7.007808,4.759675],[7.00793,4.759683]]]}},{"type":"Feature","properties":{"h":3.0,"on_route":false},"geometry":{"type":"Polygon","coordinates":[[[7.006413,4.762656],[7.006318,4.762665],[7.006309,4.762574],[7.006405,4.762565],[7.006413,4.762656]]]}},{"type":"Feature","properties":{"h":3.0,"on_route":false},"geometry":{"type":"Polygon","coordinates":[[[7.008246,4.760131],[7.008237,4.760257],[7.008113,4.760248],[7.008122,4.760122],[7.008246,4.760131]]]}},{"type":"Feature","properties":{"h":3.0,"on_route":false},"geometry":{"type":"Polygon","coordinates":[[[7.009124,4.763553],[7.009051,4.763583],[7.009027,4.763524],[7.0091,4.763495],[7.009124,4.763553]]]}},{"type":"Feature","properties":{"h":3.0,"on_route":false},"geometry":{"type":"Polygon","coordinates":[[[7.006766,4.759433],[7.006772,4.759477],[7.006714,4.759485],[7.006708,4.759441],[7.006766,4.759433]]]}},{"type":"Feature","properties":{"h":3.0,"on_route":false},"geometry":{"type":"Polygon","coordinates":[[[7.006547,4.759721],[7.006549,4.759739],[7.006602,4.759731],[7.006611,4.759792],[7.006521,4.759806],[7.006509,4.759727],[7.006547,4.759721]]]}},{"type":"Feature","properties":{"h":3.0,"on_route":false},"geometry":{"type":"Polygon","coordinates":[[[7.007561,4.760654],[7.007558,4.760711],[7.007463,4.760707],[7.007466,4.76065],[7.007561,4.760654]]]}},{"type":"Feature","properties":{"h":3.0,"on_route":false},"geometry":{"type":"Polygon","coordinates":[[[7.008397,4.761368],[7.008391,4.761426],[7.008219,4.761409],[7.008224,4.76135],[7.008397,4.761368]]]}},{"type":"Feature","properties":{"h":3.0,"on_route":false},"geometry":{"type":"Polygon","coordinates":[[[7.008093,4.760885],[7.008082,4.76101],[7.007993,4.761002],[7.008004,4.760877],[7.008093,4.760885]]]}},{"type":"Feature","properties":{"h":3.0,"on_route":false},"geometry":{"type":"Polygon","coordinates":[[[7.00807,4.761644],[7.008062,4.761792],[7.007961,4.761786],[7.007964,4.761729],[7.007984,4.76173],[7.007989,4.761639],[7.00807,4.761644]]]}},{"type":"Feature","properties":{"h":3.0,"on_route":false},"geometry":{"type":"Polygon","coordinates":[[[7.004226,4.758256],[7.004119,4.758273],[7.004115,4.758244],[7.004222,4.758227],[7.004226,4.758256]]]}},{"type":"Feature","properties":{"h":3.0,"on_route":false},"geometry":{"type":"Polygon","coordinates":[[[7.008612,4.762072],[7.008611,4.762095],[7.00863,4.762096],[7.008628,4.762154],[7.008412,4.762146],[7.008415,4.762065],[7.008612,4.762072]]]}},{"type":"Feature","properties":{"h":3.0,"on_route":false},"geometry":{"type":"Polygon","coordinates":[[[7.005175,4.759327],[7.005129,4.759364],[7.005037,4.759248],[7.005084,4.759211],[7.005175,4.759327]]]}},{"type":"Feature","properties":{"h":3.0,"on_route":false},"geometry":{"type":"Polygon","coordinates":[[[7.007673,4.759537],[7.007668,4.759613],[7.007633,4.759611],[7.00763,4.759667],[7.0075,4.759658],[7.007509,4.759526],[7.007673,4.759537]]]}},{"type":"Feature","properties":{"h":3.0,"on_route":false},"geometry":{"type":"Polygon","coordinates":[[[7.007818,4.758546],[7.007814,4.758669],[7.007793,4.758668],[7.007792,4.758695],[7.007727,4.758692],[7.007732,4.758543],[7.007818,4.758546]]]}},{"type":"Feature","properties":{"h":3.0,"on_route":false},"geometry":{"type":"Polygon","coordinates":[[[7.008387,4.759831],[7.008385,4.75989],[7.008314,4.759887],[7.008316,4.759829],[7.008387,4.759831]]]}},{"type":"Feature","properties":{"h":3.0,"on_route":false},"geometry":{"type":"Polygon","coordinates":[[[7.007137,4.760037],[7.006997,4.760046],[7.006989,4.759925],[7.007129,4.759916],[7.007137,4.760037]]]}},{"type":"Feature","properties":{"h":3.0,"on_route":false},"geometry":{"type":"Polygon","coordinates":[[[7.008234,4.758675],[7.008227,4.758762],[7.0082,4.758759],[7.008207,4.758673],[7.008234,4.758675]]]}},{"type":"Feature","properties":{"h":3.0,"on_route":false},"geometry":{"type":"Polygon","coordinates":[[[7.007507,4.760863],[7.007406,4.760929],[7.007344,4.760835],[7.007445,4.760768],[7.007507,4.760863]]]}},{"type":"Feature","properties":{"h":3.0,"on_route":false},"geometry":{"type":"Polygon","coordinates":[[[7.006071,4.75966],[7.005927,4.759667],[7.005925,4.759622],[7.006069,4.759615],[7.006071,4.75966]]]}},{"type":"Feature","properties":{"h":3.0,"on_route":false},"geometry":{"type":"Polygon","coordinates":[[[7.006421,4.761661],[7.006473,4.761723],[7.006455,4.761738],[7.006491,4.761782],[7.006407,4.761853],[7.006391,4.761834],[7.00635,4.761868],[7.006238,4.761734],[7.006332,4.761655],[7.006421,4.761661]]]}},{"type":"Feature","properties":{"h":3.0,"on_route":false},"geometry":{"type":"Polygon","coordinates":[[[7.007648,4.760017],[7.007643,4.760111],[7.007528,4.760105],[7.007533,4.760011],[7.007648,4.760017]]]}},{"type":"Feature","properties":{"h":3.0,"on_route":false},"geometry":{"type":"Polygon","coordinates":[[[7.008696,4.761846],[7.008689,4.761947],[7.008601,4.761941],[7.008607,4.76184],[7.008696,4.761846]]]}},{"type":"Feature","properties":{"h":3.0,"on_route":false},"geometry":{"type":"Polygon","coordinates":[[[7.008905,4.764315],[7.009272,4.764713],[7.009234,4.764748],[7.009001,4.764496],[7.00898,4.764515],[7.008899,4.764428],[7.00887,4.764454],[7.008817,4.764397],[7.008905,4.764315]]]}},{"type":"Feature","properties":{"h":3.0,"on_route":false},"geometry":{"type":"Polygon","coordinates":[[[7.003994,4.758271],[7.003992,4.758312],[7.003962,4.758311],[7.003964,4.75827],[7.003994,4.758271]]]}},{"type":"Feature","properties":{"h":3.0,"on_route":false},"geometry":{"type":"Polygon","coordinates":[[[7.008933,4.762004],[7.00893,4.762076],[7.008885,4.762075],[7.008888,4.762002],[7.008933,4.762004]]]}},{"type":"Feature","properties":{"h":3.0,"on_route":false},"geometry":{"type":"Polygon","coordinates":[[[7.008103,4.760258],[7.008102,4.760296],[7.008017,4.760293],[7.008018,4.760255],[7.008103,4.760258]]]}},{"type":"Feature","properties":{"h":3.0,"on_route":false},"geometry":{"type":"Polygon","coordinates":[[[7.00552,4.759216],[7.005459,4.759274],[7.005392,4.759204],[7.005454,4.759146],[7.00552,4.759216]]]}},{"type":"Feature","properties":{"h":3.0,"on_route":false},"geometry":{"type":"Polygon","coordinates":[[[7.00839,4.759652],[7.008381,4.759826],[7.008307,4.759823],[7.008315,4.759648],[7.00839,4.759652]]]}},{"type":"Feature","properties":{"h":3.0,"on_route":false},"geometry":{"type":"Polygon","coordinates":[[[7.004797,4.758379],[7.005009,4.758951],[7.004855,4.759008],[7.004644,4.758436],[7.004797,4.758379]]]}},{"type":"Feature","properties":{"h":3.0,"on_route":false},"geometry":{"type":"Polygon","coordinates":[[[7.008471,4.764797],[7.008435,4.764814],[7.008422,4.764785],[7.008458,4.764768],[7.008471,4.764797]]]}},{"type":"Feature","properties":{"h":3.0,"on_route":false},"geometry":{"type":"Polygon","coordinates":[[[7.007709,4.760961],[7.007644,4.760956],[7.007645,4.760932],[7.007611,4.76093],[7.007616,4.760864],[7.007716,4.760871],[7.007709,4.760961]]]}},{"type":"Feature","properties":{"h":3.0,"on_route":false},"geometry":{"type":"Polygon","coordinates":[[[7.009022,4.766309],[7.008978,4.766337],[7.008927,4.766254],[7.00897,4.766227],[7.009022,4.766309]]]}},{"type":"Feature","properties":{"h":3.0,"on_route":false},"geometry":{"type":"Polygon","coordinates":[[[7.009742,4.766556],[7.009722,4.766569],[7.00997,4.766951],[7.009848,4.767031],[7.00956,4.766589],[7.009703,4.766495],[7.009742,4.766556]]]}},{"type":"Feature","properties":{"h":3.0,"on_route":false},"geometry":{"type":"Polygon","coordinates":[[[7.007086,4.760845],[7.007035,4.760913],[7.006962,4.760858],[7.007012,4.76079],[7.007086,4.760845]]]}},{"type":"Feature","properties":{"h":3.0,"on_route":false},"geometry":{"type":"Polygon","coordinates":[[[7.008295,4.758555],[7.008257,4.758688],[7.008235,4.758682],[7.008255,4.758609],[7.008238,4.758604],[7.008255,4.758544],[7.008295,4.758555]]]}},{"type":"Feature","properties":{"h":3.0,"on_route":false},"geometry":{"type":"Polygon","coordinates":[[[7.008003,4.761139],[7.008001,4.761166],[7.008139,4.761178],[7.008134,4.761239],[7.008107,4.761236],[7.008105,4.761257],[7.008132,4.76126],[7.00813,4.761286],[7.00797,4.761272],[7.007974,4.761225],[7.007925,4.761221],[7.007933,4.761133],[7.008003,4.761139]]]}},{"type":"Feature","properties":{"h":3.0,"on_route":false},"geometry":{"type":"Polygon","coordinates":[[[7.007651,4.761658],[7.007586,4.761703],[7.007517,4.761602],[7.007582,4.761557],[7.007651,4.761658]]]}},{"type":"Feature","properties":{"h":3.0,"on_route":false},"geometry":{"type":"Polygon","coordinates":[[[7.007147,4.759838],[7.00703,4.759851],[7.007018,4.759739],[7.007136,4.759727],[7.007147,4.759838]]]}},{"type":"Feature","properties":{"h":3.0,"on_route":false},"geometry":{"type":"Polygon","coordinates":[[[7.006453,4.763767],[7.006391,4.763816],[7.006373,4.763793],[7.006435,4.763744],[7.006453,4.763767]]]}},{"type":"Feature","properties":{"h":3.0,"on_route":false},"geometry":{"type":"Polygon","coordinates":[[[7.006222,4.762226],[7.006219,4.762285],[7.006152,4.762281],[7.006155,4.762222],[7.006222,4.762226]]]}},{"type":"Feature","properties":{"h":3.0,"on_route":false},"geometry":{"type":"Polygon","coordinates":[[[7.006594,4.760945],[7.006686,4.761072],[7.006651,4.761097],[7.006559,4.76097],[7.006594,4.760945]]]}},{"type":"Feature","properties":{"h":3.0,"on_route":false},"geometry":{"type":"Polygon","coordinates":[[[7.008496,4.761571],[7.008492,4.761632],[7.008463,4.761631],[7.008466,4.761569],[7.008496,4.761571]]]}},{"type":"Feature","properties":{"h":3.0,"on_route":false},"geometry":{"type":"Polygon","coordinates":[[[7.00894,4.761761],[7.008937,4.761818],[7.008607,4.761802],[7.008609,4.761744],[7.00894,4.761761]]]}},{"type":"Feature","properties":{"h":3.0,"on_route":false},"geometry":{"type":"Polygon","coordinates":[[[7.008418,4.761019],[7.00841,4.76114],[7.008338,4.761135],[7.008346,4.761015],[7.008418,4.761019]]]}},{"type":"Feature","properties":{"h":3.0,"on_route":false},"geometry":{"type":"Polygon","coordinates":[[[7.0069,4.760717],[7.006847,4.760784],[7.006754,4.760712],[7.006807,4.760644],[7.0069,4.760717]]]}},{"type":"Feature","properties":{"h":3.0,"on_route":false},"geometry":{"type":"Polygon","coordinates":[[[7.007063,4.758671],[7.006916,4.758665],[7.006921,4.75851],[7.006984,4.758513],[7.006985,4.758483],[7.00707,4.758486],[7.007063,4.758671]]]}},{"type":"Feature","properties":{"h":3.0,"on_route":false},"geometry":{"type":"Polygon","coordinates":[[[7.006591,4.76163],[7.006585,4.761721],[7.00653,4.761718],[7.006536,4.761626],[7.006591,4.76163]]]}},{"type":"Feature","properties":{"h":3.0,"on_route":false},"geometry":{"type":"Polygon","coordinates":[[[7.009733,4.762642],[7.009731,4.762669],[7.009709,4.762667],[7.009711,4.762641],[7.009733,4.762642]]]}},{"type":"Feature","properties":{"h":3.0,"on_route":false},"geometry":{"type":"Polygon","coordinates":[[[7.009423,4.761388],[7.009417,4.761467],[7.009282,4.761456],[7.009288,4.761378],[7.009423,4.761388]]]}},{"type":"Feature","properties":{"h":3.0,"on_route":false},"geometry":{"type":"Polygon","coordinates":[[[7.009896,4.764963],[7.009837,4.765024],[7.009786,4.764974],[7.009846,4.764913],[7.009896,4.764963]]]}},{"type":"Feature","properties":{"h":3.0,"on_route":false},"geometry":{"type":"Polygon","coordinates":[[[7.009984,4.763459],[7.009793,4.763569],[7.009751,4.763496],[7.009942,4.763386],[7.009984,4.763459]]]}},{"type":"Feature","properties":{"h":3.0,"on_route":false},"geometry":{"type":"Polygon","coordinates":[[[7.006033,4.759873],[7.005955,4.759884],[7.005948,4.759834],[7.006027,4.759823],[7.006033,4.759873]]]}},{"type":"Feature","properties":{"h":3.0,"on_route":false},"geometry":{"type":"Polygon","coordinates":[[[7.007627,4.760147],[7.007624,4.760193],[7.007582,4.760191],[7.007578,4.760277],[7.00749,4.760272],[7.007497,4.76014],[7.007627,4.760147]]]}},{"type":"Feature","properties":{"h":3.0,"on_route":false},"geometry":{"type":"Polygon","coordinates":[[[7.008274,4.762731],[7.008182,4.762748],[7.008166,4.762661],[7.008258,4.762644],[7.008274,4.762731]]]}},{"type":"Feature","properties":{"h":3.0,"on_route":false},"geometry":{"type":"Polygon","coordinates":[[[7.007727,4.761772],[7.007661,4.761815],[7.007586,4.7617],[7.007652,4.761657],[7.007727,4.761772]]]}},{"type":"Feature","properties":{"h":3.0,"on_route":false},"geometry":{"type":"Polygon","coordinates":[[[7.010014,4.762741],[7.00992,4.762861],[7.009853,4.762808],[7.009947,4.762688],[7.010014,4.762741]]]}},{"type":"Feature","properties":{"h":3.0,"on_route":false},"geometry":{"type":"Polygon","coordinates":[[[7.008242,4.759619],[7.008235,4.759712],[7.008139,4.759705],[7.008145,4.759612],[7.008242,4.759619]]]}},{"type":"Feature","properties":{"h":3.0,"on_route":false},"geometry":{"type":"Polygon","coordinates":[[[7.007118,4.759553],[7.006946,4.759576],[7.006929,4.759448],[7.007102,4.759425],[7.007118,4.759553]]]}},{"type":"Feature","properties":{"h":3.0,"on_route":false},"geometry":{"type":"Polygon","coordinates":[[[7.006259,4.762678],[7.006253,4.762784],[7.006176,4.762779],[7.006178,4.762752],[7.006158,4.76275],[7.006161,4.7627],[7.006232,4.762704],[7.006234,4.762676],[7.006259,4.762678]]]}},{"type":"Feature","properties":{"h":3.0,"on_route":false},"geometry":{"type":"Polygon","coordinates":[[[7.005763,4.758989],[7.005654,4.75909],[7.005585,4.759016],[7.005694,4.758915],[7.005763,4.758989]]]}},{"type":"Feature","properties":{"h":3.0,"on_route":false},"geometry":{"type":"Polygon","coordinates":[[[7.007178,4.760919],[7.007108,4.760987],[7.007041,4.760917],[7.00711,4.760849],[7.007178,4.760919]]]}},{"type":"Feature","properties":{"h":3.0,"on_route":false},"geometry":{"type":"Polygon","coordinates":[[[7.007554,4.761513],[7.007487,4.761559],[7.007399,4.761428],[7.007467,4.761382],[7.007554,4.761513]]]}},{"type":"Feature","properties":{"h":3.0,"on_route":false},"geometry":{"type":"Polygon","coordinates":[[[7.008621,4.763465],[7.008529,4.763501],[7.008495,4.763415],[7.008587,4.763379],[7.008621,4.763465]]]}},{"type":"Feature","properties":{"h":3.0,"on_route":false},"geometry":{"type":"Polygon","coordinates":[[[7.007606,4.758297],[7.007584,4.758403],[7.007471,4.758379],[7.007494,4.758273],[7.007606,4.758297]]]}},{"type":"Feature","properties":{"h":3.0,"on_route":false},"geometry":{"type":"Polygon","coordinates":[[[7.006888,4.757965],[7.006868,4.758052],[7.006734,4.758021],[7.006754,4.757934],[7.006888,4.757965]]]}},{"type":"Feature","properties":{"h":3.0,"on_route":false},"geometry":{"type":"Polygon","coordinates":[[[7.010133,4.764726],[7.010061,4.764796],[7.009955,4.764685],[7.010027,4.764615],[7.010133,4.764726]]]}},{"type":"Feature","properties":{"h":3.0,"on_route":false},"geometry":{"type":"Polygon","coordinates":[[[7.008433,4.764071],[7.008397,4.764094],[7.00838,4.764067],[7.008416,4.764044],[7.008433,4.764071]]]}},{"type":"Feature","properties":{"h":3.0,"on_route":false},"geometry":{"type":"Polygon","coordinates":[[[7.005551,4.758954],[7.005513,4.758988],[7.005439,4.758902],[7.005477,4.758869],[7.005551,4.758954]]]}},{"type":"Feature","properties":{"h":3.0,"on_route":false},"geometry":{"type":"Polygon","coordinates":[[[7.006988,4.758163],[7.00697,4.758302],[7.006847,4.758286],[7.006865,4.758147],[7.006988,4.758163]]]}},{"type":"Feature","properties":{"h":3.0,"on_route":false},"geometry":{"type":"Polygon","coordinates":[[[7.005114,4.759401],[7.004997,4.759492],[7.004969,4.759457],[7.004991,4.75944],[7.004941,4.759376],[7.005036,4.759301],[7.005114,4.759401]]]}},{"type":"Feature","properties":{"h":3.0,"on_route":false},"geometry":{"type":"Polygon","coordinates":[[[7.009403,4.764363],[7.009265,4.764536],[7.009309,4.764572],[7.009295,4.76459],[7.009176,4.764496],[7.009328,4.764303],[7.009403,4.764363]]]}},{"type":"Feature","properties":{"h":3.0,"on_route":false},"geometry":{"type":"Polygon","coordinates":[[[7.008492,4.759871],[7.008491,4.759894],[7.008459,4.759892],[7.00846,4.75987],[7.008492,4.759871]]]}},{"type":"Feature","properties":{"h":3.0,"on_route":false},"geometry":{"type":"Polygon","coordinates":[[[7.008362,4.759153],[7.008356,4.759261],[7.008331,4.759259],[7.008336,4.759151],[7.008362,4.759153]]]}},{"type":"Feature","properties":{"h":3.0,"on_route":false},"geometry":{"type":"Polygon","coordinates":[[[7.009695,4.765125],[7.00965,4.765169],[7.009601,4.76512],[7.009646,4.765076],[7.009695,4.765125]]]}},{"type":"Feature","properties":{"h":3.0,"on_route":false},"geometry":{"type":"Polygon","coordinates":[[[7.006112,4.761633],[7.006069,4.761643],[7.0061,4.76178],[7.006016,4.761799],[7.00595,4.761499],[7.006077,4.761471],[7.006112,4.761633]]]}},{"type":"Feature","properties":{"h":3.0,"on_route":false},"geometry":{"type":"Polygon","coordinates":[[[7.005317,4.759199],[7.005257,4.759252],[7.005197,4.759183],[7.005257,4.759131],[7.005317,4.759199]]]}},{"type":"Feature","properties":{"h":3.0,"on_route":false},"geometry":{"type":"Polygon","coordinates":[[[7.008146,4.761428],[7.00814,4.761487],[7.007962,4.761468],[7.007968,4.761409],[7.008146,4.761428]]]}},{"type":"Feature","properties":{"h":3.0,"on_route":false},"geometry":{"type":"Polygon","coordinates":[[[7.006266,4.759589],[7.006175,4.759602],[7.006168,4.759554],[7.006175,4.759553],[7.006169,4.759512],[7.006254,4.759501],[7.006266,4.759589]]]}},{"type":"Feature","properties":{"h":3.0,"on_route":false},"geometry":{"type":"Polygon","coordinates":[[[7.005975,4.758933],[7.00597,4.759237],[7.005919,4.759236],[7.005924,4.758932],[7.005975,4.758933]]]}},{"type":"Feature","properties":{"h":3.0,"on_route":false},"geometry":{"type":"Polygon","coordinates":[[[7.007172,4.765501],[7.007038,4.765599],[7.006926,4.765447],[7.007059,4.765348],[7.007172,4.765501]]]}},{"type":"Feature","properties":{"h":3.0,"on_route":false},"geometry":{"type":"Polygon","coordinates":[[[7.005598,4.759083],[7.005569,4.759126],[7.00551,4.759085],[7.005539,4.759043],[7.005598,4.759083]]]}},{"type":"Feature","properties":{"h":3.0,"on_route":false},"geometry":{"type":"Polygon","coordinates":[[[7.006746,4.757971],[7.006725,4.758061],[7.006658,4.758045],[7.006679,4.757955],[7.006746,4.757971]]]}},{"type":"Feature","properties":{"h":3.0,"on_route":false},"geometry":{"type":"Polygon","coordinates":[[[7.006344,4.75789],[7.006305,4.757924],[7.006283,4.757899],[7.006323,4.757865],[7.006344,4.75789]]]}},{"type":"Feature","properties":{"h":3.0,"on_route":false},"geometry":{"type":"Polygon","coordinates":[[[7.008101,4.758415],[7.00809,4.758507],[7.007854,4.75848],[7.007865,4.758387],[7.008101,4.758415]]]}},{"type":"Feature","properties":{"h":3.0,"on_route":false},"geometry":{"type":"Polygon","coordinates":[[[7.007766,4.762777],[7.007749,4.762789],[7.007763,4.762808],[7.007339,4.763103],[7.006705,4.762188],[7.007145,4.761881],[7.007766,4.762777]]]}},{"type":"Feature","properties":{"h":3.0,"on_route":false},"geometry":{"type":"Polygon","coordinates":[[[7.00753,4.758528],[7.007533,4.758555],[7.007502,4.758558],[7.007499,4.758531],[7.00753,4.758528]]]}},{"type":"Feature","properties":{"h":3.0,"on_route":false},"geometry":{"type":"Polygon","coordinates":[[[7.007975,4.761564],[7.007871,4.761635],[7.0078,4.761529],[7.007904,4.761459],[7.007975,4.761564]]]}},{"type":"Feature","properties":{"h":3.0,"on_route":false},"geometry":{"type":"Polygon","coordinates":[[[7.006528,4.760206],[7.006455,4.760279],[7.006364,4.760188],[7.006436,4.760115],[7.006528,4.760206]]]}},{"type":"Feature","properties":{"h":3.0,"on_route":false},"geometry":{"type":"Polygon","coordinates":[[[7.008761,4.758977],[7.00876,4.759334],[7.008461,4.759333],[7.008462,4.758976],[7.008761,4.758977]]]}},{"type":"Feature","properties":{"h":3.0,"on_route":false},"geometry":{"type":"Polygon","coordinates":[[[7.006479,4.763501],[7.006383,4.763557],[7.0063,4.763414],[7.006396,4.763358],[7.006479,4.763501]]]}},{"type":"Feature","properties":{"h":3.0,"on_route":false},"geometry":{"type":"Polygon","coordinates":[[[7.008271,4.759163],[7.008261,4.759265],[7.008183,4.759258],[7.008192,4.759156],[7.008271,4.759163]]]}},{"type":"Feature","properties":{"h":3.0,"on_route":false},"geometry":{"type":"Polygon","coordinates":[[[7.008616,4.763209],[7.008613,4.763235],[7.008585,4.763232],[7.008588,4.763206],[7.008616,4.763209]]]}},{"type":"Feature","properties":{"h":3.0,"on_route":false},"geometry":{"type":"Polygon","coordinates":[[[7.007533,4.760011],[7.00753,4.760068],[7.007486,4.760065],[7.007489,4.760008],[7.007533,4.760011]]]}}]}