{"type":"FeatureCollection","features":[{"type":"Feature","properties":{"h":3.0,"on_route":false},"geometry":{"type":"Polygon","coordinates":[[[6.970395,4.770471],[6.970342,4.770559],[6.969862,4.770272],[6.969914,4.770184],[6.970395,4.770471]]]}},{"type":"Feature","properties":{"h":3.0,"on_route":false},"geometry":{"type":"Polygon","coordinates":[[[6.966787,4.770996],[6.966764,4.771052],[6.966703,4.771027],[6.966725,4.770971],[6.966787,4.770996]]]}},{"type":"Feature","properties":{"h":3.0,"on_route":false},"geometry":{"type":"Polygon","coordinates":[[[6.973526,4.770569],[6.973508,4.770604],[6.973467,4.770582],[6.973485,4.770547],[6.973526,4.770569]]]}},{"type":"Feature","properties":{"h":3.0,"on_route":false},"geometry":{"type":"Polygon","coordinates":[[[6.971201,4.769758],[6.971144,4.76985],[6.971002,4.769761],[6.971058,4.76967],[6.971201,4.769758]]]}},{"type":"Feature","properties":{"h":3.0,"on_route":false},"geometry":{"type":"Polygon","coordinates":[[[6.965916,4.77117],[6.9659,4.771206],[6.965868,4.771191],[6.965884,4.771156],[6.965916,4.77117]]]}},{"type":"Feature","properties":{"h":3.0,"on_route":true},"geometry":{"type":"Polygon","coordinates":[[[6.9723,4.768203],[6.972194,4.768266],[6.972054,4.768027],[6.972161,4.767964],[6.9723,4.768203]]]}},{"type":"Feature","properties":{"h":3.0,"on_route":false},"geometry":{"type":"Polygon","coordinates":[[[6.970461,4.773725],[6.970436,4.773707],[6.970521,4.773583],[6.970547,4.773601],[6.970461,4.773725]]]}},{"type":"Feature","properties":{"h":3.0,"on_route":false},"geometry":{"type":"Polygon","coordinates":[[[6.97279,4.769079],[6.972685,4.769139],[6.972549,4.768899],[6.972653,4.768839],[6.97279,4.769079]]]}},{"type":"Feature","properties":{"h":3.0,"on_route":false},"geometry":{"type":"Polygon","coordinates":[[[6.971749,4.767703],[6.971312,4.767952],[6.97106,4.767505],[6.971496,4.767256],[6.971749,4.767703]]]}},{"type":"Feature","properties":{"h":3.0,"on_route":false},"geometry":{"type":"Polygon","coordinates":[[[6.971563,4.772897],[6.971524,4.772956],[6.971435,4.772897],[6.971474,4.772838],[6.971563,4.772897]]]}},{"type":"Feature","properties":{"h":3.0,"on_route":false},"geometry":{"type":"Polygon","coordinates":[[[6.969636,4.771895],[6.969555,4.772013],[6.969323,4.771853],[6.969404,4.771735],[6.969636,4.771895]]]}},{"type":"Feature","properties":{"h":3.0,"on_route":false},"geometry":{"type":"Polygon","coordinates":[[[6.971738,4.770085],[6.971679,4.770182],[6.971609,4.770139],[6.971669,4.770042],[6.971738,4.770085]]]}},{"type":"Feature","properties":{"h":3.0,"on_route":false},"geometry":{"type":"Polygon","coordinates":[[[6.968999,4.772762],[6.968921,4.772875],[6.968686,4.77271],[6.968765,4.772597],[6.968999,4.772762]]]}},{"type":"Feature","properties":{"h":3.0,"on_route":false},"geometry":{"type":"Polygon","coordinates":[[[6.966379,4.771247],[6.966401,4.771265],[6.96641,4.771305],[6.966386,4.771333],[6.966353,4.771333],[6.966305,4.771293],[6.96634,4.77125],[6.966379,4.771247]]]}},{"type":"Feature","properties":{"h":3.0,"on_route":false},"geometry":{"type":"Polygon","coordinates":[[[6.971561,4.772314],[6.971446,4.772479],[6.971362,4.772419],[6.971476,4.772255],[6.971561,4.772314]]]}},{"type":"Feature","properties":{"h":3.0,"on_route":false},"geometry":{"type":"Polygon","coordinates":[[[6.968336,4.772883],[6.968112,4.773208],[6.968018,4.773142],[6.968241,4.772817],[6.968336,4.772883]]]}},{"type":"Feature","properties":{"h":3.0,"on_route":false},"geometry":{"type":"Polygon","coordinates":[[[6.969612,4.772233],[6.969543,4.772342],[6.969289,4.772181],[6.969358,4.772071],[6.969612,4.772233]]]}},{"type":"Feature","properties":{"h":3.0,"on_route":false},"geometry":{"type":"Polygon","coordinates":[[[6.972071,4.771623],[6.97206,4.77165],[6.972025,4.771635],[6.972035,4.771609],[6.972071,4.771623]]]}},{"type":"Feature","properties":{"h":3.0,"on_route":false},"geometry":{"type":"Polygon","coordinates":[[[6.970773,4.773623],[6.970728,4.773688],[6.9707,4.773668],[6.970745,4.773603],[6.970773,4.773623]]]}},{"type":"Feature","properties":{"h":3.0,"on_route":false},"geometry":{"type":"Polygon","coordinates":[[[6.969842,4.770999],[6.969822,4.771035],[6.969755,4.770999],[6.969774,4.770962],[6.969842,4.770999]]]}},{"type":"Feature","properties":{"h":3.0,"on_route":false},"geometry":{"type":"Polygon","coordinates":[[[6.969319,4.7722],[6.969287,4.772251],[6.969229,4.772215],[6.969262,4.772164],[6.969319,4.7722]]]}},{"type":"Feature","properties":{"h":3.0,"on_route":false},"geometry":{"type":"Polygon","coordinates":[[[6.971655,4.770033],[6.971595,4.770128],[6.971555,4.770102],[6.971614,4.770007],[6.971655,4.770033]]]}},{"type":"Feature","properties":{"h":3.0,"on_route":false},"geometry":{"type":"Polygon","coordinates":[[[6.966614,4.767014],[6.966629,4.767107],[6.966603,4.767111],[6.966588,4.767019],[6.966614,4.767014]]]}},{"type":"Feature","properties":{"h":3.0,"on_route":false},"geometry":{"type":"Polygon","coordinates":[[[6.968482,4.772778],[6.968451,4.772756],[6.968524,4.772649],[6.968556,4.772671],[6.968482,4.772778]]]}},{"type":"Feature","properties":{"h":3.0,"on_route":false},"geometry":{"type":"Polygon","coordinates":[[[6.970927,4.773632],[6.970913,4.77366],[6.970866,4.773637],[6.97088,4.773609],[6.970927,4.773632]]]}},{"type":"Feature","properties":{"h":3.0,"on_route":false},"geometry":{"type":"Polygon","coordinates":[[[6.971131,4.772056],[6.971103,4.772042],[6.971144,4.771958],[6.971173,4.771972],[6.971131,4.772056]]]}},{"type":"Feature","properties":{"h":3.0,"on_route":false},"geometry":{"type":"Polygon","coordinates":[[[6.970936,4.77311],[6.970904,4.773157],[6.970836,4.773111],[6.97085,4.773091],[6.970804,4.77306],[6.970823,4.773033],[6.970936,4.77311]]]}},{"type":"Feature","properties":{"h":3.0,"on_route":false},"geometry":{"type":"Polygon","coordinates":[[[6.968133,4.772379],[6.968143,4.772361],[6.968218,4.772405],[6.968142,4.772537],[6.968017,4.772465],[6.968083,4.77235],[6.968133,4.772379]]]}},{"type":"Feature","properties":{"h":3.0,"on_route":false},"geometry":{"type":"Polygon","coordinates":[[[6.970428,4.773451],[6.970405,4.773436],[6.970437,4.77339],[6.970459,4.773406],[6.970428,4.773451]]]}},{"type":"Feature","properties":{"h":3.0,"on_route":false},"geometry":{"type":"Polygon","coordinates":[[[6.971335,4.766554],[6.971306,4.766579],[6.97127,4.766537],[6.971299,4.766512],[6.971335,4.766554]]]}},{"type":"Feature","properties":{"h":3.0,"on_route":false},"geometry":{"type":"Polygon","coordinates":[[[6.968381,4.773494],[6.968318,4.773585],[6.968043,4.773393],[6.968026,4.773417],[6.967983,4.773386],[6.967999,4.773363],[6.967913,4.773303],[6.967976,4.773212],[6.968381,4.773494]]]}},{"type":"Feature","properties":{"h":3.0,"on_route":false},"geometry":{"type":"Polygon","coordinates":[[[6.96854,4.773504],[6.968157,4.773236],[6.968354,4.772953],[6.968389,4.772978],[6.968444,4.7729],[6.968695,4.773076],[6.968644,4.77315],[6.968741,4.773218],[6.968767,4.773181],[6.96882,4.773218],[6.968758,4.773307],[6.968791,4.773331],[6.968628,4.773565],[6.968625,4.773563],[6.968624,4.773566],[6.968539,4.773505],[6.96854,4.773504]]]}},{"type":"Feature","properties":{"h":3.0,"on_route":false},"geometry":{"type":"Polygon","coordinates":[[[6.968289,4.769024],[6.968226,4.769092],[6.968044,4.768924],[6.968106,4.768856],[6.968289,4.769024]]]}},{"type":"Feature","properties":{"h":3.0,"on_route":false},"geometry":{"type":"Polygon","coordinates":[[[6.969137,4.77157],[6.969048,4.771718],[6.968917,4.771638],[6.969006,4.77149],[6.969137,4.77157]]]}},{"type":"Feature","properties":{"h":3.0,"on_route":false},"geometry":{"type":"Polygon","coordinates":[[[6.970745,4.773603],[6.9707,4.773668],[6.970672,4.773649],[6.970717,4.773584],[6.970745,4.773603]]]}},{"type":"Feature","properties":{"h":3.0,"on_route":false},"geometry":{"type":"Polygon","coordinates":[[[6.973866,4.770922],[6.973865,4.770954],[6.973834,4.770953],[6.973835,4.770921],[6.973866,4.770922]]]}},{"type":"Feature","properties":{"h":3.0,"on_route":false},"geometry":{"type":"Polygon","coordinates":[[[6.96708,4.771219],[6.967039,4.771284],[6.966945,4.771225],[6.966985,4.77116],[6.96708,4.771219]]]}},{"type":"Feature","properties":{"h":3.0,"on_route":false},"geometry":{"type":"Polygon","coordinates":[[[6.966852,4.770814],[6.966829,4.770864],[6.966774,4.770838],[6.966797,4.770789],[6.966852,4.770814]]]}},{"type":"Feature","properties":{"h":3.0,"on_route":true},"geometry":{"type":"Polygon","coordinates":[[[6.970318,4.768638],[6.97026,4.768772],[6.969915,4.768623],[6.969973,4.768489],[6.970318,4.768638]]]}},{"type":"Feature","properties":{"h":3.0,"on_route":false},"geometry":{"type":"Polygon","coordinates":[[[6.970665,4.773549],[6.970634,4.773594],[6.970578,4.773556],[6.97061,4.77351],[6.970665,4.773549]]]}},{"type":"Feature","properties":{"h":3.0,"on_route":false},"geometry":{"type":"Polygon","coordinates":[[[6.969123,4.772973],[6.968994,4.772882],[6.969387,4.772323],[6.969516,4.772414],[6.969123,4.772973]]]}},{"type":"Feature","properties":{"h":3.0,"on_route":false},"geometry":{"type":"Polygon","coordinates":[[[6.971317,4.77244],[6.971232,4.772564],[6.97121,4.772549],[6.971295,4.772425],[6.971317,4.77244]]]}},{"type":"Feature","properties":{"h":3.0,"on_route":true},"geometry":{"type":"Polygon","coordinates":[[[6.97195,4.77106],[6.971228,4.770622],[6.971228,4.770621],[6.970166,4.769974],[6.970164,4.769972],[6.970481,4.76945],[6.972266,4.77054],[6.972201,4.770647],[6.972199,4.770646],[6.972185,4.770669],[6.972187,4.770671],[6.972044,4.770908],[6.972042,4.770907],[6.97195,4.77106]]]}},{"type":"Feature","properties":{"h":3.0,"on_route":false},"geometry":{"type":"Polygon","coordinates":[[[6.970514,4.770542],[6.970462,4.77063],[6.970342,4.770559],[6.970395,4.770471],[6.970514,4.770542]]]}},{"type":"Feature","properties":{"h":3.0,"on_route":false},"geometry":{"type":"Polygon","coordinates":[[[6.966237,4.767013],[6.966263,4.767216],[6.966218,4.767222],[6.966215,4.767196],[6.966144,4.767206],[6.966121,4.767028],[6.966237,4.767013]]]}},{"type":"Feature","properties":{"h":3.0,"on_route":false},"geometry":{"type":"Polygon","coordinates":[[[6.966809,4.768548],[6.966776,4.768552],[6.966771,4.768519],[6.966805,4.768514],[6.966809,4.768548]]]}},{"type":"Feature","properties":{"h":3.0,"on_route":false},"geometry":{"type":"Polygon","coordinates":[[[6.97064,4.770663],[6.971276,4.771046],[6.971208,4.771161],[6.970571,4.770777],[6.97064,4.770663]]]}},{"type":"Feature","properties":{"h":3.0,"on_route":false},"geometry":{"type":"Polygon","coordinates":[[[6.966831,4.768513],[6.966836,4.768546],[6.966802,4.768551],[6.966797,4.768517],[6.966831,4.768513]]]}},{"type":"Feature","properties":{"h":3.0,"on_route":false},"geometry":{"type":"Polygon","coordinates":[[[6.969516,4.772982],[6.969385,4.772886],[6.969538,4.772677],[6.969669,4.772774],[6.969516,4.772982]]]}},{"type":"Feature","properties":{"h":3.0,"on_route":false},"geometry":{"type":"Polygon","coordinates":[[[6.970563,4.773478],[6.970532,4.773524],[6.970474,4.773483],[6.970505,4.773438],[6.970563,4.773478]]]}},{"type":"Feature","properties":{"h":3.0,"on_route":false},"geometry":{"type":"Polygon","coordinates":[[[6.968501,4.768809],[6.968433,4.768882],[6.968245,4.768708],[6.968313,4.768635],[6.968501,4.768809]]]}},{"type":"Feature","properties":{"h":3.0,"on_route":false},"geometry":{"type":"Polygon","coordinates":[[[6.967598,4.772118],[6.967526,4.772238],[6.967156,4.772015],[6.967228,4.771895],[6.967598,4.772118]]]}},{"type":"Feature","properties":{"h":3.0,"on_route":false},"geometry":{"type":"Polygon","coordinates":[[[6.970598,4.773319],[6.970563,4.773369],[6.970535,4.773348],[6.97057,4.773299],[6.970598,4.773319]]]}},{"type":"Feature","properties":{"h":3.0,"on_route":false},"geometry":{"type":"Polygon","coordinates":[[[6.9706,4.773689],[6.970537,4.773785],[6.970485,4.77375],[6.970549,4.773655],[6.9706,4.773689]]]}},{"type":"Feature","properties":{"h":3.0,"on_route":false},"geometry":{"type":"Polygon","coordinates":[[[6.968034,4.769578],[6.967944,4.769494],[6.968117,4.769308],[6.968207,4.769392],[6.968034,4.769578]]]}},{"type":"Feature","properties":{"h":3.0,"on_route":false},"geometry":{"type":"Polygon","coordinates":[[[6.972568,4.77256],[6.972445,4.772735],[6.971688,4.772203],[6.97181,4.772028],[6.972568,4.77256]]]}},{"type":"Feature","properties":{"h":3.0,"on_route":false},"geometry":{"type":"Polygon","coordinates":[[[6.971541,4.771251],[6.971515,4.77129],[6.971415,4.771223],[6.971441,4.771184],[6.971541,4.771251]]]}},{"type":"Feature","properties":{"h":3.0,"on_route":false},"geometry":{"type":"Polygon","coordinates":[[[6.966154,4.771153],[6.966134,4.771226],[6.966018,4.771194],[6.966038,4.771121],[6.966154,4.771153]]]}},{"type":"Feature","properties":{"h":3.0,"on_route":false},"geometry":{"type":"Polygon","coordinates":[[[6.971714,4.771222],[6.971646,4.771323],[6.971608,4.771297],[6.971676,4.771197],[6.971714,4.771222]]]}},{"type":"Feature","properties":{"h":3.0,"on_route":false},"geometry":{"type":"Polygon","coordinates":[[[6.972739,4.769554],[6.972661,4.769673],[6.972505,4.769572],[6.972583,4.769452],[6.972739,4.769554]]]}},{"type":"Feature","properties":{"h":3.0,"on_route":false},"geometry":{"type":"Polygon","coordinates":[[[6.971529,4.771466],[6.971497,4.771444],[6.97156,4.771351],[6.971592,4.771373],[6.971529,4.771466]]]}},{"type":"Feature","properties":{"h":3.0,"on_route":false},"geometry":{"type":"Polygon","coordinates":[[[6.969084,4.76851],[6.96906,4.76855],[6.969015,4.768523],[6.969039,4.768483],[6.969084,4.76851]]]}},{"type":"Feature","properties":{"h":3.0,"on_route":false},"geometry":{"type":"Polygon","coordinates":[[[6.966829,4.770864],[6.966804,4.770918],[6.966749,4.770892],[6.966774,4.770838],[6.966829,4.770864]]]}},{"type":"Feature","properties":{"h":3.0,"on_route":false},"geometry":{"type":"Polygon","coordinates":[[[6.971131,4.772708],[6.971098,4.772686],[6.971164,4.77259],[6.971196,4.772612],[6.971131,4.772708]]]}},{"type":"Feature","properties":{"h":3.0,"on_route":false},"geometry":{"type":"Polygon","coordinates":[[[6.971035,4.773091],[6.971007,4.773131],[6.970959,4.773096],[6.970987,4.773057],[6.971035,4.773091]]]}},{"type":"Feature","properties":{"h":3.0,"on_route":false},"geometry":{"type":"Polygon","coordinates":[[[6.971842,4.767833],[6.971773,4.767864],[6.971729,4.767768],[6.971798,4.767737],[6.971842,4.767833]]]}},{"type":"Feature","properties":{"h":3.0,"on_route":false},"geometry":{"type":"Polygon","coordinates":[[[6.965961,4.771206],[6.965904,4.771167],[6.965997,4.771028],[6.966054,4.771066],[6.965961,4.771206]]]}},{"type":"Feature","properties":{"h":3.0,"on_route":false},"geometry":{"type":"Polygon","coordinates":[[[6.967885,4.772556],[6.967871,4.772591],[6.967823,4.772572],[6.967836,4.772537],[6.967885,4.772556]]]}},{"type":"Feature","properties":{"h":3.0,"on_route":false},"geometry":{"type":"Polygon","coordinates":[[[6.971439,4.771268],[6.971408,4.771313],[6.971312,4.771247],[6.971342,4.771202],[6.971439,4.771268]]]}},{"type":"Feature","properties":{"h":3.0,"on_route":false},"geometry":{"type":"Polygon","coordinates":[[[6.966343,4.771358],[6.966341,4.771397],[6.966267,4.771393],[6.966269,4.771355],[6.966343,4.771358]]]}},{"type":"Feature","properties":{"h":3.0,"on_route":false},"geometry":{"type":"Polygon","coordinates":[[[6.972174,4.767793],[6.972141,4.767804],[6.97213,4.767769],[6.972163,4.767759],[6.972174,4.767793]]]}},{"type":"Feature","properties":{"h":3.0,"on_route":false},"geometry":{"type":"Polygon","coordinates":[[[6.970766,4.773452],[6.97074,4.77343],[6.970773,4.773391],[6.970799,4.773413],[6.970766,4.773452]]]}},{"type":"Feature","properties":{"h":3.0,"on_route":false},"geometry":{"type":"Polygon","coordinates":[[[6.966618,4.766698],[6.966625,4.766776],[6.966568,4.766781],[6.966562,4.766703],[6.966618,4.766698]]]}},{"type":"Feature","properties":{"h":3.0,"on_route":false},"geometry":{"type":"Polygon","coordinates":[[[6.966649,4.771261],[6.966616,4.771238],[6.966674,4.771156],[6.966706,4.771178],[6.966649,4.771261]]]}},{"type":"Feature","properties":{"h":3.0,"on_route":false},"geometry":{"type":"Polygon","coordinates":[[[6.971647,4.77121],[6.971621,4.77125],[6.971512,4.77118],[6.971537,4.77114],[6.971647,4.77121]]]}},{"type":"Feature","properties":{"h":3.0,"on_route":false},"geometry":{"type":"Polygon","coordinates":[[[6.966835,4.770932],[6.966809,4.770989],[6.966758,4.770966],[6.966785,4.770909],[6.966835,4.770932]]]}},{"type":"Feature","properties":{"h":3.0,"on_route":false},"geometry":{"type":"Polygon","coordinates":[[[6.968529,4.76988],[6.968576,4.769908],[6.968555,4.769943],[6.968508,4.769914],[6.968529,4.76988]]]}},{"type":"Feature","properties":{"h":3.0,"on_route":false},"geometry":{"type":"Polygon","coordinates":[[[6.968376,4.770273],[6.968359,4.770307],[6.968295,4.770276],[6.968312,4.770242],[6.968376,4.770273]]]}},{"type":"Feature","properties":{"h":3.0,"on_route":false},"geometry":{"type":"Polygon","coordinates":[[[6.967998,4.768762],[6.967896,4.768879],[6.967791,4.768786],[6.967893,4.76867],[6.967998,4.768762]]]}},{"type":"Feature","properties":{"h":3.0,"on_route":false},"geometry":{"type":"Polygon","coordinates":[[[6.96828,4.771707],[6.968113,4.771953],[6.968012,4.771884],[6.968178,4.771638],[6.96828,4.771707]]]}},{"type":"Feature","properties":{"h":3.0,"on_route":false},"geometry":{"type":"Polygon","coordinates":[[[6.970964,4.772373],[6.970943,4.772401],[6.970899,4.772367],[6.97092,4.772339],[6.970964,4.772373]]]}},{"type":"Feature","properties":{"h":3.0,"on_route":false},"geometry":{"type":"Polygon","coordinates":[[[6.968117,4.770032],[6.968096,4.770075],[6.968048,4.770051],[6.968069,4.770008],[6.968117,4.770032]]]}},{"type":"Feature","properties":{"h":3.0,"on_route":false},"geometry":{"type":"Polygon","coordinates":[[[6.966668,4.771943],[6.966625,4.772015],[6.966561,4.771976],[6.966603,4.771904],[6.966668,4.771943]]]}},{"type":"Feature","properties":{"h":3.0,"on_route":false},"geometry":{"type":"Polygon","coordinates":[[[6.96802,4.768721],[6.967833,4.768547],[6.96828,4.768066],[6.968467,4.76824],[6.96802,4.768721]]]}},{"type":"Feature","properties":{"h":3.0,"on_route":false},"geometry":{"type":"Polygon","coordinates":[[[6.968223,4.766788],[6.968221,4.766788],[6.9682,4.766642],[6.969132,4.766502],[6.969128,4.766476],[6.969323,4.766447],[6.969327,4.766473],[6.970081,4.766362],[6.970102,4.766507],[6.969248,4.766635],[6.969247,4.766641],[6.969209,4.766641],[6.969105,4.766656],[6.969108,4.766681],[6.9691,4.766682],[6.9691,4.766688],[6.969064,4.766687],[6.968855,4.766717],[6.968854,4.76671],[6.968848,4.766711],[6.968846,4.766695],[6.96838,4.766764],[6.968382,4.766778],[6.968225,4.766801],[6.968223,4.766788]]]}},{"type":"Feature","properties":{"h":3.0,"on_route":false},"geometry":{"type":"Polygon","coordinates":[[[6.970505,4.771964],[6.970314,4.77183],[6.9707,4.771273],[6.970892,4.771408],[6.970505,4.771964]]]}},{"type":"Feature","properties":{"h":3.0,"on_route":false},"geometry":{"type":"Polygon","coordinates":[[[6.972737,4.771273],[6.972682,4.771358],[6.972621,4.771318],[6.972677,4.771233],[6.972737,4.771273]]]}},{"type":"Feature","properties":{"h":3.0,"on_route":false},"geometry":{"type":"Polygon","coordinates":[[[6.968255,4.772798],[6.968094,4.773031],[6.968029,4.772986],[6.968141,4.772824],[6.968114,4.772805],[6.968163,4.772734],[6.968255,4.772798]]]}},{"type":"Feature","properties":{"h":3.0,"on_route":false},"geometry":{"type":"Polygon","coordinates":[[[6.968719,4.768572],[6.968652,4.768645],[6.968485,4.768491],[6.968553,4.768417],[6.968719,4.768572]]]}},{"type":"Feature","properties":{"h":3.0,"on_route":false},"geometry":{"type":"Polygon","coordinates":[[[6.972642,4.769758],[6.972556,4.769913],[6.972399,4.769824],[6.972485,4.769669],[6.972642,4.769758]]]}},{"type":"Feature","properties":{"h":3.0,"on_route":false},"geometry":{"type":"Polygon","coordinates":[[[6.971437,4.771075],[6.971355,4.771023],[6.971293,4.771121],[6.971265,4.771103],[6.971343,4.770981],[6.971452,4.771051],[6.971437,4.771075]]]}},{"type":"Feature","properties":{"h":3.0,"on_route":false},"geometry":{"type":"Polygon","coordinates":[[[6.973594,4.770614],[6.97352,4.77073],[6.973476,4.770702],[6.973527,4.770621],[6.973509,4.770609],[6.973532,4.770574],[6.973594,4.770614]]]}},{"type":"Feature","properties":{"h":3.0,"on_route":false},"geometry":{"type":"Polygon","coordinates":[[[6.967361,4.772274],[6.967289,4.77239],[6.967237,4.772358],[6.967309,4.772241],[6.967361,4.772274]]]}},{"type":"Feature","properties":{"h":3.0,"on_route":false},"geometry":{"type":"Polygon","coordinates":[[[6.968261,4.772298],[6.968236,4.772342],[6.968125,4.772279],[6.96815,4.772235],[6.968261,4.772298]]]}},{"type":"Feature","properties":{"h":3.0,"on_route":false},"geometry":{"type":"Polygon","coordinates":[[[6.968433,4.768882],[6.968363,4.768958],[6.968175,4.768784],[6.968245,4.768708],[6.968433,4.768882]]]}},{"type":"Feature","properties":{"h":3.0,"on_route":false},"geometry":{"type":"Polygon","coordinates":[[[6.970473,4.7736],[6.970407,4.773688],[6.970375,4.773665],[6.970441,4.773576],[6.970473,4.7736]]]}},{"type":"Feature","properties":{"h":3.0,"on_route":false},"geometry":{"type":"Polygon","coordinates":[[[6.968845,4.76875],[6.968776,4.768687],[6.968875,4.76858],[6.968925,4.768627],[6.968949,4.768601],[6.968967,4.768618],[6.968845,4.76875]]]}},{"type":"Feature","properties":{"h":3.0,"on_route":false},"geometry":{"type":"Polygon","coordinates":[[[6.971579,4.772001],[6.971308,4.772387],[6.971219,4.772323],[6.97149,4.771938],[6.971579,4.772001]]]}},{"type":"Feature","properties":{"h":3.0,"on_route":false},"geometry":{"type":"Polygon","coordinates":[[[6.973765,4.771635],[6.973754,4.771652],[6.973728,4.771634],[6.973711,4.771659],[6.973721,4.771666],[6.973704,4.771691],[6.973652,4.771655],[6.973697,4.771589],[6.973765,4.771635]]]}},{"type":"Feature","properties":{"h":3.0,"on_route":false},"geometry":{"type":"Polygon","coordinates":[[[6.96948,4.769008],[6.969384,4.769119],[6.969244,4.768998],[6.96934,4.768886],[6.96948,4.769008]]]}},{"type":"Feature","properties":{"h":3.0,"on_route":false},"geometry":{"type":"Polygon","coordinates":[[[6.969164,4.771357],[6.969179,4.771331],[6.969491,4.771522],[6.969475,4.771548],[6.969528,4.77158],[6.969463,4.771686],[6.96902,4.771413],[6.969084,4.771308],[6.969164,4.771357]]]}},{"type":"Feature","properties":{"h":3.0,"on_route":false},"geometry":{"type":"Polygon","coordinates":[[[6.97125,4.773106],[6.97115,4.773093],[6.971165,4.772988],[6.971264,4.773001],[6.97125,4.773106]]]}},{"type":"Feature","properties":{"h":3.0,"on_route":false},"geometry":{"type":"Polygon","coordinates":[[[6.97102,4.769678],[6.970996,4.769718],[6.970894,4.769657],[6.970918,4.769618],[6.97102,4.769678]]]}},{"type":"Feature","properties":{"h":3.0,"on_route":false},"geometry":{"type":"Polygon","coordinates":[[[6.96662,4.770904],[6.966595,4.77095],[6.966549,4.770925],[6.966573,4.770879],[6.96662,4.770904]]]}},{"type":"Feature","properties":{"h":3.0,"on_route":false},"geometry":{"type":"Polygon","coordinates":[[[6.971455,4.772255],[6.97139,4.772349],[6.971367,4.772333],[6.971432,4.772239],[6.971455,4.772255]]]}},{"type":"Feature","properties":{"h":3.0,"on_route":false},"geometry":{"type":"Polygon","coordinates":[[[6.966581,4.771099],[6.966513,4.771205],[6.966425,4.771148],[6.966493,4.771042],[6.966581,4.771099]]]}},{"type":"Feature","properties":{"h":3.0,"on_route":false},"geometry":{"type":"Polygon","coordinates":[[[6.973459,4.772087],[6.973424,4.772143],[6.973362,4.772104],[6.973397,4.772048],[6.973459,4.772087]]]}},{"type":"Feature","properties":{"h":3.0,"on_route":false},"geometry":{"type":"Polygon","coordinates":[[[6.970404,4.773547],[6.970376,4.773527],[6.970417,4.773466],[6.970446,4.773486],[6.970404,4.773547]]]}},{"type":"Feature","properties":{"h":3.0,"on_route":false},"geometry":{"type":"Polygon","coordinates":[[[6.970849,4.773505],[6.970822,4.773545],[6.970778,4.773515],[6.970805,4.773475],[6.970849,4.773505]]]}},{"type":"Feature","properties":{"h":3.0,"on_route":false},"geometry":{"type":"Polygon","coordinates":[[[6.965984,4.771021],[6.965958,4.77107],[6.965919,4.77105],[6.965945,4.771001],[6.965984,4.771021]]]}},{"type":"Feature","properties":{"h":3.0,"on_route":false},"geometry":{"type":"Polygon","coordinates":[[[6.968783,4.768502],[6.968719,4.768572],[6.968553,4.768417],[6.968617,4.768348],[6.968783,4.768502]]]}},{"type":"Feature","properties":{"h":3.0,"on_route":false},"geometry":{"type":"Polygon","coordinates":[[[6.9734,4.772128],[6.973374,4.772169],[6.973337,4.772146],[6.973362,4.772104],[6.9734,4.772128]]]}},{"type":"Feature","properties":{"h":3.0,"on_route":false},"geometry":{"type":"Polygon","coordinates":[[[6.966705,4.770923],[6.96668,4.770973],[6.966635,4.77095],[6.96666,4.7709],[6.966705,4.770923]]]}},{"type":"Feature","properties":{"h":3.0,"on_route":false},"geometry":{"type":"Polygon","coordinates":[[[6.969348,4.773773],[6.969202,4.773982],[6.968799,4.773698],[6.968819,4.773668],[6.96879,4.773648],[6.968915,4.773469],[6.969348,4.773773]]]}},{"type":"Feature","properties":{"h":3.0,"on_route":false},"geometry":{"type":"Polygon","coordinates":[[[6.970691,4.773386],[6.970657,4.773435],[6.970615,4.773406],[6.97065,4.773356],[6.970691,4.773386]]]}},{"type":"Feature","properties":{"h":3.0,"on_route":false},"geometry":{"type":"Polygon","coordinates":[[[6.96908,4.770405],[6.969095,4.770379],[6.96913,4.7704],[6.969083,4.77048],[6.968993,4.770427],[6.969025,4.770373],[6.96908,4.770405]]]}},{"type":"Feature","properties":{"h":3.0,"on_route":false},"geometry":{"type":"Polygon","coordinates":[[[6.969979,4.77359],[6.969827,4.773808],[6.969798,4.773787],[6.969764,4.773837],[6.969113,4.773382],[6.969298,4.773115],[6.969979,4.77359]]]}},{"type":"Feature","properties":{"h":3.0,"on_route":false},"geometry":{"type":"Polygon","coordinates":[[[6.969177,4.771967],[6.969134,4.772035],[6.969019,4.771961],[6.969062,4.771893],[6.969177,4.771967]]]}},{"type":"Feature","properties":{"h":3.0,"on_route":false},"geometry":{"type":"Polygon","coordinates":[[[6.971537,4.77114],[6.971512,4.77118],[6.971411,4.771116],[6.971437,4.771075],[6.971537,4.77114]]]}},{"type":"Feature","properties":{"h":3.0,"on_route":false},"geometry":{"type":"Polygon","coordinates":[[[6.9687,4.772686],[6.968661,4.772743],[6.968713,4.772779],[6.96864,4.772886],[6.968482,4.772778],[6.968595,4.772614],[6.9687,4.772686]]]}},{"type":"Feature","properties":{"h":3.0,"on_route":false},"geometry":{"type":"Polygon","coordinates":[[[6.968352,4.769582],[6.968877,4.769905],[6.968791,4.770046],[6.968266,4.769723],[6.968352,4.769582]]]}},{"type":"Feature","properties":{"h":3.0,"on_route":false},"geometry":{"type":"Polygon","coordinates":[[[6.970622,4.7712],[6.970514,4.771381],[6.970114,4.771142],[6.970222,4.770961],[6.970622,4.7712]]]}},{"type":"Feature","properties":{"h":3.0,"on_route":false},"geometry":{"type":"Polygon","coordinates":[[[6.971655,4.771321],[6.971628,4.77136],[6.971521,4.771287],[6.971548,4.771248],[6.971655,4.771321]]]}},{"type":"Feature","properties":{"h":3.0,"on_route":false},"geometry":{"type":"Polygon","coordinates":[[[6.96983,4.766372],[6.969748,4.766384],[6.969734,4.766288],[6.969816,4.766276],[6.96983,4.766372]]]}},{"type":"Feature","properties":{"h":3.0,"on_route":false},"geometry":{"type":"Polygon","coordinates":[[[6.966293,4.771233],[6.966285,4.771315],[6.966163,4.771304],[6.96617,4.771222],[6.966293,4.771233]]]}},{"type":"Feature","properties":{"h":3.0,"on_route":false},"geometry":{"type":"Polygon","coordinates":[[[6.971686,4.771437],[6.971642,4.771501],[6.971548,4.771438],[6.971592,4.771373],[6.971686,4.771437]]]}},{"type":"Feature","properties":{"h":3.0,"on_route":false},"geometry":{"type":"Polygon","coordinates":[[[6.966968,4.772023],[6.966886,4.772151],[6.966689,4.772023],[6.966771,4.771896],[6.966968,4.772023]]]}},{"type":"Feature","properties":{"h":3.0,"on_route":false},"geometry":{"type":"Polygon","coordinates":[[[6.968402,4.769839],[6.968216,4.770134],[6.968122,4.770075],[6.968308,4.769779],[6.968402,4.769839]]]}},{"type":"Feature","properties":{"h":3.0,"on_route":false},"geometry":{"type":"Polygon","coordinates":[[[6.970881,4.773602],[6.970852,4.773582],[6.970913,4.773492],[6.970942,4.773512],[6.970881,4.773602]]]}},{"type":"Feature","properties":{"h":3.0,"on_route":false},"geometry":{"type":"Polygon","coordinates":[[[6.967151,4.771266],[6.967121,4.771318],[6.967063,4.771285],[6.967093,4.771233],[6.967151,4.771266]]]}},{"type":"Feature","properties":{"h":3.0,"on_route":false},"geometry":{"type":"Polygon","coordinates":[[[6.966337,4.771112],[6.966327,4.771182],[6.966252,4.771172],[6.966262,4.771102],[6.966337,4.771112]]]}},{"type":"Feature","properties":{"h":3.0,"on_route":false},"geometry":{"type":"Polygon","coordinates":[[[6.971471,4.771552],[6.971424,4.771621],[6.971385,4.771594],[6.971431,4.771526],[6.971471,4.771552]]]}},{"type":"Feature","properties":{"h":3.0,"on_route":false},"geometry":{"type":"Polygon","coordinates":[[[6.970948,4.771601],[6.970653,4.772044],[6.970584,4.771997],[6.970879,4.771554],[6.970948,4.771601]]]}},{"type":"Feature","properties":{"h":3.0,"on_route":false},"geometry":{"type":"Polygon","coordinates":[[[6.969137,4.768358],[6.969106,4.768329],[6.968989,4.768456],[6.96889,4.768365],[6.969027,4.768216],[6.969157,4.768337],[6.969137,4.768358]]]}},{"type":"Feature","properties":{"h":3.0,"on_route":false},"geometry":{"type":"Polygon","coordinates":[[[6.9682,4.769842],[6.968154,4.769914],[6.968134,4.769901],[6.96818,4.769829],[6.9682,4.769842]]]}},{"type":"Feature","properties":{"h":3.0,"on_route":false},"geometry":{"type":"Polygon","coordinates":[[[6.97164,4.771498],[6.971517,4.771683],[6.971423,4.771621],[6.971547,4.771436],[6.97164,4.771498]]]}},{"type":"Feature","properties":{"h":3.0,"on_route":false},"geometry":{"type":"Polygon","coordinates":[[[6.971018,4.770521],[6.971,4.770555],[6.970929,4.770519],[6.970947,4.770484],[6.971018,4.770521]]]}},{"type":"Feature","properties":{"h":3.0,"on_route":false},"geometry":{"type":"Polygon","coordinates":[[[6.966199,4.771044],[6.966172,4.771091],[6.966127,4.771064],[6.966155,4.771018],[6.966199,4.771044]]]}},{"type":"Feature","properties":{"h":3.0,"on_route":false},"geometry":{"type":"Polygon","coordinates":[[[6.967214,4.772206],[6.967134,4.772329],[6.967032,4.772263],[6.967112,4.772139],[6.967214,4.772206]]]}},{"type":"Feature","properties":{"h":3.0,"on_route":false},"geometry":{"type":"Polygon","coordinates":[[[6.972698,4.770993],[6.972644,4.771076],[6.972583,4.771036],[6.972637,4.770953],[6.972698,4.770993]]]}},{"type":"Feature","properties":{"h":3.0,"on_route":false},"geometry":{"type":"Polygon","coordinates":[[[6.968357,4.768949],[6.968289,4.769024],[6.968106,4.768856],[6.968174,4.768781],[6.968357,4.768949]]]}},{"type":"Feature","properties":{"h":3.0,"on_route":false},"geometry":{"type":"Polygon","coordinates":[[[6.97112,4.773059],[6.971077,4.773121],[6.970839,4.772952],[6.970883,4.77289],[6.97112,4.773059]]]}},{"type":"Feature","properties":{"h":3.0,"on_route":true},"geometry":{"type":"Polygon","coordinates":[[[6.970795,4.768575],[6.970757,4.768558],[6.970803,4.768451],[6.970841,4.768467],[6.970795,4.768575]]]}},{"type":"Feature","properties":{"h":3.0,"on_route":false},"geometry":{"type":"Polygon","coordinates":[[[6.966676,4.768227],[6.966686,4.768335],[6.966657,4.768338],[6.966647,4.76823],[6.966676,4.768227]]]}},{"type":"Feature","properties":{"h":3.0,"on_route":false},"geometry":{"type":"Polygon","coordinates":[[[6.968498,4.769995],[6.968723,4.77013],[6.968694,4.770178],[6.96847,4.770043],[6.968498,4.769995]]]}},{"type":"Feature","properties":{"h":3.0,"on_route":false},"geometry":{"type":"Polygon","coordinates":[[[6.969839,4.770738],[6.969462,4.771352],[6.968993,4.771062],[6.96937,4.770447],[6.969839,4.770738]]]}},{"type":"Feature","properties":{"h":3.0,"on_route":false},"geometry":{"type":"Polygon","coordinates":[[[6.970129,4.772228],[6.970044,4.772352],[6.970018,4.772334],[6.970026,4.772322],[6.969919,4.772247],[6.969996,4.772135],[6.970129,4.772228]]]}},{"type":"Feature","properties":{"h":3.0,"on_route":false},"geometry":{"type":"Polygon","coordinates":[[[6.970983,4.771433],[6.970972,4.771464],[6.970939,4.771453],[6.97095,4.771421],[6.970983,4.771433]]]}},{"type":"Feature","properties":{"h":3.0,"on_route":false},"geometry":{"type":"Polygon","coordinates":[[[6.970956,4.772778],[6.970927,4.772835],[6.970881,4.772812],[6.970909,4.772755],[6.970956,4.772778]]]}},{"type":"Feature","properties":{"h":3.0,"on_route":false},"geometry":{"type":"Polygon","coordinates":[[[6.968715,4.771581],[6.968552,4.77182],[6.968349,4.77168],[6.968512,4.771442],[6.968715,4.771581]]]}},{"type":"Feature","properties":{"h":3.0,"on_route":false},"geometry":{"type":"Polygon","coordinates":[[[6.967978,4.772836],[6.967924,4.772804],[6.967988,4.772694],[6.968042,4.772726],[6.967978,4.772836]]]}},{"type":"Feature","properties":{"h":3.0,"on_route":false},"geometry":{"type":"Polygon","coordinates":[[[6.966315,4.770971],[6.966253,4.771029],[6.966197,4.77097],[6.966259,4.770912],[6.966315,4.770971]]]}},{"type":"Feature","properties":{"h":3.0,"on_route":false},"geometry":{"type":"Polygon","coordinates":[[[6.969039,4.770347],[6.968995,4.770428],[6.968927,4.77039],[6.96897,4.77031],[6.969039,4.770347]]]}},{"type":"Feature","properties":{"h":3.0,"on_route":false},"geometry":{"type":"Polygon","coordinates":[[[6.969157,4.766454],[6.968737,4.766518],[6.968721,4.766415],[6.969142,4.766351],[6.969157,4.766454]]]}},{"type":"Feature","properties":{"h":3.0,"on_route":false},"geometry":{"type":"Polygon","coordinates":[[[6.972816,4.769118],[6.972838,4.769171],[6.9728,4.769186],[6.972779,4.769133],[6.972816,4.769118]]]}},{"type":"Feature","properties":{"h":3.0,"on_route":false},"geometry":{"type":"Polygon","coordinates":[[[6.973769,4.771801],[6.973757,4.771818],[6.973782,4.771836],[6.973724,4.771921],[6.97374,4.771931],[6.973711,4.771974],[6.973695,4.771963],[6.973657,4.77202],[6.973636,4.772006],[6.973647,4.77199],[6.973563,4.771932],[6.973549,4.771952],[6.973533,4.771941],[6.973575,4.77188],[6.973549,4.771863],[6.973578,4.77182],[6.973604,4.771838],[6.973643,4.77178],[6.973659,4.771791],[6.97369,4.771746],[6.973769,4.771801]]]}},{"type":"Feature","properties":{"h":3.0,"on_route":false},"geometry":{"type":"Polygon","coordinates":[[[6.971247,4.771299],[6.971332,4.771355],[6.971314,4.771383],[6.971229,4.771327],[6.971247,4.771299]]]}},{"type":"Feature","properties":{"h":3.0,"on_route":false},"geometry":{"type":"Polygon","coordinates":[[[6.970348,4.773003],[6.970179,4.773244],[6.969614,4.772845],[6.969666,4.772771],[6.969559,4.772696],[6.969677,4.772529],[6.970348,4.773003]]]}},{"type":"Feature","properties":{"h":3.0,"on_route":true},"geometry":{"type":"Polygon","coordinates":[[[6.972161,4.767964],[6.972054,4.768027],[6.971914,4.767787],[6.97202,4.767724],[6.972161,4.767964]]]}},{"type":"Feature","properties":{"h":3.0,"on_route":false},"geometry":{"type":"Polygon","coordinates":[[[6.970422,4.773559],[6.970357,4.773653],[6.970288,4.773605],[6.970353,4.773512],[6.970422,4.773559]]]}},{"type":"Feature","properties":{"h":3.0,"on_route":false},"geometry":{"type":"Polygon","coordinates":[[[6.970717,4.773584],[6.970672,4.773649],[6.970621,4.773613],[6.970666,4.773549],[6.970717,4.773584]]]}},{"type":"Feature","properties":{"h":3.0,"on_route":false},"geometry":{"type":"Polygon","coordinates":[[[6.974088,4.770471],[6.97411,4.770567],[6.974088,4.770572],[6.974066,4.770476],[6.974088,4.770471]]]}},{"type":"Feature","properties":{"h":3.0,"on_route":false},"geometry":{"type":"Polygon","coordinates":[[[6.968223,4.769089],[6.968085,4.76924],[6.967906,4.769076],[6.968044,4.768924],[6.968223,4.769089]]]}},{"type":"Feature","properties":{"h":3.0,"on_route":false},"geometry":{"type":"Polygon","coordinates":[[[6.971114,4.77151],[6.971103,4.771545],[6.971069,4.771534],[6.971079,4.771499],[6.971114,4.77151]]]}},{"type":"Feature","properties":{"h":3.0,"on_route":false},"geometry":{"type":"Polygon","coordinates":[[[6.966787,4.772766],[6.966722,4.772727],[6.966692,4.772777],[6.966623,4.772735],[6.966723,4.77257],[6.966857,4.772652],[6.966787,4.772766]]]}},{"type":"Feature","properties":{"h":3.0,"on_route":false},"geometry":{"type":"Polygon","coordinates":[[[6.968233,4.769785],[6.968214,4.769773],[6.968241,4.769732],[6.968259,4.769744],[6.968233,4.769785]]]}},{"type":"Feature","properties":{"h":3.0,"on_route":false},"geometry":{"type":"Polygon","coordinates":[[[6.968989,4.768456],[6.968383,4.769114],[6.968295,4.769032],[6.9689,4.768374],[6.968989,4.768456]]]}},{"type":"Feature","properties":{"h":3.0,"on_route":false},"geometry":{"type":"Polygon","coordinates":[[[6.97058,4.773555],[6.970635,4.773593],[6.970612,4.773626],[6.970557,4.773588],[6.97058,4.773555]]]}},{"type":"Feature","properties":{"h":3.0,"on_route":false},"geometry":{"type":"Polygon","coordinates":[[[6.971008,4.773614],[6.970973,4.773665],[6.970939,4.773642],[6.970973,4.77359],[6.971008,4.773614]]]}},{"type":"Feature","properties":{"h":3.0,"on_route":false},"geometry":{"type":"Polygon","coordinates":[[[6.97133,4.771886],[6.971282,4.771967],[6.971158,4.771893],[6.971205,4.771812],[6.97133,4.771886]]]}},{"type":"Feature","properties":{"h":3.0,"on_route":false},"geometry":{"type":"Polygon","coordinates":[[[6.97193,4.771818],[6.971899,4.771796],[6.971943,4.771736],[6.971973,4.771758],[6.97193,4.771818]]]}},{"type":"Feature","properties":{"h":3.0,"on_route":false},"geometry":{"type":"Polygon","coordinates":[[[6.969635,4.771335],[6.969577,4.771431],[6.969467,4.771363],[6.969525,4.771268],[6.969635,4.771335]]]}},{"type":"Feature","properties":{"h":3.0,"on_route":false},"geometry":{"type":"Polygon","coordinates":[[[6.969293,4.76793],[6.969161,4.76799],[6.969006,4.767644],[6.969138,4.767584],[6.969293,4.76793]]]}},{"type":"Feature","properties":{"h":3.0,"on_route":false},"geometry":{"type":"Polygon","coordinates":[[[6.972008,4.771771],[6.971959,4.771839],[6.97193,4.771818],[6.971979,4.77175],[6.972008,4.771771]]]}},{"type":"Feature","properties":{"h":3.0,"on_route":false},"geometry":{"type":"Polygon","coordinates":[[[6.97127,4.771961],[6.971246,4.772001],[6.971123,4.771928],[6.971147,4.771887],[6.97127,4.771961]]]}},{"type":"Feature","properties":{"h":3.0,"on_route":false},"geometry":{"type":"Polygon","coordinates":[[[6.969807,4.772149],[6.969852,4.772171],[6.969841,4.772195],[6.969795,4.772173],[6.969807,4.772149]]]}},{"type":"Feature","properties":{"h":3.0,"on_route":false},"geometry":{"type":"Polygon","coordinates":[[[6.97229,4.771868],[6.972208,4.771993],[6.972113,4.77193],[6.972195,4.771805],[6.97229,4.771868]]]}},{"type":"Feature","properties":{"h":3.0,"on_route":false},"geometry":{"type":"Polygon","coordinates":[[[6.970505,4.773438],[6.970474,4.773483],[6.970428,4.773451],[6.970459,4.773406],[6.970505,4.773438]]]}},{"type":"Feature","properties":{"h":3.0,"on_route":false},"geometry":{"type":"Polygon","coordinates":[[[6.968129,4.772198],[6.968116,4.772218],[6.968035,4.772163],[6.968048,4.772142],[6.968129,4.772198]]]}},{"type":"Feature","properties":{"h":3.0,"on_route":false},"geometry":{"type":"Polygon","coordinates":[[[6.96841,4.771802],[6.968241,4.772049],[6.968141,4.771979],[6.96831,4.771733],[6.96841,4.771802]]]}},{"type":"Feature","properties":{"h":3.0,"on_route":false},"geometry":{"type":"Polygon","coordinates":[[[6.970912,4.773486],[6.970879,4.773521],[6.970856,4.7735],[6.970889,4.773464],[6.970912,4.773486]]]}},{"type":"Feature","properties":{"h":3.0,"on_route":false},"geometry":{"type":"Polygon","coordinates":[[[6.971421,4.772509],[6.971228,4.77279],[6.971139,4.772728],[6.971332,4.772447],[6.971421,4.772509]]]}},{"type":"Feature","properties":{"h":3.0,"on_route":false},"geometry":{"type":"Polygon","coordinates":[[[6.966886,4.77089],[6.966861,4.770945],[6.966804,4.770918],[6.966829,4.770864],[6.966886,4.77089]]]}},{"type":"Feature","properties":{"h":3.0,"on_route":false},"geometry":{"type":"Polygon","coordinates":[[[6.97206,4.77165],[6.972039,4.771701],[6.972004,4.771687],[6.972025,4.771635],[6.97206,4.77165]]]}},{"type":"Feature","properties":{"h":3.0,"on_route":false},"geometry":{"type":"Polygon","coordinates":[[[6.968424,4.768091],[6.968373,4.768147],[6.968313,4.768092],[6.968365,4.768036],[6.968424,4.768091]]]}},{"type":"Feature","properties":{"h":3.0,"on_route":false},"geometry":{"type":"Polygon","coordinates":[[[6.968852,4.768428],[6.968787,4.768498],[6.968621,4.768344],[6.968686,4.768273],[6.968852,4.768428]]]}},{"type":"Feature","properties":{"h":3.0,"on_route":true},"geometry":{"type":"Polygon","coordinates":[[[6.973178,4.768343],[6.973144,4.76836],[6.973094,4.768265],[6.973128,4.768248],[6.973178,4.768343]]]}},{"type":"Feature","properties":{"h":3.0,"on_route":false},"geometry":{"type":"Polygon","coordinates":[[[6.970441,4.772082],[6.970386,4.77219],[6.970267,4.772128],[6.970322,4.772021],[6.970441,4.772082]]]}},{"type":"Feature","properties":{"h":3.0,"on_route":false},"geometry":{"type":"Polygon","coordinates":[[[6.968089,4.772304],[6.968018,4.772409],[6.967954,4.772366],[6.968025,4.77226],[6.968089,4.772304]]]}},{"type":"Feature","properties":{"h":3.0,"on_route":false},"geometry":{"type":"Polygon","coordinates":[[[6.96941,4.771654],[6.969389,4.771689],[6.969013,4.771457],[6.969035,4.771422],[6.96941,4.771654]]]}},{"type":"Feature","properties":{"h":3.0,"on_route":false},"geometry":{"type":"Polygon","coordinates":[[[6.97028,4.772407],[6.970328,4.772338],[6.970411,4.772395],[6.970337,4.7725],[6.970099,4.772335],[6.970125,4.772298],[6.97028,4.772407]]]}},{"type":"Feature","properties":{"h":3.0,"on_route":false},"geometry":{"type":"Polygon","coordinates":[[[6.972924,4.768936],[6.97289,4.768945],[6.972882,4.768916],[6.972915,4.768906],[6.972924,4.768936]]]}},{"type":"Feature","properties":{"h":3.0,"on_route":false},"geometry":{"type":"Polygon","coordinates":[[[6.971278,4.771272],[6.97135,4.77132],[6.971334,4.771344],[6.971262,4.771296],[6.971278,4.771272]]]}},{"type":"Feature","properties":{"h":3.0,"on_route":false},"geometry":{"type":"Polygon","coordinates":[[[6.971491,4.771369],[6.971458,4.771417],[6.971366,4.771354],[6.971399,4.771306],[6.971491,4.771369]]]}},{"type":"Feature","properties":{"h":3.0,"on_route":false},"geometry":{"type":"Polygon","coordinates":[[[6.969389,4.771688],[6.969346,4.771759],[6.969251,4.771701],[6.969295,4.77163],[6.969389,4.771688]]]}},{"type":"Feature","properties":{"h":3.0,"on_route":false},"geometry":{"type":"Polygon","coordinates":[[[6.968385,4.769112],[6.968243,4.769267],[6.968147,4.769179],[6.968289,4.769024],[6.968385,4.769112]]]}},{"type":"Feature","properties":{"h":3.0,"on_route":false},"geometry":{"type":"Polygon","coordinates":[[[6.966431,4.771499],[6.966385,4.771466],[6.966488,4.771319],[6.966535,4.771352],[6.966431,4.771499]]]}},{"type":"Feature","properties":{"h":3.0,"on_route":false},"geometry":{"type":"Polygon","coordinates":[[[6.970927,4.772835],[6.9709,4.77289],[6.970854,4.772867],[6.970881,4.772812],[6.970927,4.772835]]]}},{"type":"Feature","properties":{"h":3.0,"on_route":false},"geometry":{"type":"Polygon","coordinates":[[[6.968442,4.772902],[6.96839,4.772978],[6.968315,4.772926],[6.968368,4.77285],[6.968442,4.772902]]]}},{"type":"Feature","properties":{"h":3.0,"on_route":false},"geometry":{"type":"Polygon","coordinates":[[[6.968207,4.772222],[6.968196,4.772245],[6.968159,4.772228],[6.968169,4.772205],[6.968207,4.772222]]]}},{"type":"Feature","properties":{"h":3.0,"on_route":false},"geometry":{"type":"Polygon","coordinates":[[[6.966844,4.768233],[6.966784,4.768244],[6.966779,4.768217],[6.966839,4.768207],[6.966844,4.768233]]]}},{"type":"Feature","properties":{"h":3.0,"on_route":false},"geometry":{"type":"Polygon","coordinates":[[[6.967774,4.772252],[6.967734,4.772316],[6.967632,4.772251],[6.967672,4.772188],[6.967774,4.772252]]]}},{"type":"Feature","properties":{"h":3.0,"on_route":true},"geometry":{"type":"Polygon","coordinates":[[[6.970613,4.768238],[6.97044,4.768628],[6.970108,4.76848],[6.97016,4.768363],[6.970149,4.768359],[6.970164,4.768327],[6.970139,4.768316],[6.970159,4.768271],[6.970118,4.768253],[6.970205,4.768056],[6.970613,4.768238]]]}},{"type":"Feature","properties":{"h":3.0,"on_route":false},"geometry":{"type":"Polygon","coordinates":[[[6.970829,4.773452],[6.970865,4.773484],[6.970851,4.773501],[6.970814,4.77347],[6.970829,4.773452]]]}},{"type":"Feature","properties":{"h":3.0,"on_route":false},"geometry":{"type":"Polygon","coordinates":[[[6.970776,4.77202],[6.970702,4.772127],[6.970627,4.772074],[6.970701,4.771967],[6.970776,4.77202]]]}},{"type":"Feature","properties":{"h":3.0,"on_route":false},"geometry":{"type":"Polygon","coordinates":[[[6.970933,4.772421],[6.970863,4.772527],[6.970764,4.772461],[6.970834,4.772355],[6.970933,4.772421]]]}},{"type":"Feature","properties":{"h":3.0,"on_route":false},"geometry":{"type":"Polygon","coordinates":[[[6.967865,4.772105],[6.967774,4.772252],[6.967672,4.772188],[6.967763,4.772041],[6.967865,4.772105]]]}},{"type":"Feature","properties":{"h":3.0,"on_route":false},"geometry":{"type":"Polygon","coordinates":[[[6.971297,4.771125],[6.971225,4.771231],[6.971193,4.771209],[6.971264,4.771102],[6.971297,4.771125]]]}},{"type":"Feature","properties":{"h":3.0,"on_route":false},"geometry":{"type":"Polygon","coordinates":[[[6.968942,4.770261],[6.968886,4.770359],[6.96875,4.770281],[6.968805,4.770184],[6.968942,4.770261]]]}},{"type":"Feature","properties":{"h":3.0,"on_route":false},"geometry":{"type":"Polygon","coordinates":[[[6.968652,4.768645],[6.968587,4.768715],[6.968421,4.768561],[6.968485,4.768491],[6.968652,4.768645]]]}},{"type":"Feature","properties":{"h":3.0,"on_route":false},"geometry":{"type":"Polygon","coordinates":[[[6.971876,4.770173],[6.971816,4.770268],[6.971679,4.770181],[6.971738,4.770086],[6.971876,4.770173]]]}},{"type":"Feature","properties":{"h":3.0,"on_route":false},"geometry":{"type":"Polygon","coordinates":[[[6.970886,4.773531],[6.970854,4.773579],[6.970816,4.773553],[6.970849,4.773505],[6.970886,4.773531]]]}},{"type":"Feature","properties":{"h":3.0,"on_route":false},"geometry":{"type":"Polygon","coordinates":[[[6.969081,4.770259],[6.969068,4.770278],[6.969027,4.770249],[6.96904,4.77023],[6.969081,4.770259]]]}},{"type":"Feature","properties":{"h":3.0,"on_route":false},"geometry":{"type":"Polygon","coordinates":[[[6.969893,4.772596],[6.96987,4.77258],[6.96993,4.772493],[6.969953,4.772509],[6.969893,4.772596]]]}},{"type":"Feature","properties":{"h":3.0,"on_route":false},"geometry":{"type":"Polygon","coordinates":[[[6.968498,4.771862],[6.968324,4.772114],[6.968237,4.772054],[6.968411,4.771802],[6.968498,4.771862]]]}},{"type":"Feature","properties":{"h":3.0,"on_route":false},"geometry":{"type":"Polygon","coordinates":[[[6.968986,4.772016],[6.968946,4.772087],[6.968844,4.772029],[6.968853,4.772013],[6.968829,4.771999],[6.96886,4.771944],[6.968986,4.772016]]]}},{"type":"Feature","properties":{"h":3.0,"on_route":false},"geometry":{"type":"Polygon","coordinates":[[[6.970582,4.772578],[6.970538,4.772641],[6.970414,4.772554],[6.970457,4.772491],[6.970582,4.772578]]]}},{"type":"Feature","properties":{"h":3.0,"on_route":false},"geometry":{"type":"Polygon","coordinates":[[[6.969572,4.76904],[6.969504,4.768981],[6.96968,4.768776],[6.969749,4.768836],[6.969572,4.76904]]]}},{"type":"Feature","properties":{"h":3.0,"on_route":false},"geometry":{"type":"Polygon","coordinates":[[[6.970481,4.772435],[6.970417,4.772527],[6.970391,4.772509],[6.970455,4.772417],[6.970481,4.772435]]]}},{"type":"Feature","properties":{"h":3.0,"on_route":false},"geometry":{"type":"Polygon","coordinates":[[[6.971063,4.773252],[6.97111,4.773281],[6.971095,4.773304],[6.971049,4.773276],[6.971063,4.773252]]]}},{"type":"Feature","properties":{"h":3.0,"on_route":false},"geometry":{"type":"Polygon","coordinates":[[[6.970445,4.772797],[6.970369,4.772909],[6.969991,4.772651],[6.970067,4.772539],[6.970445,4.772797]]]}},{"type":"Feature","properties":{"h":3.0,"on_route":false},"geometry":{"type":"Polygon","coordinates":[[[6.968678,4.770215],[6.968652,4.77026],[6.968406,4.770118],[6.968432,4.770073],[6.968678,4.770215]]]}},{"type":"Feature","properties":{"h":3.0,"on_route":false},"geometry":{"type":"Polygon","coordinates":[[[6.971678,4.773413],[6.971604,4.773522],[6.97151,4.773458],[6.971584,4.773349],[6.971678,4.773413]]]}},{"type":"Feature","properties":{"h":3.0,"on_route":false},"geometry":{"type":"Polygon","coordinates":[[[6.968018,4.772409],[6.967943,4.772519],[6.967879,4.772476],[6.967954,4.772366],[6.968018,4.772409]]]}},{"type":"Feature","properties":{"h":3.0,"on_route":false},"geometry":{"type":"Polygon","coordinates":[[[6.970914,4.773625],[6.970881,4.773602],[6.970927,4.773534],[6.97096,4.773556],[6.970914,4.773625]]]}},{"type":"Feature","properties":{"h":3.0,"on_route":false},"geometry":{"type":"Polygon","coordinates":[[[6.968805,4.767983],[6.968766,4.768021],[6.968742,4.767997],[6.96878,4.767958],[6.968805,4.767983]]]}},{"type":"Feature","properties":{"h":3.0,"on_route":false},"geometry":{"type":"Polygon","coordinates":[[[6.967989,4.772635],[6.96797,4.772667],[6.967913,4.772634],[6.967932,4.772602],[6.967989,4.772635]]]}},{"type":"Feature","properties":{"h":3.0,"on_route":false},"geometry":{"type":"Polygon","coordinates":[[[6.971346,4.77117],[6.971324,4.771156],[6.971382,4.771064],[6.971404,4.771078],[6.971346,4.77117]]]}},{"type":"Feature","properties":{"h":3.0,"on_route":false},"geometry":{"type":"Polygon","coordinates":[[[6.97109,4.772695],[6.971007,4.772637],[6.9712,4.772356],[6.971283,4.772413],[6.97109,4.772695]]]}},{"type":"Feature","properties":{"h":3.0,"on_route":false},"geometry":{"type":"Polygon","coordinates":[[[6.969093,4.77304],[6.969017,4.773149],[6.968651,4.772892],[6.968727,4.772783],[6.969093,4.77304]]]}},{"type":"Feature","properties":{"h":3.0,"on_route":false},"geometry":{"type":"Polygon","coordinates":[[[6.970536,4.772659],[6.970464,4.772763],[6.970013,4.772446],[6.970086,4.772343],[6.970536,4.772659]]]}},{"type":"Feature","properties":{"h":3.0,"on_route":false},"geometry":{"type":"Polygon","coordinates":[[[6.968478,4.771422],[6.968314,4.771655],[6.968215,4.771585],[6.968378,4.771352],[6.968478,4.771422]]]}},{"type":"Feature","properties":{"h":3.0,"on_route":false},"geometry":{"type":"Polygon","coordinates":[[[6.969247,4.772011],[6.96921,4.772078],[6.969165,4.772053],[6.969203,4.771986],[6.969247,4.772011]]]}},{"type":"Feature","properties":{"h":3.0,"on_route":false},"geometry":{"type":"Polygon","coordinates":[[[6.97156,4.771351],[6.971529,4.771396],[6.971424,4.771324],[6.971455,4.771279],[6.97156,4.771351]]]}}]}