{"type":"FeatureCollection","features":[{"type":"Feature","properties":{},"geometry":{"type":"Polygon","coordinates":[[[6.95788,4.77451],[6.97298,4.78384],[6.97631,4.80712],[7.02505,4.82915],[7.03742,4.80688],[7.06091,4.80726],[7.07361,4.81662],[7.09282,4.85618],[7.10647,4.85122],[7.1128,4.87234],[7.09308,4.9023],[7.08205,4.92182],[7.03886,4.92233],[7.028,4.93866],[6.99442,4.92482],[6.9617,4.93345],[6.95475,4.91749],[6.91811,4.918],[6.89906,4.90425],[6.89291,4.88442],[6.90263,4.85501],[6.9241,4.843],[6.91886,4.80398],[6.92906,4.7817],[6.95788,4.77451]]]}}]}