{"type":"FeatureCollection","features":[{"type":"Feature","properties":{"rank":1},"geometry":{"type":"MultiPolygon","coordinates":[[[[7.07311,4.82812],[7.073,4.82819],[7.07288,4.82799],[7.07299,4.82793],[7.07311,4.82812]]],[[[7.07318,4.82821],[7.07311,4.82826],[7.07312,4.82827],[7.07308,4.82831],[7.07304,4.82827],[7.07315,4.82818],[7.07318,4.82821]]],[[[7.0722,4.82695],[7.07212,4.82697],[7.07205,4.82678],[7.07213,4.82675],[7.0722,4.82695]]],[[[7.07251,4.82745],[7.07243,4.8275],[7.07234,4.82736],[7.07243,4.82731],[7.07251,4.82745]]],[[[7.07256,4.8281],[7.0724,4.82825],[7.07233,4.82816],[7.07249,4.82802],[7.07256,4.8281]]],[[[7.07147,4.82615],[7.07136,4.82617],[7.07134,4.82605],[7.07145,4.82604],[7.07147,4.82615]]],[[[7.07289,4.82804],[7.07273,4.82816],[7.07269,4.82812],[7.07285,4.82799],[7.07289,4.82804]]],[[[7.07238,4.82618],[7.07231,4.82623],[7.07223,4.82612],[7.0723,4.82607],[7.07238,4.82618]]],[[[7.07219,4.82726],[7.07208,4.8273],[7.07205,4.82722],[7.07215,4.82717],[7.07219,4.82726]]],[[[7.07245,4.82757],[7.07241,4.8276],[7.07241,4.82761],[7.07239,4.82762],[7.07239,4.82761],[7.07237,4.82762],[7.07238,4.82763],[7.07234,4.82765],[7.0723,4.82757],[7.07233,4.82755],[7.0723,4.8275],[7.07238,4.82746],[7.07245,4.82757]]],[[[7.07217,4.82667],[7.07232,4.82709],[7.07226,4.82711],[7.07211,4.82669],[7.07217,4.82667]]],[[[7.07213,4.82705],[7.072,4.8271],[7.07192,4.8269],[7.07205,4.82685],[7.07213,4.82705]]],[[[7.07223,4.82779],[7.07212,4.82787],[7.0721,4.82785],[7.07208,4.82786],[7.07203,4.82779],[7.07217,4.8277],[7.07223,4.82779]]],[[[7.07222,4.82736],[7.07231,4.82749],[7.07226,4.82753],[7.07217,4.82739],[7.07222,4.82736]]],[[[7.07203,4.82672],[7.07198,4.82674],[7.07196,4.82669],[7.07201,4.82667],[7.07203,4.82672]]],[[[7.07219,4.82751],[7.07217,4.82752],[7.07218,4.82753],[7.07211,4.82758],[7.07205,4.82748],[7.07214,4.82742],[7.07219,4.82751]]],[[[7.07333,4.82835],[7.07322,4.82845],[7.07311,4.82832],[7.07314,4.82829],[7.07311,4.82826],[7.0732,4.82819],[7.07333,4.82835]]],[[[7.07348,4.82815],[7.07344,4.82818],[7.07343,4.82816],[7.0733,4.82826],[7.07323,4.82816],[7.07339,4.82803],[7.07348,4.82815]]],[[[7.07272,4.82823],[7.07267,4.82826],[7.07261,4.82819],[7.07266,4.82815],[7.07272,4.82823]]],[[[7.07132,4.82618],[7.07117,4.82622],[7.07113,4.82606],[7.07128,4.82603],[7.07132,4.82618]]],[[[7.07212,4.82675],[7.07199,4.82681],[7.07197,4.82677],[7.0721,4.82671],[7.07212,4.82675]]],[[[7.07149,4.826],[7.07134,4.82605],[7.07132,4.826],[7.07148,4.82595],[7.07149,4.826]]],[[[7.07256,4.82752],[7.07248,4.82758],[7.07243,4.8275],[7.07251,4.82745],[7.07256,4.82752]]],[[[7.07228,4.82722],[7.07222,4.82724],[7.0722,4.82719],[7.07226,4.82717],[7.07228,4.82722]]],[[[7.07223,4.8276],[7.07216,4.82765],[7.07211,4.82758],[7.07218,4.82753],[7.07223,4.8276]]],[[[7.07234,4.82773],[7.07225,4.82779],[7.0722,4.82771],[7.07229,4.82765],[7.07234,4.82773]]],[[[7.07262,4.82764],[7.07242,4.82775],[7.07237,4.82766],[7.07256,4.82754],[7.07262,4.82764]]],[[[7.07221,4.82731],[7.07208,4.82736],[7.07206,4.82731],[7.07219,4.82726],[7.07221,4.82731]]],[[[7.07196,4.82657],[7.07197,4.82662],[7.07193,4.82662],[7.07192,4.82657],[7.07196,4.82657]]],[[[7.07316,4.82809],[7.07312,4.82811],[7.07307,4.82802],[7.07311,4.828],[7.07316,4.82809]]],[[[7.07261,4.82724],[7.07255,4.82728],[7.07252,4.82723],[7.07258,4.82719],[7.07261,4.82724]]],[[[7.07251,4.82799],[7.07237,4.82813],[7.07229,4.82804],[7.07243,4.82791],[7.07251,4.82799]]],[[[7.07246,4.82716],[7.07247,4.82716],[7.07248,4.82717],[7.07236,4.82722],[7.07215,4.82661],[7.07225,4.82658],[7.07246,4.82716]]],[[[7.07273,4.82758],[7.07263,4.82764],[7.07258,4.82755],[7.07268,4.82749],[7.07273,4.82758]]],[[[7.07222,4.82628],[7.07217,4.82631],[7.07214,4.82625],[7.07219,4.82622],[7.07222,4.82628]]],[[[7.07308,4.82834],[7.07291,4.82848],[7.07286,4.82842],[7.07303,4.82828],[7.07308,4.82834]]],[[[7.07273,4.82733],[7.07264,4.82739],[7.07256,4.82726],[7.07266,4.8272],[7.07273,4.82733]]],[[[7.07191,4.82695],[7.07189,4.82696],[7.07191,4.827],[7.0717,4.82708],[7.07166,4.82698],[7.07189,4.82688],[7.07191,4.82695]]],[[[7.07285,4.82839],[7.07279,4.82843],[7.07273,4.82835],[7.07278,4.8283],[7.07285,4.82839]]],[[[7.07299,4.82822],[7.07285,4.82832],[7.07273,4.82816],[7.07287,4.82805],[7.07299,4.82822]]],[[[7.0715,4.82594],[7.07146,4.82596],[7.07141,4.82586],[7.07145,4.82584],[7.0715,4.82594]]],[[[7.07343,4.82843],[7.0732,4.82861],[7.07314,4.82855],[7.07338,4.82836],[7.07343,4.82843]]],[[[7.07259,4.82738],[7.07253,4.82743],[7.07244,4.82731],[7.07251,4.82727],[7.07259,4.82738]]],[[[7.07237,4.82798],[7.07226,4.82804],[7.07215,4.82788],[7.07226,4.82781],[7.07237,4.82798]]],[[[7.07141,4.82598],[7.07139,4.82593],[7.07119,4.82602],[7.07117,4.82597],[7.07141,4.82586],[7.07146,4.82596],[7.07141,4.82598]]],[[[7.07266,4.82746],[7.07256,4.82752],[7.07251,4.82745],[7.07261,4.82739],[7.07266,4.82746]]],[[[7.07233,4.8265],[7.07235,4.8265],[7.07257,4.82713],[7.07248,4.82716],[7.07225,4.82652],[7.07233,4.82649],[7.07233,4.8265]]],[[[7.07217,4.8264],[7.07223,4.82654],[7.07218,4.82656],[7.07213,4.82642],[7.07217,4.8264]]],[[[7.07283,4.82801],[7.07269,4.82812],[7.07261,4.82801],[7.07275,4.82791],[7.07283,4.82801]]],[[[7.07226,4.82712],[7.07218,4.82715],[7.07213,4.827],[7.07221,4.82697],[7.07226,4.82712]]],[[[7.0733,4.82791],[7.07319,4.82801],[7.07316,4.82797],[7.07314,4.82798],[7.07311,4.82796],[7.07313,4.82794],[7.0731,4.82791],[7.07322,4.82781],[7.0733,4.82791]]],[[[7.07254,4.82781],[7.07251,4.82777],[7.07248,4.82778],[7.07245,4.82774],[7.0726,4.82765],[7.07266,4.82774],[7.07254,4.82781]]]]}},{"type":"Feature","properties":{"rank":3},"geometry":{"type":"MultiPolygon","coordinates":[[[[7.05726,4.86269],[7.05726,4.86274],[7.05729,4.86274],[7.0573,4.86269],[7.05733,4.8627],[7.05731,4.8628],[7.05716,4.86279],[7.05717,4.86268],[7.05726,4.86269]]],[[[7.05637,4.86156],[7.05636,4.86171],[7.05624,4.8617],[7.05625,4.86155],[7.05637,4.86156]]],[[[7.05729,4.86249],[7.05721,4.8625],[7.0572,4.86241],[7.05728,4.8624],[7.05729,4.86249]]],[[[7.05754,4.86287],[7.05751,4.863],[7.05743,4.86298],[7.05745,4.86289],[7.05743,4.86288],[7.05744,4.86285],[7.05754,4.86287]]],[[[7.05715,4.86268],[7.05714,4.86276],[7.05706,4.86275],[7.05707,4.86267],[7.05715,4.86268]]],[[[7.05717,4.86234],[7.05713,4.86234],[7.05713,4.86242],[7.05698,4.86241],[7.05698,4.86231],[7.05706,4.86232],[7.05707,4.86225],[7.05718,4.86226],[7.05717,4.86234]]],[[[7.05714,4.86262],[7.05713,4.86267],[7.05705,4.86266],[7.05705,4.86261],[7.05714,4.86262]]],[[[7.05651,4.862],[7.05651,4.86205],[7.05643,4.86205],[7.05644,4.86199],[7.05651,4.862]]],[[[7.05739,4.86252],[7.05739,4.86257],[7.0574,4.86257],[7.05739,4.86269],[7.0573,4.86268],[7.05732,4.86251],[7.05739,4.86252]]],[[[7.05811,4.86395],[7.05809,4.864],[7.05802,4.86397],[7.05804,4.86392],[7.05811,4.86395]]],[[[7.05804,4.86392],[7.05802,4.86397],[7.05797,4.86396],[7.05799,4.8639],[7.05804,4.86392]]],[[[7.05787,4.86362],[7.05786,4.86365],[7.05791,4.86366],[7.0579,4.86372],[7.05773,4.86369],[7.05775,4.8636],[7.05787,4.86362]]],[[[7.05717,4.86199],[7.05716,4.86207],[7.0571,4.86207],[7.05711,4.86198],[7.05717,4.86199]]],[[[7.05711,4.86307],[7.05709,4.86314],[7.05697,4.8631],[7.05699,4.86303],[7.05711,4.86307]]],[[[7.05798,4.86415],[7.05796,4.86419],[7.05785,4.86413],[7.05787,4.86409],[7.05798,4.86415]]],[[[7.0575,4.86304],[7.05748,4.8631],[7.05753,4.86311],[7.0575,4.86322],[7.0574,4.86319],[7.05745,4.86303],[7.0575,4.86304]]],[[[7.05769,4.86377],[7.05765,4.86384],[7.05761,4.86382],[7.05765,4.86375],[7.05769,4.86377]]],[[[7.05762,4.86314],[7.0576,4.8632],[7.05756,4.86318],[7.05758,4.86313],[7.05762,4.86314]]],[[[7.05821,4.86426],[7.05815,4.86422],[7.0582,4.86413],[7.05826,4.86417],[7.05821,4.86426]]],[[[7.05791,4.86394],[7.05783,4.86391],[7.05793,4.86363],[7.05801,4.86366],[7.05791,4.86394]]],[[[7.05829,4.86395],[7.05827,4.86402],[7.05816,4.86397],[7.05819,4.86391],[7.05829,4.86395]]],[[[7.05773,4.8637],[7.05773,4.86372],[7.05777,4.86373],[7.05776,4.86378],[7.0578,4.86378],[7.05779,4.86386],[7.05767,4.86384],[7.05769,4.86369],[7.05773,4.8637]]],[[[7.05704,4.86312],[7.05703,4.86317],[7.05704,4.86317],[7.05705,4.86314],[7.05713,4.86317],[7.0571,4.86325],[7.05695,4.8632],[7.05698,4.8631],[7.05704,4.86312]]],[[[7.058,4.86348],[7.05799,4.86358],[7.05784,4.86357],[7.05786,4.86346],[7.058,4.86348]]],[[[7.05656,4.8621],[7.05655,4.86223],[7.05649,4.86223],[7.0565,4.86209],[7.05656,4.8621]]],[[[7.05732,4.86251],[7.05731,4.86263],[7.05726,4.86263],[7.05727,4.86251],[7.05732,4.86251]]],[[[7.05726,4.86263],[7.05713,4.86263],[7.05713,4.86251],[7.05725,4.8625],[7.05726,4.86263]]],[[[7.05721,4.86292],[7.05718,4.86302],[7.05711,4.86299],[7.05714,4.8629],[7.05721,4.86292]]],[[[7.05724,4.86306],[7.05719,4.86318],[7.05713,4.86316],[7.05717,4.86304],[7.05724,4.86306]]],[[[7.05641,4.86164],[7.05641,4.86163],[7.05654,4.86164],[7.05653,4.86172],[7.05636,4.86171],[7.05637,4.86164],[7.05641,4.86164]]],[[[7.05738,4.86275],[7.05737,4.86292],[7.0573,4.86291],[7.05731,4.86288],[7.05728,4.86287],[7.05729,4.8628],[7.05731,4.8628],[7.05732,4.86275],[7.05738,4.86275]]],[[[7.05821,4.86386],[7.05816,4.86397],[7.05806,4.86393],[7.05811,4.86382],[7.05821,4.86386]]],[[[7.05796,4.86397],[7.05793,4.86409],[7.05775,4.86405],[7.05779,4.86392],[7.05796,4.86397]]],[[[7.05816,4.86361],[7.05815,4.86368],[7.05804,4.86365],[7.05805,4.86358],[7.05816,4.86361]]],[[[7.05713,4.86302],[7.05711,4.86307],[7.05697,4.86302],[7.05699,4.86297],[7.05713,4.86302]]],[[[7.05792,4.86357],[7.05792,4.8636],[7.05787,4.8636],[7.05787,4.86356],[7.05792,4.86357]]],[[[7.05725,4.86208],[7.05724,4.86218],[7.05713,4.86217],[7.05713,4.86215],[7.05709,4.86215],[7.0571,4.86207],[7.05725,4.86208]]],[[[7.05756,4.86319],[7.05751,4.86317],[7.05756,4.86305],[7.0576,4.86307],[7.05756,4.86319]]],[[[7.05774,4.86397],[7.05773,4.86406],[7.05765,4.86405],[7.05766,4.86397],[7.05774,4.86397]]],[[[7.05742,4.86311],[7.05737,4.86325],[7.05731,4.86322],[7.05736,4.86309],[7.05742,4.86311]]],[[[7.05772,4.86389],[7.05772,4.86397],[7.05763,4.86396],[7.05764,4.86388],[7.05772,4.86389]]],[[[7.0576,4.86382],[7.05748,4.86375],[7.05751,4.86371],[7.05754,4.86372],[7.05759,4.86363],[7.05761,4.86365],[7.05763,4.86362],[7.0577,4.86365],[7.0576,4.86382]]],[[[7.05746,4.86301],[7.05742,4.86311],[7.05736,4.86309],[7.0574,4.86299],[7.05746,4.86301]]],[[[7.05811,4.86446],[7.05808,4.86449],[7.05798,4.86442],[7.058,4.86438],[7.05811,4.86446]]],[[[7.05736,4.86211],[7.05735,4.86222],[7.05725,4.86221],[7.05726,4.8621],[7.05736,4.86211]]],[[[7.05644,4.86171],[7.05642,4.86185],[7.05639,4.86185],[7.05638,4.86199],[7.05626,4.86198],[7.05627,4.86184],[7.05617,4.86183],[7.05619,4.86169],[7.05644,4.86171]]],[[[7.05739,4.86358],[7.05738,4.86356],[7.05749,4.8635],[7.0575,4.86353],[7.05739,4.86358]]],[[[7.05804,4.86392],[7.05799,4.8639],[7.05797,4.86396],[7.05791,4.86393],[7.05797,4.86376],[7.05808,4.8638],[7.05804,4.86392]]],[[[7.05713,4.86316],[7.05709,4.86314],[7.05713,4.86302],[7.05717,4.86304],[7.05713,4.86316]]],[[[7.05733,4.8624],[7.05727,4.86239],[7.05727,4.86238],[7.05723,4.86237],[7.05723,4.86242],[7.05718,4.86241],[7.0572,4.86226],[7.05724,4.86226],[7.05724,4.86223],[7.05734,4.86224],[7.05733,4.8624]]],[[[7.05815,4.86367],[7.05813,4.86377],[7.05802,4.86374],[7.05804,4.86365],[7.05815,4.86367]]],[[[7.05814,4.86407],[7.05811,4.86413],[7.05805,4.86411],[7.05808,4.86405],[7.05814,4.86407]]],[[[7.05723,4.8633],[7.05718,4.86328],[7.05717,4.86331],[7.05709,4.86328],[7.05713,4.86317],[7.05719,4.86319],[7.05728,4.86295],[7.05735,4.86297],[7.05723,4.8633]]],[[[7.05719,4.86249],[7.05708,4.86251],[7.05707,4.86241],[7.05713,4.86241],[7.05712,4.86234],[7.05717,4.86234],[7.05719,4.86249]]],[[[7.05736,4.86309],[7.05731,4.86322],[7.05726,4.86321],[7.05731,4.86307],[7.05736,4.86309]]],[[[7.05788,4.86373],[7.05786,4.8638],[7.05778,4.86378],[7.0578,4.8637],[7.05788,4.86373]]],[[[7.05782,4.86353],[7.05781,4.8636],[7.05771,4.86359],[7.05772,4.86352],[7.05782,4.86353]]]]}},{"type":"Feature","properties":{"rank":5},"geometry":{"type":"MultiPolygon","coordinates":[[[[6.9933,4.81773],[6.99324,4.81773],[6.99323,4.81762],[6.9933,4.81761],[6.9933,4.81773]]],[[[6.99841,4.82196],[6.99843,4.82231],[6.99837,4.82231],[6.99835,4.82208],[6.99834,4.82208],[6.99833,4.82197],[6.99841,4.82196]]],[[[6.99757,4.82157],[6.99758,4.82166],[6.99754,4.82167],[6.99752,4.82158],[6.99757,4.82157]]],[[[6.99603,4.82031],[6.99599,4.82043],[6.99602,4.82044],[6.99601,4.82047],[6.99584,4.82041],[6.99589,4.82026],[6.99603,4.82031]]],[[[6.99451,4.8183],[6.99453,4.8183],[6.99453,4.81837],[6.99448,4.81837],[6.99448,4.81843],[6.99451,4.81843],[6.9945,4.81852],[6.99448,4.81852],[6.99448,4.81854],[6.99438,4.81854],[6.99438,4.81846],[6.99433,4.81846],[6.99433,4.81836],[6.99425,4.81836],[6.99425,4.81827],[6.99433,4.81827],[6.99433,4.81825],[6.99451,4.81825],[6.99451,4.8183]]],[[[6.99698,4.82107],[6.99699,4.82111],[6.99692,4.82111],[6.99692,4.82108],[6.99698,4.82107]]],[[[6.99622,4.82028],[6.99622,4.82025],[6.99629,4.82024],[6.9963,4.82033],[6.99628,4.82033],[6.99629,4.8204],[6.99619,4.82041],[6.99618,4.82034],[6.99616,4.82035],[6.99616,4.82029],[6.99622,4.82028]]],[[[6.996,4.82074],[6.99601,4.82086],[6.99587,4.82087],[6.99586,4.82074],[6.996,4.82074]]],[[[6.99299,4.81502],[6.99292,4.81502],[6.99292,4.81498],[6.99286,4.81498],[6.99286,4.81483],[6.993,4.81484],[6.99299,4.81502]]],[[[6.99715,4.82133],[6.99703,4.82135],[6.99702,4.82129],[6.99705,4.82128],[6.99704,4.82119],[6.99714,4.82118],[6.99715,4.82133]]],[[[6.99778,4.8216],[6.99762,4.82161],[6.99761,4.82156],[6.99757,4.82156],[6.99757,4.82151],[6.99761,4.8215],[6.9976,4.82142],[6.99776,4.82141],[6.99778,4.8216]]],[[[6.99786,4.82123],[6.99798,4.82123],[6.99799,4.82144],[6.99787,4.82145],[6.99786,4.82123]]],[[[6.99249,4.81647],[6.99248,4.81652],[6.99245,4.81651],[6.99246,4.81647],[6.99249,4.81647]]],[[[6.99527,4.81977],[6.99522,4.81988],[6.99515,4.81985],[6.9952,4.81974],[6.99527,4.81977]]],[[[6.99733,4.82096],[6.99733,4.82099],[6.99727,4.82099],[6.99728,4.82102],[6.99732,4.82101],[6.99732,4.82107],[6.99744,4.82106],[6.99744,4.82113],[6.99729,4.82115],[6.99728,4.82111],[6.99716,4.82113],[6.99714,4.82097],[6.99733,4.82096]]],[[[6.99438,4.81846],[6.99438,4.81854],[6.99433,4.81854],[6.99433,4.81846],[6.99438,4.81846]]],[[[6.99256,4.81515],[6.99255,4.81525],[6.9925,4.81525],[6.99251,4.81514],[6.99256,4.81515]]],[[[6.99625,4.82068],[6.99624,4.82077],[6.99613,4.82076],[6.99614,4.82067],[6.99625,4.82068]]],[[[6.99315,4.8179],[6.99315,4.81793],[6.99321,4.81793],[6.99321,4.8179],[6.99336,4.81791],[6.99336,4.81803],[6.9932,4.81802],[6.9932,4.818],[6.99308,4.818],[6.99308,4.8179],[6.99315,4.8179]]],[[[6.9946,4.81856],[6.9946,4.81858],[6.99466,4.81858],[6.99466,4.81871],[6.99462,4.81871],[6.99462,4.81884],[6.99448,4.81884],[6.99448,4.81871],[6.99437,4.8187],[6.99437,4.81856],[6.9946,4.81856]]],[[[6.99537,4.82003],[6.99539,4.81997],[6.99555,4.82002],[6.99552,4.82012],[6.99547,4.82011],[6.99546,4.82015],[6.99531,4.82011],[6.99534,4.82002],[6.99537,4.82003]]],[[[6.99494,4.81906],[6.99493,4.81912],[6.99488,4.8191],[6.99489,4.81904],[6.99494,4.81906]]],[[[6.99399,4.8183],[6.99399,4.81849],[6.99392,4.81849],[6.99392,4.8183],[6.99399,4.8183]]],[[[6.99878,4.8222],[6.99878,4.82224],[6.99874,4.82224],[6.99874,4.8222],[6.99878,4.8222]]],[[[6.99713,4.82117],[6.997,4.82117],[6.997,4.82105],[6.99704,4.82105],[6.99704,4.82102],[6.99712,4.82102],[6.99713,4.82117]]],[[[6.99741,4.82123],[6.9972,4.82125],[6.99719,4.82119],[6.9974,4.82117],[6.99741,4.82123]]],[[[6.99742,4.82082],[6.99742,4.8209],[6.99729,4.82091],[6.99728,4.82083],[6.99742,4.82082]]],[[[6.99569,4.8199],[6.99564,4.82001],[6.99546,4.81994],[6.99551,4.81982],[6.99569,4.8199]]],[[[6.99827,4.82212],[6.99816,4.82212],[6.99815,4.82195],[6.99826,4.82195],[6.99827,4.82212]]],[[[6.99778,4.82127],[6.99779,4.82139],[6.9977,4.8214],[6.99769,4.82128],[6.99778,4.82127]]],[[[6.99514,4.81972],[6.99512,4.81977],[6.99491,4.81969],[6.99493,4.81964],[6.99514,4.81972]]],[[[6.99673,4.82076],[6.99673,4.82092],[6.99664,4.82092],[6.99664,4.82088],[6.99656,4.82088],[6.99656,4.82075],[6.99673,4.82076]]],[[[6.99282,4.81717],[6.99282,4.8172],[6.99274,4.8172],[6.99274,4.81717],[6.99282,4.81717]]],[[[6.99629,4.82067],[6.99629,4.8207],[6.99627,4.8207],[6.99627,4.82067],[6.99629,4.82067]]],[[[6.99289,4.81607],[6.99289,4.81618],[6.99279,4.81617],[6.9928,4.81607],[6.99289,4.81607]]],[[[6.99474,4.81885],[6.99473,4.8189],[6.99463,4.81888],[6.99463,4.81884],[6.99474,4.81885]]],[[[6.99526,4.81993],[6.99524,4.81999],[6.99518,4.81997],[6.99519,4.81991],[6.99526,4.81993]]],[[[6.9929,4.8169],[6.9929,4.81693],[6.9928,4.81692],[6.9928,4.8169],[6.9929,4.8169]]],[[[6.99611,4.82018],[6.99608,4.82026],[6.996,4.82024],[6.99602,4.82015],[6.99611,4.82018]]],[[[6.99249,4.8151],[6.99249,4.81514],[6.99245,4.81514],[6.99246,4.8151],[6.99249,4.8151]]],[[[6.99263,4.81506],[6.99263,4.81516],[6.99259,4.81516],[6.99259,4.81506],[6.99263,4.81506]]],[[[6.99701,4.82119],[6.99702,4.82128],[6.99697,4.82128],[6.99697,4.82119],[6.99701,4.82119]]],[[[6.99355,4.81773],[6.9933,4.81774],[6.9933,4.81761],[6.99354,4.8176],[6.99355,4.81773]]],[[[6.99532,4.82022],[6.99533,4.82018],[6.99543,4.82021],[6.99539,4.82034],[6.99523,4.82029],[6.99526,4.8202],[6.99532,4.82022]]],[[[6.99255,4.81525],[6.99254,4.81535],[6.99249,4.81534],[6.9925,4.81525],[6.99255,4.81525]]],[[[6.99765,4.82128],[6.99755,4.8213],[6.99754,4.82117],[6.99764,4.82116],[6.99765,4.82128]]],[[[6.99497,4.81972],[6.99491,4.81988],[6.99482,4.81984],[6.99484,4.81981],[6.9948,4.8198],[6.99485,4.81967],[6.99497,4.81972]]],[[[6.99266,4.81561],[6.99263,4.81572],[6.99261,4.81572],[6.9926,4.81576],[6.99237,4.81571],[6.9924,4.81555],[6.99266,4.81561]]],[[[6.99552,4.81979],[6.99551,4.81982],[6.99548,4.81981],[6.99545,4.8199],[6.99527,4.81983],[6.99531,4.81971],[6.99552,4.81979]]],[[[6.99249,4.81514],[6.99249,4.81518],[6.99245,4.81518],[6.99245,4.81514],[6.99249,4.81514]]],[[[6.99291,4.81579],[6.99291,4.81589],[6.99284,4.81589],[6.99285,4.81579],[6.99291,4.81579]]],[[[6.99526,4.81892],[6.99511,4.81902],[6.99501,4.81888],[6.99517,4.81877],[6.99526,4.81892]]],[[[6.99534,4.81928],[6.99524,4.81956],[6.99506,4.8195],[6.99516,4.81921],[6.99534,4.81928]]],[[[6.99779,4.82185],[6.99779,4.82196],[6.99775,4.82196],[6.99775,4.82185],[6.99779,4.82185]]],[[[6.99606,4.82064],[6.99606,4.82067],[6.99598,4.82067],[6.99598,4.82063],[6.99606,4.82064]]],[[[6.99718,4.82114],[6.99719,4.82117],[6.99715,4.82117],[6.99715,4.82114],[6.99718,4.82114]]],[[[6.99812,4.82214],[6.99784,4.82216],[6.99783,4.82203],[6.9981,4.82201],[6.99812,4.82214]]],[[[6.99769,4.82114],[6.99771,4.82128],[6.99765,4.82128],[6.99764,4.82115],[6.99769,4.82114]]],[[[6.99592,4.82016],[6.99591,4.82021],[6.99584,4.82018],[6.99585,4.82014],[6.99592,4.82016]]],[[[6.99832,4.82227],[6.99832,4.82234],[6.99822,4.82235],[6.99821,4.82227],[6.99832,4.82227]]],[[[6.998,4.82185],[6.998,4.82188],[6.99805,4.82188],[6.99806,4.82199],[6.99796,4.822],[6.99795,4.82185],[6.998,4.82185]]],[[[6.9968,4.82118],[6.99662,4.82117],[6.99662,4.82111],[6.99664,4.82111],[6.99664,4.82109],[6.99674,4.82109],[6.99674,4.82105],[6.9968,4.82105],[6.9968,4.82118]]],[[[6.99821,4.82216],[6.99822,4.82235],[6.99816,4.82235],[6.99815,4.82216],[6.99821,4.82216]]],[[[6.99283,4.81575],[6.99282,4.81582],[6.99277,4.81582],[6.99278,4.81574],[6.99283,4.81575]]],[[[6.99624,4.82085],[6.99624,4.82097],[6.99611,4.82097],[6.99612,4.82084],[6.99624,4.82085]]],[[[6.99506,4.81911],[6.99506,4.81916],[6.99494,4.81916],[6.99494,4.8191],[6.99506,4.81911]]],[[[6.99879,4.82248],[6.99827,4.82251],[6.99827,4.82241],[6.99878,4.82238],[6.99879,4.82248]]],[[[6.9965,4.82095],[6.9965,4.82094],[6.99662,4.82095],[6.99662,4.8211],[6.99653,4.8211],[6.99653,4.82108],[6.99645,4.82108],[6.99645,4.82095],[6.9965,4.82095]]],[[[6.99432,4.81845],[6.99433,4.81854],[6.99428,4.81855],[6.99427,4.81846],[6.99432,4.81845]]],[[[6.99843,4.82187],[6.99843,4.82194],[6.99839,4.82194],[6.99839,4.82187],[6.99843,4.82187]]],[[[6.99705,4.82098],[6.99687,4.82099],[6.99687,4.82096],[6.99686,4.82096],[6.99685,4.82085],[6.99704,4.82084],[6.99705,4.82098]]],[[[6.9932,4.81752],[6.9932,4.8176],[6.99318,4.8176],[6.99318,4.81762],[6.99308,4.81762],[6.99307,4.81753],[6.9932,4.81752]]],[[[6.99348,4.81792],[6.99348,4.81791],[6.99357,4.81792],[6.99356,4.818],[6.99344,4.81799],[6.99345,4.81792],[6.99348,4.81792]]],[[[6.99877,4.82217],[6.99859,4.82218],[6.99859,4.82205],[6.99876,4.82204],[6.99877,4.82217]]],[[[6.99467,4.81906],[6.99466,4.81911],[6.99461,4.8191],[6.99462,4.81905],[6.99467,4.81906]]],[[[6.99561,4.82024],[6.99558,4.82033],[6.99551,4.82031],[6.99554,4.82021],[6.99561,4.82024]]],[[[6.99322,4.81779],[6.99323,4.81788],[6.9931,4.81789],[6.99309,4.8178],[6.99322,4.81779]]],[[[6.99848,4.82196],[6.99851,4.8223],[6.99843,4.82231],[6.9984,4.82196],[6.99848,4.82196]]],[[[6.99693,4.82118],[6.9968,4.82119],[6.9968,4.82112],[6.99693,4.82111],[6.99693,4.82118]]],[[[6.9978,4.82161],[6.99779,4.82165],[6.99776,4.82165],[6.99776,4.82161],[6.9978,4.82161]]],[[[6.99641,4.82039],[6.99642,4.82047],[6.99638,4.82047],[6.99637,4.8204],[6.99641,4.82039]]],[[[6.99644,4.82075],[6.99644,4.82085],[6.99633,4.82085],[6.99634,4.82074],[6.99644,4.82075]]],[[[6.99861,4.82188],[6.99864,4.82188],[6.99864,4.82198],[6.9985,4.82198],[6.9985,4.82184],[6.99861,4.82184],[6.99861,4.82188]]],[[[6.998,4.82154],[6.99793,4.82155],[6.99793,4.82151],[6.99788,4.82152],[6.99787,4.82145],[6.99799,4.82144],[6.998,4.82154]]],[[[6.99754,4.82122],[6.99755,4.82129],[6.99751,4.82129],[6.9975,4.82123],[6.99754,4.82122]]],[[[6.99251,4.81504],[6.99251,4.8151],[6.99246,4.8151],[6.99246,4.81504],[6.99251,4.81504]]],[[[6.99517,4.81979],[6.99515,4.81986],[6.99495,4.81979],[6.99497,4.81972],[6.99517,4.81979]]]]}},{"type":"Feature","properties":{"rank":7},"geometry":{"type":"MultiPolygon","coordinates":[[[[6.97926,4.82155],[6.97926,4.82159],[6.97923,4.82159],[6.97923,4.82154],[6.97926,4.82155]]],[[[6.98146,4.81946],[6.98143,4.81956],[6.98139,4.81955],[6.98141,4.81945],[6.98146,4.81946]]],[[[6.98937,4.81836],[6.9893,4.81841],[6.98915,4.81815],[6.98923,4.81811],[6.98937,4.81836]]],[[[6.98025,4.8196],[6.98012,4.81964],[6.9801,4.81959],[6.98023,4.81954],[6.98025,4.8196]]],[[[6.9794,4.82039],[6.97941,4.82048],[6.97937,4.82048],[6.97937,4.82039],[6.9794,4.82039]]],[[[6.98843,4.81821],[6.98838,4.81819],[6.98843,4.81804],[6.98847,4.81806],[6.98843,4.81821]]],[[[6.97897,4.82136],[6.97898,4.82155],[6.97886,4.82155],[6.97886,4.82136],[6.97897,4.82136]]],[[[6.97948,4.82108],[6.97951,4.82121],[6.97946,4.82123],[6.97943,4.82109],[6.97948,4.82108]]],[[[6.98047,4.81973],[6.98047,4.81981],[6.98042,4.81981],[6.98041,4.81973],[6.98047,4.81973]]],[[[6.97852,4.82249],[6.97851,4.82254],[6.97856,4.82255],[6.97855,4.82261],[6.97843,4.82259],[6.97845,4.82248],[6.97852,4.82249]]],[[[6.97831,4.82223],[6.97831,4.82235],[6.97826,4.82235],[6.97826,4.82228],[6.97824,4.82228],[6.97824,4.82223],[6.97831,4.82223]]],[[[6.98544,4.81877],[6.98604,4.81891],[6.98602,4.81896],[6.98543,4.81882],[6.98544,4.81877]]],[[[6.97831,4.82203],[6.97831,4.8221],[6.97824,4.82209],[6.97825,4.82203],[6.97831,4.82203]]],[[[6.98125,4.81956],[6.98119,4.81957],[6.98119,4.81952],[6.98125,4.81951],[6.98125,4.81956]]],[[[6.98174,4.81948],[6.98171,4.81954],[6.98168,4.81953],[6.98171,4.81947],[6.98174,4.81948]]],[[[6.9816,4.81923],[6.98154,4.81942],[6.98148,4.8194],[6.98153,4.81921],[6.9816,4.81923]]],[[[6.98741,4.81805],[6.9874,4.81809],[6.98729,4.81806],[6.98731,4.81802],[6.98741,4.81805]]],[[[6.98125,4.8194],[6.98125,4.81945],[6.98119,4.81944],[6.9812,4.8194],[6.98125,4.8194]]],[[[6.98165,4.81965],[6.98161,4.81963],[6.98165,4.81954],[6.98169,4.81955],[6.98165,4.81965]]],[[[6.98167,4.81982],[6.98166,4.81988],[6.98163,4.81988],[6.98162,4.81995],[6.98152,4.81994],[6.98154,4.8198],[6.98167,4.81982]]],[[[6.98589,4.81769],[6.98587,4.81773],[6.98636,4.81791],[6.98632,4.81802],[6.98578,4.81781],[6.98583,4.81767],[6.98589,4.81769]]],[[[6.9893,4.81793],[6.98949,4.81814],[6.98947,4.81815],[6.98944,4.81812],[6.98937,4.81819],[6.9893,4.81811],[6.98932,4.81808],[6.98925,4.818],[6.98922,4.81803],[6.98921,4.81801],[6.9893,4.81793]]],[[[6.97975,4.82061],[6.9796,4.82062],[6.97959,4.8205],[6.97974,4.82048],[6.97975,4.82061]]],[[[6.98278,4.81919],[6.98277,4.81929],[6.98269,4.81927],[6.9827,4.81918],[6.98278,4.81919]]],[[[6.98155,4.81943],[6.9815,4.81957],[6.98145,4.81955],[6.9815,4.81942],[6.98155,4.81943]]],[[[6.9854,4.81864],[6.98536,4.81879],[6.98513,4.81872],[6.98517,4.81857],[6.9854,4.81864]]],[[[6.98063,4.81936],[6.98064,4.81944],[6.9806,4.81944],[6.98059,4.81937],[6.98063,4.81936]]],[[[6.98761,4.81839],[6.98755,4.81875],[6.98742,4.81873],[6.98749,4.81837],[6.98761,4.81839]]],[[[6.98365,4.81949],[6.98357,4.81993],[6.98336,4.81989],[6.98345,4.81945],[6.98365,4.81949]]],[[[6.98314,4.81894],[6.98312,4.81904],[6.98306,4.81902],[6.98308,4.81893],[6.98314,4.81894]]],[[[6.98517,4.81857],[6.98512,4.81876],[6.98501,4.81872],[6.98503,4.81866],[6.98506,4.81867],[6.9851,4.81855],[6.98517,4.81857]]],[[[6.97937,4.82168],[6.97933,4.82168],[6.97933,4.82165],[6.97927,4.82166],[6.97926,4.82156],[6.97936,4.82155],[6.97937,4.82168]]],[[[6.9811,4.81937],[6.9811,4.81951],[6.98101,4.81951],[6.98101,4.81946],[6.98096,4.81946],[6.98096,4.81937],[6.9811,4.81937]]],[[[6.97908,4.82085],[6.9791,4.82089],[6.97915,4.82086],[6.97919,4.82094],[6.97914,4.82097],[6.97916,4.821],[6.97912,4.82102],[6.97908,4.82094],[6.97906,4.82095],[6.97902,4.82088],[6.97908,4.82085]]],[[[6.97993,4.8197],[6.97991,4.81971],[6.97988,4.81967],[6.9799,4.81965],[6.97993,4.8197]]],[[[6.98012,4.81964],[6.98004,4.81967],[6.98,4.81957],[6.98008,4.81954],[6.98012,4.81964]]],[[[6.97966,4.8212],[6.97961,4.82122],[6.9796,4.8212],[6.97952,4.82123],[6.97949,4.82111],[6.97962,4.82106],[6.97966,4.8212]]],[[[6.98148,4.81969],[6.98146,4.81981],[6.9814,4.8198],[6.98142,4.81968],[6.98148,4.81969]]],[[[6.97941,4.82112],[6.97933,4.82113],[6.97933,4.82108],[6.9794,4.82107],[6.97941,4.82112]]],[[[6.98543,4.81897],[6.98538,4.81908],[6.9853,4.81905],[6.98534,4.81894],[6.98543,4.81897]]],[[[6.9811,4.81956],[6.98101,4.81956],[6.98101,4.81951],[6.9811,4.81951],[6.9811,4.81956]]],[[[6.98716,4.81791],[6.98713,4.81803],[6.98706,4.81802],[6.9871,4.81789],[6.98716,4.81791]]],[[[6.98516,4.81919],[6.98509,4.81939],[6.985,4.81936],[6.98502,4.81929],[6.98495,4.81926],[6.98497,4.81921],[6.98504,4.81924],[6.98507,4.81916],[6.98516,4.81919]]],[[[6.98069,4.81969],[6.98065,4.8197],[6.98064,4.81963],[6.98068,4.81963],[6.98069,4.81969]]],[[[6.97975,4.8207],[6.97969,4.82071],[6.97968,4.82063],[6.97974,4.82062],[6.97975,4.8207]]],[[[6.98127,4.81919],[6.98125,4.81939],[6.98117,4.81938],[6.98119,4.81918],[6.98127,4.81919]]],[[[6.98376,4.8192],[6.98373,4.81927],[6.98368,4.81925],[6.98371,4.81918],[6.98376,4.8192]]],[[[6.98256,4.81887],[6.98286,4.81898],[6.9828,4.81916],[6.98262,4.81909],[6.98257,4.81924],[6.9825,4.81921],[6.98249,4.81923],[6.98244,4.81921],[6.98256,4.81887]]],[[[6.97875,4.82155],[6.97876,4.82161],[6.97866,4.82161],[6.97865,4.82156],[6.97875,4.82155]]],[[[6.98168,4.81949],[6.98166,4.81954],[6.98153,4.81949],[6.98155,4.81943],[6.98168,4.81949]]],[[[6.98069,4.81969],[6.9807,4.8198],[6.98067,4.8198],[6.98065,4.8197],[6.98069,4.81969]]],[[[6.97946,4.82058],[6.97946,4.82062],[6.97938,4.82063],[6.97938,4.82058],[6.97946,4.82058]]],[[[6.9787,4.82162],[6.9787,4.82168],[6.97864,4.82168],[6.97864,4.82162],[6.9787,4.82162]]],[[[6.98153,4.8196],[6.98153,4.81962],[6.98155,4.81962],[6.98153,4.81969],[6.98142,4.81966],[6.98144,4.81958],[6.98153,4.8196]]],[[[6.98649,4.81806],[6.98639,4.81857],[6.98643,4.81858],[6.98641,4.81864],[6.98628,4.81861],[6.98639,4.81804],[6.98649,4.81806]]],[[[6.98165,4.81955],[6.98162,4.81961],[6.98151,4.81956],[6.98153,4.8195],[6.98165,4.81955]]],[[[6.98332,4.81904],[6.98331,4.81908],[6.98327,4.81907],[6.98327,4.81903],[6.98332,4.81904]]],[[[6.97951,4.8204],[6.97952,4.82057],[6.97941,4.82058],[6.9794,4.8204],[6.97951,4.8204]]],[[[6.98818,4.81804],[6.98816,4.81823],[6.98803,4.81821],[6.98803,4.81816],[6.988,4.81816],[6.98802,4.81802],[6.98818,4.81804]]],[[[6.98743,4.81782],[6.9874,4.81794],[6.98735,4.81792],[6.98738,4.81781],[6.98743,4.81782]]],[[[6.98614,4.81822],[6.9861,4.81832],[6.98565,4.81816],[6.98569,4.81806],[6.98614,4.81822]]],[[[6.98885,4.8179],[6.98883,4.81796],[6.98887,4.81797],[6.98886,4.81801],[6.98882,4.818],[6.9888,4.8181],[6.98869,4.81807],[6.9887,4.81801],[6.98865,4.81799],[6.98868,4.81786],[6.98885,4.8179]]],[[[6.98066,4.81956],[6.98057,4.81957],[6.98055,4.81945],[6.98064,4.81944],[6.98066,4.81956]]],[[[6.97928,4.82081],[6.97925,4.82083],[6.97927,4.82085],[6.97923,4.82087],[6.97919,4.8208],[6.97925,4.82076],[6.97928,4.82081]]],[[[6.98138,4.81968],[6.98136,4.81982],[6.98127,4.81981],[6.98129,4.81967],[6.98138,4.81968]]],[[[6.98809,4.81831],[6.98806,4.81845],[6.98796,4.81843],[6.98798,4.81829],[6.98809,4.81831]]],[[[6.9806,4.82002],[6.98059,4.81995],[6.98071,4.81992],[6.98072,4.81999],[6.9806,4.82002]]],[[[6.98168,4.81973],[6.98167,4.81982],[6.98148,4.81979],[6.98149,4.8197],[6.98168,4.81973]]],[[[6.98762,4.81788],[6.9876,4.81794],[6.98757,4.81793],[6.98755,4.81803],[6.98743,4.818],[6.98745,4.81795],[6.9874,4.81794],[6.98743,4.81782],[6.98762,4.81788]]],[[[6.9848,4.81903],[6.98468,4.81933],[6.98445,4.81924],[6.98454,4.81901],[6.98459,4.81904],[6.98462,4.81896],[6.9848,4.81903]]],[[[6.98426,4.81914],[6.98425,4.81917],[6.98414,4.81913],[6.98415,4.8191],[6.98426,4.81914]]],[[[6.97956,4.82133],[6.97948,4.82133],[6.97947,4.82128],[6.97955,4.82128],[6.97956,4.82133]]],[[[6.9793,4.82074],[6.97924,4.82075],[6.97923,4.82069],[6.97929,4.82067],[6.9793,4.82074]]],[[[6.97952,4.82149],[6.97936,4.8215],[6.97935,4.82139],[6.97951,4.82138],[6.97952,4.82149]]],[[[6.98217,4.81918],[6.9821,4.81938],[6.98199,4.81934],[6.98206,4.81914],[6.98217,4.81918]]],[[[6.97922,4.82095],[6.97923,4.821],[6.97927,4.821],[6.97927,4.82105],[6.97933,4.82105],[6.97933,4.82112],[6.97942,4.82112],[6.97943,4.82122],[6.97929,4.82123],[6.97928,4.82115],[6.97924,4.82115],[6.97923,4.82111],[6.97919,4.82112],[6.97917,4.82095],[6.97922,4.82095]]],[[[6.98846,4.81781],[6.98845,4.81783],[6.98852,4.81785],[6.98851,4.81792],[6.98854,4.81792],[6.98852,4.818],[6.98846,4.81799],[6.98845,4.81802],[6.98834,4.818],[6.98838,4.81779],[6.98846,4.81781]]],[[[6.98156,4.81964],[6.9817,4.81966],[6.98169,4.81971],[6.98155,4.81969],[6.98156,4.81964]]],[[[6.97927,4.82137],[6.97927,4.82143],[6.97922,4.82143],[6.97922,4.82137],[6.97927,4.82137]]],[[[6.98198,4.81964],[6.98193,4.81973],[6.98186,4.8197],[6.9819,4.8196],[6.98198,4.81964]]],[[[6.98964,4.8183],[6.98966,4.81829],[6.98967,4.8183],[6.98955,4.81837],[6.98957,4.81839],[6.98946,4.81846],[6.98932,4.81822],[6.98952,4.81809],[6.98964,4.8183]]],[[[6.98825,4.81822],[6.98824,4.81826],[6.98817,4.81825],[6.98818,4.8182],[6.98825,4.81822]]],[[[6.98177,4.81951],[6.98176,4.81954],[6.98189,4.81961],[6.98182,4.81975],[6.98175,4.81972],[6.98179,4.81964],[6.98169,4.81959],[6.98174,4.81949],[6.98177,4.81951]]],[[[6.98584,4.81829],[6.98581,4.81837],[6.98586,4.81839],[6.98589,4.81831],[6.98603,4.81836],[6.986,4.81844],[6.98602,4.81845],[6.98605,4.81837],[6.98614,4.8184],[6.98607,4.8186],[6.98577,4.81849],[6.98576,4.81853],[6.98572,4.81852],[6.98581,4.81828],[6.98584,4.81829]]],[[[6.98368,4.81912],[6.98366,4.81916],[6.98371,4.81918],[6.98368,4.81924],[6.98347,4.81916],[6.98352,4.81906],[6.98368,4.81912]]],[[[6.97962,4.82043],[6.97962,4.82049],[6.97956,4.8205],[6.97955,4.82044],[6.97962,4.82043]]],[[[6.98128,4.81967],[6.98127,4.81973],[6.98118,4.81971],[6.98117,4.81976],[6.98127,4.81977],[6.98126,4.81983],[6.98129,4.81983],[6.98127,4.8199],[6.98105,4.81987],[6.98108,4.8197],[6.98106,4.81969],[6.98107,4.81963],[6.98128,4.81967]]],[[[6.98041,4.81971],[6.98022,4.81976],[6.9802,4.8197],[6.98039,4.81965],[6.98041,4.81971]]],[[[6.98255,4.81923],[6.98273,4.81928],[6.98272,4.81933],[6.98253,4.81928],[6.98255,4.81923]]],[[[6.97857,4.82177],[6.97857,4.8218],[6.97852,4.8218],[6.97852,4.82177],[6.97857,4.82177]]],[[[6.9814,4.81979],[6.9814,4.8198],[6.98148,4.81981],[6.98146,4.81994],[6.98134,4.81992],[6.98136,4.81978],[6.9814,4.81979]]],[[[6.98562,4.81867],[6.98561,4.81869],[6.98568,4.81871],[6.98568,4.81874],[6.98564,4.81873],[6.98563,4.81879],[6.98559,4.81878],[6.9856,4.81872],[6.98556,4.81871],[6.98558,4.81866],[6.98562,4.81867]]],[[[6.98209,4.8194],[6.98205,4.8195],[6.98186,4.81943],[6.98189,4.81933],[6.98209,4.8194]]],[[[6.97837,4.8221],[6.97837,4.82214],[6.9783,4.82214],[6.9783,4.8221],[6.97837,4.8221]]],[[[6.98571,4.81878],[6.9857,4.81882],[6.98565,4.8188],[6.98566,4.81877],[6.98571,4.81878]]],[[[6.98187,4.81932],[6.98187,4.81932],[6.98185,4.81932],[6.98185,4.81934],[6.98189,4.81935],[6.98183,4.81951],[6.98177,4.81949],[6.98183,4.8193],[6.98187,4.81932]]],[[[6.98525,4.81892],[6.98521,4.81907],[6.98517,4.81905],[6.98516,4.81907],[6.98508,4.81905],[6.98508,4.81903],[6.98505,4.81902],[6.98509,4.81887],[6.98525,4.81892]]],[[[6.98598,4.81862],[6.98594,4.81872],[6.98548,4.81855],[6.98552,4.81845],[6.98598,4.81862]]],[[[6.97979,4.81992],[6.97979,4.81996],[6.97975,4.81997],[6.97975,4.81992],[6.97979,4.81992]]],[[[6.98071,4.81943],[6.98075,4.8197],[6.9807,4.8197],[6.98065,4.81944],[6.98071,4.81943]]],[[[6.98553,4.81898],[6.9855,4.81907],[6.98544,4.81905],[6.98547,4.81896],[6.98553,4.81898]]],[[[6.98163,4.81923],[6.98161,4.81926],[6.9818,4.81933],[6.98176,4.81942],[6.98178,4.81943],[6.98176,4.81948],[6.98156,4.8194],[6.9816,4.8193],[6.98157,4.81929],[6.9816,4.81922],[6.98163,4.81923]]],[[[6.98913,4.81859],[6.98907,4.81851],[6.98924,4.81837],[6.98928,4.81842],[6.98929,4.81841],[6.98931,4.81843],[6.98913,4.81859]]],[[[6.98143,4.8196],[6.98142,4.81966],[6.98127,4.81965],[6.98128,4.81959],[6.98143,4.8196]]],[[[6.98324,4.81911],[6.98322,4.81923],[6.98312,4.81921],[6.98313,4.8191],[6.98324,4.81911]]],[[[6.98116,4.81945],[6.98125,4.81945],[6.98125,4.81951],[6.98116,4.81952],[6.98116,4.81945]]],[[[6.98204,4.81953],[6.98199,4.81962],[6.98193,4.81959],[6.98197,4.8195],[6.98204,4.81953]]],[[[6.98038,4.82009],[6.98027,4.8201],[6.98027,4.82005],[6.98037,4.82004],[6.98038,4.82009]]],[[[6.97833,4.82244],[6.9783,4.8225],[6.97796,4.82238],[6.97798,4.82232],[6.97833,4.82244]]],[[[6.98342,4.81918],[6.98341,4.81925],[6.9833,4.81923],[6.98331,4.81916],[6.98342,4.81918]]],[[[6.97891,4.82198],[6.97891,4.82206],[6.97869,4.82205],[6.97869,4.82197],[6.97891,4.82198]]],[[[6.98104,4.81958],[6.98107,4.81989],[6.98095,4.8199],[6.98092,4.8196],[6.98104,4.81958]]],[[[6.98103,4.81931],[6.98103,4.81936],[6.98083,4.81935],[6.98083,4.81929],[6.98103,4.81931]]],[[[6.97904,4.82144],[6.97898,4.82144],[6.97897,4.82136],[6.97904,4.82136],[6.97904,4.82144]]],[[[6.98095,4.81938],[6.98094,4.81948],[6.98085,4.81947],[6.98086,4.81937],[6.98095,4.81938]]],[[[6.9819,4.81976],[6.98189,4.81986],[6.98186,4.81985],[6.98185,4.81989],[6.98178,4.81988],[6.98179,4.81984],[6.98167,4.81982],[6.98168,4.81973],[6.9819,4.81976]]],[[[6.98759,4.81816],[6.98753,4.81835],[6.98736,4.8183],[6.9874,4.81816],[6.98744,4.81817],[6.98746,4.81812],[6.98759,4.81816]]]]}},{"type":"Feature","properties":{"rank":8},"geometry":{"type":"MultiPolygon","coordinates":[[[[6.89888,4.88438],[6.89886,4.88446],[6.89874,4.88443],[6.89876,4.88435],[6.89888,4.88438]]],[[[6.89909,4.88452],[6.89906,4.88464],[6.89899,4.88462],[6.89902,4.8845],[6.89909,4.88452]]],[[[6.89882,4.88452],[6.8988,4.88458],[6.89871,4.88455],[6.89872,4.8845],[6.89882,4.88452]]],[[[6.89883,4.88445],[6.89883,4.88447],[6.89885,4.88448],[6.89884,4.88453],[6.89865,4.88448],[6.89867,4.88441],[6.89883,4.88445]]]]}},{"type":"Feature","properties":{"rank":10},"geometry":{"type":"MultiPolygon","coordinates":[[[[7.05611,4.86801],[7.05604,4.86807],[7.05602,4.86805],[7.05608,4.86798],[7.05611,4.86801]]],[[[7.05669,4.86739],[7.05673,4.86744],[7.05669,4.86749],[7.05664,4.86744],[7.05669,4.86739]]],[[[7.05661,4.86762],[7.05655,4.86753],[7.0566,4.8675],[7.05661,4.86753],[7.05672,4.86746],[7.05676,4.86752],[7.05661,4.86762]]],[[[7.05525,4.86714],[7.05521,4.86726],[7.05512,4.86723],[7.05516,4.86711],[7.05525,4.86714]]],[[[7.05566,4.86785],[7.05564,4.86804],[7.05552,4.86802],[7.05555,4.86784],[7.05566,4.86785]]],[[[7.05683,4.86731],[7.05675,4.86742],[7.05677,4.86743],[7.05676,4.86744],[7.05669,4.86739],[7.05677,4.86727],[7.05683,4.86731]]],[[[7.05681,4.86691],[7.05679,4.86697],[7.05672,4.86695],[7.05674,4.86689],[7.05681,4.86691]]],[[[7.05674,4.86697],[7.05672,4.8671],[7.05665,4.86709],[7.05667,4.86696],[7.05674,4.86697]]],[[[7.05621,4.86793],[7.05617,4.86797],[7.05614,4.86794],[7.05618,4.8679],[7.05621,4.86793]]],[[[7.05691,4.86727],[7.05686,4.86752],[7.05687,4.86752],[7.05684,4.86766],[7.05676,4.86765],[7.05684,4.86725],[7.05691,4.86727]]],[[[7.05573,4.86761],[7.05571,4.86769],[7.05573,4.8677],[7.0557,4.86781],[7.05559,4.86778],[7.05564,4.86759],[7.05573,4.86761]]],[[[7.05657,4.86765],[7.05625,4.86797],[7.05618,4.8679],[7.05651,4.86758],[7.05657,4.86765]]],[[[7.05629,4.86808],[7.05628,4.86819],[7.05603,4.86818],[7.05603,4.86807],[7.05629,4.86808]]]]}},{"type":"Feature","properties":{"rank":13},"geometry":{"type":"MultiPolygon","coordinates":[[[[7.04179,4.81969],[7.04166,4.82001],[7.04115,4.8198],[7.04128,4.81948],[7.04179,4.81969]]],[[[7.04039,4.82063],[7.04038,4.82066],[7.04035,4.82066],[7.04035,4.82063],[7.04039,4.82063]]],[[[7.03679,4.81944],[7.03675,4.81943],[7.03679,4.81933],[7.03683,4.81935],[7.03679,4.81944]]],[[[7.04087,4.81992],[7.04084,4.82003],[7.04052,4.81994],[7.04055,4.81983],[7.04087,4.81992]]],[[[7.03676,4.8189],[7.03659,4.81884],[7.03677,4.81836],[7.03694,4.81842],[7.03676,4.8189]]],[[[7.03716,4.81945],[7.0371,4.81961],[7.03696,4.81955],[7.03697,4.81952],[7.037,4.81953],[7.03703,4.81944],[7.03701,4.81943],[7.03702,4.8194],[7.03716,4.81945]]],[[[7.03761,4.81936],[7.0375,4.81964],[7.03735,4.81958],[7.03745,4.8193],[7.03761,4.81936]]],[[[7.0379,4.82006],[7.03793,4.81999],[7.03821,4.8201],[7.03811,4.82036],[7.03761,4.82016],[7.03768,4.81998],[7.0379,4.82006]]],[[[7.04175,4.82032],[7.04172,4.82041],[7.04165,4.82038],[7.04168,4.8203],[7.04175,4.82032]]],[[[7.03822,4.81885],[7.0382,4.81891],[7.0382,4.81892],[7.0384,4.81839],[7.03858,4.81845],[7.03883,4.8178],[7.03883,4.81758],[7.03891,4.81758],[7.03893,4.81752],[7.03895,4.81752],[7.03895,4.81746],[7.03907,4.81746],[7.03907,4.81757],[7.03921,4.81762],[7.03907,4.81799],[7.03907,4.81816],[7.03915,4.81819],[7.03868,4.81942],[7.03832,4.81929],[7.03817,4.81929],[7.03817,4.81924],[7.03819,4.81924],[7.03795,4.81915],[7.03795,4.81919],[7.03794,4.81919],[7.03797,4.8192],[7.03795,4.81926],[7.03794,4.81929],[7.03794,4.81929],[7.03793,4.8193],[7.03788,4.81928],[7.03788,4.81927],[7.03788,4.81927],[7.03788,4.81927],[7.03788,4.81927],[7.03789,4.81922],[7.0379,4.81919],[7.0379,4.81918],[7.0379,4.81917],[7.03789,4.81917],[7.0379,4.81914],[7.0379,4.8191],[7.03791,4.8191],[7.03792,4.8191],[7.03792,4.8191],[7.03795,4.8191],[7.03795,4.81911],[7.03796,4.81912],[7.038,4.81902],[7.03805,4.81903],[7.03813,4.81882],[7.03822,4.81885]],[[7.03791,4.81919],[7.03791,4.81919],[7.0379,4.81919],[7.03791,4.81919]]],[[[7.03882,4.81993],[7.0388,4.81998],[7.03872,4.81995],[7.03874,4.8199],[7.03882,4.81993]]],[[[7.03856,4.81971],[7.03852,4.81982],[7.03845,4.8198],[7.03849,4.81968],[7.03856,4.81971]]],[[[7.04181,4.82021],[7.04177,4.82032],[7.04169,4.82028],[7.04173,4.82018],[7.04181,4.82021]]],[[[7.0432,4.82059],[7.04318,4.82065],[7.04297,4.82059],[7.04297,4.8206],[7.04283,4.82056],[7.04286,4.82049],[7.0432,4.82059]]],[[[7.03707,4.81964],[7.03703,4.81973],[7.03693,4.81969],[7.03697,4.81961],[7.03707,4.81964]]],[[[7.0411,4.81994],[7.04108,4.82001],[7.04095,4.81997],[7.04097,4.8199],[7.0411,4.81994]]],[[[7.04396,4.82057],[7.04388,4.82086],[7.0432,4.82066],[7.04326,4.82046],[7.04303,4.8204],[7.04306,4.8203],[7.04396,4.82057]]],[[[7.04112,4.81972],[7.0411,4.81979],[7.04133,4.81989],[7.04129,4.81999],[7.04062,4.81971],[7.04069,4.81955],[7.04112,4.81972]]],[[[7.04009,4.81966],[7.04003,4.81984],[7.04012,4.81987],[7.04008,4.81997],[7.03999,4.81994],[7.03993,4.82008],[7.03981,4.82004],[7.03984,4.81996],[7.03978,4.81994],[7.03986,4.81973],[7.03992,4.81975],[7.03997,4.81962],[7.04009,4.81966]]],[[[7.03684,4.81945],[7.0368,4.81943],[7.03685,4.81934],[7.03688,4.81936],[7.03684,4.81945]]],[[[7.04168,4.82028],[7.04164,4.82037],[7.04158,4.82034],[7.04162,4.82026],[7.04168,4.82028]]],[[[7.03851,4.81963],[7.03838,4.81997],[7.03825,4.81992],[7.03821,4.82],[7.0382,4.82],[7.03819,4.82004],[7.0382,4.82004],[7.03817,4.8201],[7.0379,4.82],[7.03792,4.81994],[7.03764,4.81983],[7.03782,4.81936],[7.03851,4.81963]]],[[[7.04126,4.82007],[7.04124,4.82017],[7.04111,4.82014],[7.04113,4.82004],[7.04126,4.82007]]],[[[7.0372,4.81932],[7.03717,4.81942],[7.03707,4.81938],[7.0371,4.81928],[7.0372,4.81932]]],[[[7.03595,4.81892],[7.03606,4.81897],[7.03605,4.81899],[7.03594,4.81894],[7.03595,4.81892]]],[[[7.04045,4.82005],[7.041,4.82019],[7.04099,4.82022],[7.04044,4.82009],[7.04045,4.82005]]],[[[7.04321,4.8205],[7.04318,4.82059],[7.04297,4.82053],[7.043,4.82044],[7.04321,4.8205]]],[[[7.03769,4.81975],[7.03766,4.81983],[7.03762,4.81982],[7.0374,4.82039],[7.03713,4.82028],[7.03718,4.82015],[7.03709,4.82012],[7.03725,4.81968],[7.03735,4.81971],[7.03738,4.81963],[7.03769,4.81975]]],[[[7.0408,4.82005],[7.04078,4.82014],[7.04071,4.82012],[7.04073,4.82004],[7.0408,4.82005]]],[[[7.03862,4.81957],[7.03858,4.81966],[7.03851,4.81963],[7.03854,4.81954],[7.03862,4.81957]]],[[[7.04034,4.82053],[7.04037,4.82044],[7.04059,4.82049],[7.04055,4.82062],[7.04038,4.82058],[7.04037,4.82063],[7.04029,4.82061],[7.04031,4.82052],[7.04034,4.82053]]],[[[7.0413,4.82015],[7.04132,4.82009],[7.04149,4.82013],[7.04148,4.82016],[7.04151,4.82016],[7.04152,4.82014],[7.04158,4.82015],[7.04157,4.8202],[7.04162,4.82021],[7.0416,4.82027],[7.04132,4.8202],[7.04131,4.82023],[7.04126,4.82022],[7.04128,4.82015],[7.0413,4.82015]]],[[[7.03979,4.82008],[7.0395,4.82085],[7.03929,4.82077],[7.03958,4.82],[7.03979,4.82008]]],[[[7.04043,4.82008],[7.04052,4.8201],[7.04051,4.82014],[7.04098,4.82025],[7.04096,4.82033],[7.0404,4.8202],[7.04043,4.82008]]],[[[7.04151,4.8203],[7.0415,4.82033],[7.04104,4.82023],[7.04105,4.82019],[7.04151,4.8203]]],[[[7.04106,4.82003],[7.04103,4.82012],[7.0409,4.82008],[7.04092,4.82],[7.04106,4.82003]]],[[[7.03844,4.82004],[7.03833,4.82032],[7.03825,4.82028],[7.03826,4.82025],[7.03819,4.82022],[7.03829,4.81998],[7.03844,4.82004]]],[[[7.03941,4.81958],[7.03929,4.81989],[7.03938,4.81992],[7.03932,4.82008],[7.03871,4.81985],[7.03889,4.81938],[7.03941,4.81958]]],[[[7.03776,4.81942],[7.03765,4.81969],[7.0375,4.81963],[7.0376,4.81936],[7.03776,4.81942]]],[[[7.04071,4.82003],[7.0407,4.82009],[7.04057,4.82006],[7.04058,4.82],[7.04071,4.82003]]],[[[7.03921,4.82016],[7.03916,4.82028],[7.03856,4.82005],[7.0386,4.81993],[7.03921,4.82016]]],[[[7.04095,4.81989],[7.04094,4.81993],[7.04091,4.81993],[7.04092,4.81988],[7.04095,4.81989]]],[[[7.04089,4.81983],[7.04087,4.81992],[7.04056,4.81983],[7.04058,4.81975],[7.04089,4.81983]]]]}},{"type":"Feature","properties":{"rank":14},"geometry":{"type":"MultiPolygon","coordinates":[[[[7.0469,4.81739],[7.04658,4.81758],[7.04653,4.81749],[7.04684,4.81731],[7.0469,4.81739]]],[[[7.04647,4.81767],[7.04643,4.81767],[7.04642,4.81762],[7.04646,4.81761],[7.04647,4.81767]]],[[[7.04518,4.8178],[7.04517,4.81784],[7.04512,4.81783],[7.04514,4.81779],[7.04518,4.8178]]],[[[7.04634,4.81772],[7.04631,4.81775],[7.04626,4.8177],[7.0463,4.81767],[7.04634,4.81772]]],[[[7.04691,4.81756],[7.04659,4.81771],[7.04655,4.81762],[7.04687,4.81747],[7.04691,4.81756]]],[[[7.04656,4.81786],[7.04649,4.81787],[7.04649,4.81782],[7.04655,4.81782],[7.04656,4.81786]]],[[[7.04552,4.81764],[7.04547,4.81776],[7.04537,4.81772],[7.04543,4.8176],[7.04552,4.81764]]],[[[7.04667,4.81735],[7.04666,4.81745],[7.04631,4.81741],[7.04632,4.81731],[7.04667,4.81735]]],[[[7.04686,4.81792],[7.0465,4.81795],[7.04649,4.81787],[7.04685,4.81783],[7.04686,4.81792]]],[[[7.04652,4.8176],[7.04654,4.81767],[7.0465,4.81768],[7.04648,4.81761],[7.04652,4.8176]]],[[[7.04644,4.81754],[7.04642,4.81759],[7.04638,4.81757],[7.0464,4.81752],[7.04644,4.81754]]],[[[7.04645,4.81783],[7.04643,4.81788],[7.04638,4.81786],[7.0464,4.81781],[7.04645,4.81783]]],[[[7.04652,4.81754],[7.04651,4.81759],[7.04644,4.81758],[7.04645,4.81753],[7.04652,4.81754]]],[[[7.0464,4.8178],[7.04636,4.8179],[7.04604,4.81775],[7.04609,4.81765],[7.0464,4.8178]]]]}},{"type":"Feature","properties":{"rank":15},"geometry":{"type":"MultiPolygon","coordinates":[[[[7.04179,4.81969],[7.04166,4.82001],[7.04115,4.8198],[7.04128,4.81948],[7.04179,4.81969]]],[[[7.04085,4.81925],[7.04083,4.8193],[7.04072,4.81925],[7.04074,4.8192],[7.04085,4.81925]]],[[[7.04067,4.81867],[7.04066,4.81871],[7.04063,4.8187],[7.04064,4.81866],[7.04067,4.81867]]],[[[7.04175,4.82032],[7.04172,4.82041],[7.04165,4.82038],[7.04168,4.8203],[7.04175,4.82032]]],[[[7.04181,4.82021],[7.04177,4.82032],[7.04169,4.82028],[7.04173,4.82018],[7.04181,4.82021]]],[[[7.0432,4.82059],[7.04318,4.82065],[7.04297,4.82059],[7.04297,4.8206],[7.04283,4.82056],[7.04286,4.82049],[7.0432,4.82059]]],[[[7.04093,4.81898],[7.04086,4.81913],[7.0408,4.8191],[7.04086,4.81895],[7.04093,4.81898]]],[[[7.0411,4.81994],[7.04108,4.82001],[7.04095,4.81997],[7.04097,4.8199],[7.0411,4.81994]]],[[[7.04396,4.82057],[7.04388,4.82086],[7.0432,4.82066],[7.04326,4.82046],[7.04303,4.8204],[7.04306,4.8203],[7.04396,4.82057]]],[[[7.0411,4.81941],[7.04105,4.81957],[7.04073,4.81946],[7.04078,4.8193],[7.0411,4.81941]]],[[[7.04112,4.81972],[7.0411,4.81979],[7.04133,4.81989],[7.04129,4.81999],[7.04062,4.81971],[7.04069,4.81955],[7.04112,4.81972]]],[[[7.04168,4.82028],[7.04164,4.82037],[7.04158,4.82034],[7.04162,4.82026],[7.04168,4.82028]]],[[[7.04054,4.8189],[7.04046,4.81909],[7.04036,4.81904],[7.04043,4.81886],[7.04054,4.8189]]],[[[7.04126,4.82007],[7.04124,4.82017],[7.04111,4.82014],[7.04113,4.82004],[7.04126,4.82007]]],[[[7.04321,4.8205],[7.04318,4.82059],[7.04297,4.82053],[7.043,4.82044],[7.04321,4.8205]]],[[[7.04127,4.81914],[7.04129,4.81909],[7.04144,4.81916],[7.04142,4.81921],[7.04156,4.81927],[7.04158,4.81922],[7.04185,4.81933],[7.04182,4.81939],[7.04188,4.81942],[7.04178,4.81964],[7.04174,4.81962],[7.04173,4.81965],[7.04099,4.81932],[7.041,4.81929],[7.04094,4.81926],[7.04092,4.81929],[7.04091,4.81928],[7.04101,4.81903],[7.04127,4.81914]]],[[[7.0413,4.82015],[7.04132,4.82009],[7.04149,4.82013],[7.04148,4.82016],[7.04151,4.82016],[7.04152,4.82014],[7.04158,4.82015],[7.04157,4.8202],[7.04162,4.82021],[7.0416,4.82027],[7.04132,4.8202],[7.04131,4.82023],[7.04126,4.82022],[7.04128,4.82015],[7.0413,4.82015]]],[[[7.04036,4.81869],[7.04032,4.81867],[7.04036,4.81857],[7.0404,4.81859],[7.04036,4.81869]]],[[[7.04151,4.8203],[7.0415,4.82033],[7.04104,4.82023],[7.04105,4.82019],[7.04151,4.8203]]],[[[7.0402,4.81938],[7.04008,4.81933],[7.04028,4.81881],[7.0404,4.81885],[7.0402,4.81938]]]]}},{"type":"Feature","properties":{"rank":16},"geometry":{"type":"MultiPolygon","coordinates":[[[[7.04103,4.8207],[7.04104,4.82063],[7.04113,4.82065],[7.04112,4.82068],[7.04125,4.82071],[7.04123,4.8208],[7.04106,4.82076],[7.04105,4.8208],[7.04097,4.82078],[7.04099,4.82069],[7.04103,4.8207]]],[[[7.04132,4.82078],[7.0413,4.82088],[7.04122,4.82086],[7.04124,4.82076],[7.04132,4.82078]]],[[[7.04157,4.82059],[7.04156,4.82069],[7.04153,4.82069],[7.04153,4.82064],[7.04145,4.82064],[7.04145,4.82058],[7.04157,4.82059]]],[[[7.04145,4.8211],[7.04145,4.82106],[7.04167,4.8211],[7.04161,4.82137],[7.04128,4.8213],[7.04133,4.82107],[7.04145,4.8211]]],[[[7.04126,4.82121],[7.04124,4.82128],[7.04115,4.82125],[7.04116,4.82118],[7.04126,4.82121]]],[[[7.0411,4.82151],[7.0411,4.82156],[7.04099,4.82156],[7.041,4.82151],[7.0411,4.82151]]],[[[7.0432,4.82059],[7.04318,4.82065],[7.04297,4.82059],[7.04297,4.8206],[7.04283,4.82056],[7.04286,4.82049],[7.0432,4.82059]]],[[[7.04173,4.82077],[7.0417,4.82093],[7.04164,4.82092],[7.04167,4.82076],[7.04173,4.82077]]],[[[7.04032,4.82183],[7.04043,4.82184],[7.0404,4.82225],[7.04029,4.82224],[7.04032,4.82183]]],[[[7.04396,4.82057],[7.04388,4.82086],[7.0432,4.82066],[7.04326,4.82046],[7.04303,4.8204],[7.04306,4.8203],[7.04396,4.82057]]],[[[7.04154,4.82079],[7.04152,4.82086],[7.04148,4.82085],[7.04149,4.82078],[7.04154,4.82079]]],[[[7.04065,4.82085],[7.04131,4.82103],[7.04127,4.82121],[7.0406,4.82103],[7.04065,4.82085]]],[[[7.0406,4.82119],[7.041,4.82122],[7.04099,4.82137],[7.04092,4.82136],[7.04092,4.82134],[7.04059,4.82132],[7.0406,4.82119]]],[[[7.04321,4.8205],[7.04318,4.82059],[7.04297,4.82053],[7.043,4.82044],[7.04321,4.8205]]],[[[7.04079,4.82153],[7.04078,4.82167],[7.04081,4.82167],[7.04081,4.82153],[7.04089,4.82153],[7.04087,4.82193],[7.0408,4.82193],[7.0408,4.82184],[7.04078,4.82184],[7.04075,4.82249],[7.04072,4.82249],[7.04071,4.8226],[7.04052,4.8226],[7.04052,4.82256],[7.04041,4.82255],[7.04046,4.82151],[7.04079,4.82153]]],[[[7.04108,4.82131],[7.04108,4.82133],[7.04105,4.82134],[7.04105,4.82132],[7.04108,4.82131]]],[[[7.04169,4.82042],[7.04167,4.8205],[7.04147,4.82046],[7.04149,4.82037],[7.04169,4.82042]]],[[[7.04152,4.82086],[7.04151,4.82091],[7.04148,4.8209],[7.04147,4.82094],[7.04145,4.82093],[7.04146,4.8209],[7.04134,4.82087],[7.04135,4.82081],[7.04152,4.82086]]],[[[7.04033,4.82178],[7.04031,4.82205],[7.04024,4.82204],[7.04026,4.82177],[7.04033,4.82178]]],[[[7.04244,4.82095],[7.04241,4.82112],[7.04216,4.82107],[7.04216,4.82104],[7.04173,4.82096],[7.04175,4.82083],[7.04244,4.82095]]]]}},{"type":"Feature","properties":{"rank":17},"geometry":{"type":"MultiPolygon","coordinates":[[[[6.99055,4.81705],[6.99045,4.81727],[6.99034,4.81722],[6.99045,4.81701],[6.99055,4.81705]]],[[[6.99049,4.81734],[6.99048,4.81736],[6.99043,4.81734],[6.99045,4.81731],[6.99049,4.81734]]],[[[6.98733,4.81528],[6.98729,4.81528],[6.98733,4.81509],[6.98737,4.8151],[6.98733,4.81528]]],[[[6.98828,4.81713],[6.98824,4.81731],[6.98816,4.81729],[6.9882,4.81712],[6.98828,4.81713]]],[[[6.98698,4.81536],[6.98699,4.81533],[6.98705,4.81534],[6.98705,4.81537],[6.98713,4.81539],[6.98711,4.81549],[6.98693,4.81546],[6.98695,4.81535],[6.98698,4.81536]]],[[[6.98856,4.81699],[6.98852,4.81714],[6.98829,4.81708],[6.98833,4.81693],[6.98856,4.81699]]],[[[6.98701,4.81517],[6.98715,4.8152],[6.98713,4.81526],[6.98706,4.81524],[6.98705,4.8153],[6.98699,4.81528],[6.98701,4.81517]]],[[[6.98858,4.81714],[6.98851,4.81738],[6.98841,4.81735],[6.98847,4.81711],[6.98858,4.81714]]],[[[6.98494,4.81425],[6.98495,4.81422],[6.985,4.81423],[6.98496,4.81447],[6.98461,4.81441],[6.98462,4.81433],[6.98465,4.81433],[6.98467,4.8142],[6.98494,4.81425]]],[[[6.98425,4.81448],[6.98424,4.81454],[6.98418,4.81453],[6.98419,4.81447],[6.98425,4.81448]]],[[[6.9889,4.81699],[6.98888,4.81708],[6.98886,4.81707],[6.98885,4.81713],[6.98887,4.81713],[6.98884,4.81724],[6.98872,4.81721],[6.98877,4.81699],[6.98875,4.81698],[6.98876,4.81695],[6.9889,4.81699]]],[[[6.98702,4.81503],[6.98701,4.81509],[6.98685,4.81507],[6.98686,4.815],[6.98702,4.81503]]],[[[6.9872,4.8149],[6.98719,4.81496],[6.98709,4.81494],[6.9871,4.81488],[6.9872,4.8149]]],[[[6.98462,4.81484],[6.9846,4.81493],[6.98455,4.81492],[6.98454,4.81496],[6.98447,4.81494],[6.98448,4.8149],[6.98441,4.81488],[6.98443,4.8148],[6.98462,4.81484]]],[[[6.98667,4.81484],[6.98666,4.81487],[6.98669,4.81488],[6.98668,4.81494],[6.98665,4.81493],[6.98663,4.81502],[6.98666,4.81502],[6.98665,4.8151],[6.98647,4.81506],[6.98652,4.81482],[6.98667,4.81484]]],[[[6.98784,4.81586],[6.98782,4.81593],[6.98769,4.8159],[6.9877,4.81582],[6.98784,4.81586]]],[[[6.98699,4.81511],[6.98698,4.81519],[6.98691,4.81518],[6.98693,4.8151],[6.98699,4.81511]]],[[[6.98558,4.81411],[6.9855,4.81452],[6.98535,4.81449],[6.98536,4.81443],[6.98538,4.81443],[6.9854,4.81432],[6.98526,4.81429],[6.98528,4.81418],[6.98542,4.81421],[6.98545,4.81408],[6.98558,4.81411]]],[[[6.98994,4.8173],[6.9901,4.81735],[6.99009,4.81739],[6.99013,4.8174],[6.99011,4.81749],[6.9899,4.81742],[6.98994,4.8173]]],[[[6.98685,4.81441],[6.98676,4.81474],[6.9866,4.8147],[6.98669,4.81437],[6.98685,4.81441]]],[[[6.98698,4.81482],[6.98696,4.8149],[6.987,4.81491],[6.98699,4.81498],[6.98679,4.81494],[6.98682,4.81479],[6.98698,4.81482]]],[[[6.9853,4.81405],[6.98524,4.8144],[6.98526,4.81441],[6.98525,4.81447],[6.98508,4.81444],[6.98515,4.81402],[6.9853,4.81405]]],[[[6.98788,4.81544],[6.98782,4.81578],[6.98766,4.81575],[6.98772,4.81541],[6.98788,4.81544]]],[[[6.99035,4.81742],[6.99033,4.81746],[6.9903,4.81745],[6.99031,4.81741],[6.99035,4.81742]]],[[[6.98768,4.81686],[6.98765,4.81699],[6.98756,4.81696],[6.98759,4.81684],[6.98768,4.81686]]],[[[6.98921,4.81757],[6.98921,4.81762],[6.98917,4.81761],[6.98918,4.81757],[6.98921,4.81757]]],[[[6.98922,4.817],[6.98918,4.81716],[6.98907,4.81713],[6.98909,4.81704],[6.98906,4.81703],[6.98908,4.81697],[6.98922,4.817]]],[[[6.98765,4.81582],[6.98764,4.81589],[6.98761,4.81588],[6.98762,4.81582],[6.98765,4.81582]]],[[[6.98755,4.8158],[6.98754,4.81587],[6.98737,4.81584],[6.98738,4.81577],[6.98755,4.8158]]],[[[6.98779,4.81669],[6.98778,4.81672],[6.98775,4.81671],[6.98776,4.81669],[6.98779,4.81669]]],[[[6.98722,4.81522],[6.98721,4.81527],[6.98716,4.81526],[6.98717,4.81521],[6.98722,4.81522]]],[[[6.98905,4.81727],[6.98904,4.8173],[6.98912,4.81732],[6.98907,4.8175],[6.98883,4.81743],[6.98889,4.81723],[6.98905,4.81727]]],[[[6.98708,4.81621],[6.98705,4.81634],[6.98754,4.81644],[6.98753,4.81649],[6.98696,4.81638],[6.98699,4.81619],[6.98708,4.81621]]],[[[6.98692,4.81519],[6.9869,4.81544],[6.98671,4.81542],[6.98672,4.81533],[6.98674,4.81533],[6.98675,4.81517],[6.98692,4.81519]]],[[[6.98788,4.81635],[6.98789,4.81629],[6.98814,4.81636],[6.98812,4.81642],[6.98815,4.81643],[6.98812,4.81653],[6.98809,4.81653],[6.98808,4.81655],[6.98802,4.81653],[6.98803,4.81651],[6.98791,4.81647],[6.9879,4.81649],[6.98784,4.81648],[6.98785,4.81645],[6.9878,4.81644],[6.98783,4.81634],[6.98788,4.81635]]],[[[6.98665,4.81511],[6.98659,4.81539],[6.9864,4.81535],[6.98644,4.81515],[6.98646,4.81515],[6.98647,4.81508],[6.98665,4.81511]]],[[[6.98786,4.81513],[6.98783,4.81528],[6.98777,4.81527],[6.9878,4.81512],[6.98786,4.81513]]],[[[6.99036,4.81699],[6.99027,4.81719],[6.98996,4.81705],[6.98998,4.81701],[6.99005,4.81685],[6.99036,4.81699]]]]}},{"type":"Feature","properties":{"rank":19},"geometry":{"type":"MultiPolygon","coordinates":[[[[6.98889,4.83955],[6.98888,4.83963],[6.9887,4.83961],[6.98871,4.83954],[6.98889,4.83955]]],[[[6.98931,4.83971],[6.9892,4.8397],[6.98921,4.83964],[6.98932,4.83965],[6.98931,4.83971]]],[[[6.98911,4.83988],[6.9891,4.8399],[6.98914,4.8399],[6.98913,4.84001],[6.98902,4.84001],[6.98903,4.83987],[6.98911,4.83988]]],[[[6.98913,4.8391],[6.98913,4.83912],[6.98916,4.83913],[6.98914,4.83929],[6.989,4.83928],[6.98902,4.83909],[6.98913,4.8391]]],[[[6.98915,4.8394],[6.98914,4.83952],[6.98895,4.8395],[6.98896,4.83938],[6.98915,4.8394]]],[[[6.9893,4.83978],[6.98929,4.83985],[6.98915,4.83983],[6.98916,4.83977],[6.9893,4.83978]]],[[[6.98961,4.83938],[6.98953,4.83949],[6.98948,4.83945],[6.98956,4.83934],[6.98961,4.83938]]],[[[6.98991,4.83896],[6.98991,4.83901],[6.98987,4.83901],[6.98987,4.83909],[6.98978,4.83908],[6.9898,4.83895],[6.98991,4.83896]]],[[[6.98962,4.83922],[6.98959,4.8392],[6.98949,4.83942],[6.9894,4.83938],[6.98952,4.83911],[6.98964,4.83917],[6.98962,4.83922]]],[[[6.98868,4.83983],[6.98867,4.83987],[6.9887,4.83987],[6.98869,4.84],[6.98861,4.83999],[6.98863,4.83982],[6.98868,4.83983]]],[[[6.98877,4.84005],[6.98876,4.84019],[6.98865,4.84019],[6.98865,4.84004],[6.98877,4.84005]]],[[[6.98904,4.83976],[6.98902,4.84001],[6.98891,4.84],[6.98893,4.83975],[6.98904,4.83976]]],[[[6.98964,4.83906],[6.98964,4.83912],[6.98897,4.83906],[6.98897,4.839],[6.98964,4.83906]]],[[[6.98891,4.8394],[6.9889,4.83945],[6.98887,4.83945],[6.98887,4.83948],[6.98879,4.83947],[6.98879,4.83943],[6.9887,4.83942],[6.9887,4.83938],[6.98891,4.8394]]],[[[6.98932,4.83941],[6.9893,4.83951],[6.98921,4.83949],[6.98923,4.8394],[6.98932,4.83941]]],[[[6.98938,4.8392],[6.98936,4.83932],[6.98923,4.83929],[6.98926,4.83917],[6.98938,4.8392]]],[[[6.98923,4.8392],[6.98922,4.83932],[6.98916,4.83931],[6.98917,4.8392],[6.98923,4.8392]]],[[[6.98985,4.83959],[6.98982,4.83965],[6.98969,4.83959],[6.98972,4.83953],[6.98985,4.83959]]],[[[6.9893,4.83971],[6.98929,4.83978],[6.98915,4.83977],[6.98916,4.8397],[6.9893,4.83971]]],[[[6.98972,4.83923],[6.98962,4.83938],[6.98957,4.83934],[6.98967,4.8392],[6.98972,4.83923]]],[[[6.98925,4.8391],[6.98924,4.83916],[6.98917,4.83916],[6.98917,4.8391],[6.98925,4.8391]]],[[[6.98894,4.83935],[6.98893,4.8394],[6.98883,4.83939],[6.98884,4.83934],[6.98894,4.83935]]],[[[6.98847,4.83973],[6.98847,4.83984],[6.98844,4.83984],[6.98845,4.83973],[6.98847,4.83973]]],[[[6.98981,4.83908],[6.98981,4.83908],[6.98978,4.83908],[6.98977,4.83921],[6.98969,4.8392],[6.98969,4.83913],[6.98964,4.83912],[6.98964,4.83906],[6.98981,4.83908]]],[[[6.98952,4.8395],[6.98951,4.83954],[6.98935,4.83948],[6.98936,4.83944],[6.98952,4.8395]]],[[[6.98916,4.8397],[6.98915,4.83981],[6.98904,4.8398],[6.98905,4.83969],[6.98916,4.8397]]],[[[6.98887,4.84001],[6.98869,4.84],[6.9887,4.83987],[6.98868,4.83986],[6.98868,4.83978],[6.98885,4.8398],[6.98885,4.83975],[6.98889,4.83976],[6.98887,4.84001]]],[[[6.98933,4.83933],[6.98932,4.83939],[6.98915,4.83937],[6.98915,4.8394],[6.98903,4.83939],[6.98904,4.83934],[6.989,4.83934],[6.989,4.83929],[6.98933,4.83933]]]]}},{"type":"Feature","properties":{"rank":21},"geometry":{"type":"MultiPolygon","coordinates":[[[[6.98633,4.86688],[6.98619,4.86693],[6.98616,4.86683],[6.98631,4.86679],[6.98633,4.86688]]],[[[6.988,4.86748],[6.98796,4.86746],[6.988,4.86734],[6.98804,4.86735],[6.988,4.86748]]],[[[6.98777,4.86743],[6.98777,4.8675],[6.98767,4.8675],[6.98767,4.86743],[6.98777,4.86743]]],[[[6.98718,4.86757],[6.98697,4.86764],[6.98695,4.86757],[6.98716,4.8675],[6.98718,4.86757]]],[[[6.98763,4.86744],[6.98763,4.8675],[6.9876,4.86749],[6.9876,4.86744],[6.98763,4.86744]]],[[[6.98831,4.86743],[6.98819,4.8673],[6.98814,4.86734],[6.98813,4.86733],[6.98821,4.86726],[6.98824,4.8673],[6.98841,4.86714],[6.98851,4.86725],[6.98831,4.86743]]],[[[6.98538,4.86556],[6.9851,4.86571],[6.98506,4.86563],[6.98534,4.86548],[6.98538,4.86556]]],[[[6.98542,4.86558],[6.98539,4.86559],[6.98538,4.86556],[6.98541,4.86555],[6.98542,4.86558]]],[[[6.99037,4.86841],[6.99027,4.86841],[6.99027,4.86834],[6.99037,4.86833],[6.99037,4.86841]]],[[[6.98784,4.86756],[6.98778,4.8678],[6.98772,4.86779],[6.98778,4.86754],[6.98784,4.86756]]],[[[6.98758,4.86746],[6.98757,4.86762],[6.9875,4.86762],[6.98751,4.86748],[6.98753,4.86749],[6.98753,4.86746],[6.98758,4.86746]]],[[[6.9883,4.86739],[6.98828,4.86749],[6.98808,4.86746],[6.9881,4.86736],[6.9883,4.86739]]],[[[6.98527,4.86409],[6.98516,4.86413],[6.98514,4.86407],[6.98525,4.86403],[6.98527,4.86409]]],[[[6.98472,4.86418],[6.98478,4.86415],[6.98486,4.86431],[6.98482,4.86434],[6.98483,4.86435],[6.98499,4.86426],[6.98523,4.86472],[6.98478,4.86496],[6.98468,4.86477],[6.98475,4.86473],[6.98471,4.86465],[6.98468,4.86467],[6.9846,4.86452],[6.98463,4.86451],[6.98461,4.86447],[6.98463,4.86446],[6.9845,4.86422],[6.98469,4.86412],[6.98472,4.86418]]],[[[6.98592,4.86695],[6.98576,4.867],[6.98574,4.86693],[6.9859,4.86688],[6.98592,4.86695]]],[[[6.98932,4.86696],[6.98922,4.86761],[6.98881,4.86754],[6.98891,4.8669],[6.98932,4.86696]]],[[[6.98591,4.86621],[6.98578,4.86626],[6.98576,4.86619],[6.98588,4.86614],[6.98591,4.86621]]],[[[6.98879,4.86783],[6.98924,4.86784],[6.98923,4.86794],[6.98921,4.86794],[6.98921,4.86798],[6.98879,4.86797],[6.98879,4.86783]]],[[[6.98799,4.86724],[6.98799,4.86731],[6.98791,4.86731],[6.98792,4.86724],[6.98799,4.86724]]],[[[6.99038,4.86848],[6.9902,4.86849],[6.99019,4.86842],[6.99037,4.86841],[6.99038,4.86848]]],[[[6.98607,4.8662],[6.98592,4.86625],[6.98588,4.86615],[6.98602,4.86609],[6.98607,4.8662]]],[[[6.98818,4.86765],[6.98813,4.86764],[6.98816,4.86755],[6.98821,4.86756],[6.98818,4.86765]]],[[[6.98821,4.86751],[6.98821,4.86755],[6.98811,4.86754],[6.98811,4.8675],[6.98821,4.86751]]],[[[6.98598,4.86709],[6.98575,4.86716],[6.98572,4.86707],[6.98595,4.867],[6.98598,4.86709]]],[[[6.98638,4.86703],[6.9862,4.8671],[6.98615,4.86698],[6.98633,4.86691],[6.98638,4.86703]]],[[[6.98829,4.86755],[6.98828,4.86762],[6.98824,4.86761],[6.98825,4.86755],[6.98829,4.86755]]],[[[6.98975,4.86776],[6.98974,4.86788],[6.98976,4.86789],[6.98975,4.86791],[6.98961,4.86789],[6.98963,4.86775],[6.98975,4.86776]]],[[[6.98618,4.86647],[6.98596,4.86658],[6.98592,4.86649],[6.98614,4.86638],[6.98618,4.86647]]],[[[6.98583,4.86554],[6.98562,4.86563],[6.98558,4.86553],[6.98578,4.86545],[6.98583,4.86554]]],[[[6.98883,4.86718],[6.98874,4.86774],[6.98827,4.86767],[6.98829,4.86753],[6.98831,4.86754],[6.98832,4.86747],[6.98836,4.86747],[6.98838,4.86737],[6.98846,4.86738],[6.98847,4.86731],[6.98852,4.86732],[6.98855,4.86713],[6.98883,4.86718]]],[[[6.98809,4.86714],[6.98804,4.86716],[6.98802,4.86711],[6.98807,4.8671],[6.98809,4.86714]]],[[[6.98996,4.86738],[6.98996,4.86735],[6.99006,4.86736],[6.99005,4.86746],[6.99014,4.86748],[6.99008,4.86791],[6.98974,4.86787],[6.98975,4.86777],[6.98986,4.86778],[6.98989,4.86754],[6.98981,4.86753],[6.98983,4.86736],[6.98996,4.86738]]],[[[6.98803,4.86721],[6.98793,4.86724],[6.98791,4.86716],[6.98801,4.86713],[6.98803,4.86721]]],[[[6.98969,4.86672],[6.98975,4.86673],[6.98973,4.86692],[6.98976,4.86693],[6.9897,4.86735],[6.98976,4.86736],[6.98975,4.86744],[6.98963,4.86743],[6.98964,4.86739],[6.9896,4.86739],[6.9896,4.86742],[6.98958,4.86742],[6.98952,4.86786],[6.9895,4.86786],[6.98949,4.86792],[6.98929,4.86789],[6.98946,4.86661],[6.9897,4.86664],[6.98969,4.86672]]]]}},{"type":"Feature","properties":{"rank":22},"geometry":{"type":"MultiPolygon","coordinates":[[[[6.94493,4.89404],[6.94492,4.89415],[6.94479,4.89414],[6.94479,4.89403],[6.94493,4.89404]]],[[[6.94497,4.89156],[6.94483,4.89162],[6.94483,4.89161],[6.94478,4.89163],[6.94472,4.89148],[6.94492,4.89141],[6.94497,4.89156]]],[[[6.94516,4.89495],[6.94516,4.89511],[6.9452,4.89511],[6.9452,4.89501],[6.94524,4.89501],[6.94524,4.89518],[6.94507,4.89518],[6.94507,4.89494],[6.94516,4.89495]]],[[[6.94509,4.89172],[6.94514,4.89206],[6.94508,4.89206],[6.94503,4.89172],[6.94509,4.89172]]],[[[6.94499,4.89362],[6.9449,4.89363],[6.94488,4.8934],[6.94497,4.89339],[6.94499,4.89362]]],[[[6.94548,4.89508],[6.94548,4.8952],[6.94539,4.89519],[6.94538,4.89522],[6.94535,4.89522],[6.94536,4.89507],[6.94548,4.89508]]],[[[6.94512,4.89434],[6.94512,4.89441],[6.94516,4.89441],[6.94516,4.89447],[6.94514,4.89447],[6.94514,4.89455],[6.94503,4.89454],[6.94503,4.89434],[6.94512,4.89434]]],[[[6.94548,4.89636],[6.94549,4.89642],[6.94539,4.89642],[6.94539,4.89645],[6.9453,4.89645],[6.9453,4.89637],[6.94532,4.89637],[6.94532,4.89633],[6.94546,4.89633],[6.94546,4.89636],[6.94548,4.89636]]],[[[6.94518,4.89599],[6.94518,4.89602],[6.94512,4.89603],[6.94512,4.89599],[6.94518,4.89599]]],[[[6.94549,4.89267],[6.94548,4.89277],[6.94534,4.89276],[6.94534,4.89267],[6.94549,4.89267]]],[[[6.94502,4.8911],[6.94493,4.89114],[6.94489,4.89106],[6.94499,4.89102],[6.94502,4.8911]]],[[[6.94535,4.89099],[6.94528,4.89102],[6.94524,4.89092],[6.9453,4.89089],[6.94535,4.89099]]],[[[6.94515,4.89796],[6.94519,4.89817],[6.94509,4.89819],[6.94506,4.89797],[6.94515,4.89796]]],[[[6.94499,4.89101],[6.94489,4.89105],[6.94485,4.89095],[6.94495,4.89091],[6.94499,4.89101]]],[[[6.94508,4.8978],[6.94499,4.89782],[6.94497,4.89772],[6.94507,4.8977],[6.94508,4.8978]]],[[[6.94512,4.89289],[6.94504,4.8929],[6.94503,4.89283],[6.94512,4.89282],[6.94512,4.89289]]],[[[6.94524,4.89335],[6.94521,4.89335],[6.94522,4.8934],[6.94518,4.8934],[6.94521,4.89358],[6.94516,4.89359],[6.94511,4.89333],[6.94523,4.89331],[6.94524,4.89335]]],[[[6.94519,4.89382],[6.94508,4.89383],[6.94507,4.89368],[6.94517,4.89367],[6.94519,4.89382]]],[[[6.94519,4.89652],[6.9452,4.89661],[6.9451,4.89662],[6.94509,4.89652],[6.94519,4.89652]]],[[[6.94544,4.89524],[6.94544,4.89533],[6.94535,4.89532],[6.94535,4.89523],[6.94544,4.89524]]],[[[6.94548,4.89136],[6.94548,4.89148],[6.94543,4.89148],[6.94543,4.89149],[6.94533,4.89149],[6.94534,4.89135],[6.94548,4.89136]]],[[[6.94511,4.89333],[6.94499,4.89335],[6.94498,4.89326],[6.94503,4.89325],[6.94503,4.89321],[6.94509,4.8932],[6.94511,4.89333]]],[[[6.94537,4.89603],[6.94536,4.89635],[6.94531,4.89635],[6.94531,4.89603],[6.94537,4.89603]]],[[[6.94505,4.89375],[6.94498,4.89376],[6.94497,4.8937],[6.94504,4.89368],[6.94505,4.89375]]],[[[6.94547,4.89105],[6.94532,4.89109],[6.9453,4.89103],[6.94546,4.891],[6.94547,4.89105]]],[[[6.94514,4.89112],[6.94514,4.89117],[6.94507,4.89116],[6.94508,4.89111],[6.94514,4.89112]]],[[[6.94519,4.89395],[6.94519,4.89406],[6.94506,4.89405],[6.94506,4.89395],[6.94519,4.89395]]],[[[6.94507,4.89534],[6.94494,4.89536],[6.94492,4.89526],[6.94505,4.89523],[6.94507,4.89534]]],[[[6.94541,4.89121],[6.9454,4.89134],[6.94534,4.89134],[6.94535,4.8912],[6.94541,4.89121]]],[[[6.94532,4.89766],[6.94536,4.89796],[6.94529,4.89797],[6.94524,4.89768],[6.94532,4.89766]]],[[[6.94502,4.89448],[6.94501,4.89457],[6.9449,4.89457],[6.9449,4.89447],[6.94502,4.89448]]],[[[6.94516,4.89621],[6.94506,4.89621],[6.94505,4.89608],[6.94515,4.89607],[6.94516,4.89621]]],[[[6.94508,4.89241],[6.94507,4.89245],[6.94509,4.89246],[6.94509,4.89252],[6.94498,4.89251],[6.94499,4.8924],[6.94508,4.89241]]],[[[6.94506,4.89391],[6.945,4.89392],[6.94498,4.89376],[6.94505,4.89376],[6.94506,4.89391]]],[[[6.94503,4.89689],[6.94493,4.8969],[6.94492,4.89683],[6.94502,4.89681],[6.94503,4.89689]]],[[[6.94525,4.89216],[6.94526,4.89207],[6.94551,4.89208],[6.94551,4.89217],[6.94525,4.89216]]],[[[6.94503,4.89734],[6.94479,4.89739],[6.94477,4.8973],[6.94501,4.89724],[6.94503,4.89734]]],[[[6.94518,4.89732],[6.94515,4.89733],[6.94514,4.89732],[6.94512,4.89732],[6.94513,4.89734],[6.94506,4.89737],[6.94499,4.89718],[6.94511,4.89713],[6.94518,4.89732]]],[[[6.94531,4.89157],[6.94532,4.89167],[6.94525,4.89168],[6.94524,4.89158],[6.94531,4.89157]]],[[[6.94473,4.89034],[6.94472,4.89044],[6.94424,4.89038],[6.94425,4.89028],[6.94473,4.89034]]],[[[6.94539,4.89569],[6.94539,4.89593],[6.94533,4.89593],[6.94533,4.89569],[6.94539,4.89569]]],[[[6.94508,4.89104],[6.94501,4.89107],[6.94495,4.89091],[6.94501,4.89089],[6.94508,4.89104]]],[[[6.94495,4.89372],[6.94496,4.89375],[6.94497,4.89375],[6.94499,4.89399],[6.94493,4.89399],[6.94491,4.89372],[6.94495,4.89372]]],[[[6.94513,4.8941],[6.94512,4.89415],[6.94516,4.89415],[6.94516,4.89421],[6.94505,4.89421],[6.94506,4.8941],[6.94513,4.8941]]],[[[6.94501,4.89234],[6.94489,4.89234],[6.94488,4.89221],[6.945,4.8922],[6.94501,4.89234]]],[[[6.94505,4.89545],[6.94494,4.89548],[6.94492,4.89539],[6.94503,4.89537],[6.94505,4.89545]]],[[[6.94529,4.89271],[6.94529,4.89268],[6.94535,4.89268],[6.94534,4.89278],[6.94523,4.89278],[6.94523,4.8927],[6.94529,4.89271]]],[[[6.94506,4.89665],[6.94507,4.89677],[6.94498,4.89678],[6.94497,4.89666],[6.94506,4.89665]]],[[[6.94526,4.8947],[6.94525,4.89482],[6.94521,4.89482],[6.94521,4.8947],[6.94526,4.8947]]],[[[6.94509,4.89255],[6.94509,4.8926],[6.94504,4.8926],[6.94504,4.89255],[6.94509,4.89255]]],[[[6.94502,4.89793],[6.94506,4.89815],[6.945,4.89816],[6.945,4.89819],[6.94495,4.89819],[6.94491,4.89795],[6.94502,4.89793]]],[[[6.94503,4.89603],[6.94494,4.89604],[6.94492,4.89581],[6.94501,4.8958],[6.94503,4.89603]]],[[[6.94512,4.89685],[6.94506,4.89686],[6.94506,4.89683],[6.94512,4.89682],[6.94512,4.89685]]],[[[6.94507,4.89662],[6.94496,4.89663],[6.94495,4.89655],[6.94507,4.89654],[6.94507,4.89662]]],[[[6.94508,4.89766],[6.94496,4.89767],[6.94495,4.89755],[6.94506,4.89753],[6.94508,4.89766]]],[[[6.94527,4.89391],[6.9452,4.89392],[6.94517,4.89367],[6.94525,4.89366],[6.94527,4.89391]]],[[[6.94513,4.89243],[6.94512,4.89247],[6.94509,4.89247],[6.94509,4.89243],[6.94513,4.89243]]],[[[6.94521,4.89799],[6.94524,4.8982],[6.94519,4.89821],[6.94516,4.89799],[6.94521,4.89799]]],[[[6.94532,4.89112],[6.94525,4.89115],[6.94516,4.89093],[6.94524,4.8909],[6.94532,4.89112]]],[[[6.94539,4.89291],[6.94537,4.89303],[6.94528,4.89302],[6.94529,4.8929],[6.94539,4.89291]]],[[[6.94526,4.89796],[6.94516,4.89798],[6.9451,4.8977],[6.94521,4.89768],[6.94526,4.89796]]],[[[6.94515,4.89588],[6.94503,4.89588],[6.94503,4.89579],[6.94515,4.89579],[6.94515,4.89588]]],[[[6.94493,4.89335],[6.94486,4.89336],[6.94485,4.89327],[6.94492,4.89326],[6.94493,4.89335]]],[[[6.94534,4.89253],[6.94533,4.89268],[6.94524,4.89268],[6.94525,4.89252],[6.94534,4.89253]]],[[[6.94535,4.89177],[6.94537,4.89202],[6.94524,4.89203],[6.94523,4.89178],[6.94535,4.89177]]],[[[6.94503,4.89827],[6.9451,4.89854],[6.94507,4.89855],[6.94506,4.89852],[6.94501,4.89854],[6.94495,4.89829],[6.94503,4.89827]]],[[[6.9447,4.89062],[6.94469,4.89073],[6.94449,4.89071],[6.9445,4.8906],[6.9447,4.89062]]],[[[6.94489,4.89464],[6.94492,4.89491],[6.94485,4.89492],[6.94482,4.89465],[6.94489,4.89464]]],[[[6.94498,4.89483],[6.94498,4.89489],[6.94494,4.89489],[6.94494,4.89483],[6.94498,4.89483]]],[[[6.9452,4.89542],[6.94505,4.89545],[6.94503,4.89539],[6.94519,4.89536],[6.9452,4.89542]]],[[[6.94522,4.89837],[6.94526,4.89855],[6.94516,4.89857],[6.94512,4.89839],[6.94522,4.89837]]],[[[6.94501,4.89262],[6.94501,4.89269],[6.94495,4.89268],[6.94496,4.89262],[6.94501,4.89262]]],[[[6.9452,4.89325],[6.94521,4.89331],[6.94516,4.89332],[6.94515,4.89325],[6.9452,4.89325]]],[[[6.94471,4.89046],[6.9447,4.89056],[6.94423,4.8905],[6.94424,4.8904],[6.94471,4.89046]]],[[[6.94528,4.89147],[6.94528,4.89155],[6.94515,4.89155],[6.94515,4.89151],[6.94511,4.8915],[6.94512,4.89147],[6.94528,4.89147]]],[[[6.94486,4.89562],[6.94492,4.89577],[6.94485,4.89579],[6.9448,4.89565],[6.94486,4.89562]]],[[[6.94527,4.89444],[6.94527,4.89453],[6.94522,4.89453],[6.94522,4.89444],[6.94527,4.89444]]],[[[6.94515,4.89828],[6.94515,4.8983],[6.94519,4.89829],[6.9452,4.89836],[6.94511,4.89837],[6.9451,4.89829],[6.94515,4.89828]]],[[[6.94539,4.89765],[6.94544,4.89794],[6.94536,4.89796],[6.94532,4.89766],[6.94539,4.89765]]],[[[6.94506,4.89402],[6.94505,4.89417],[6.94492,4.89417],[6.94493,4.89402],[6.94506,4.89402]]],[[[6.94514,4.89088],[6.94523,4.8911],[6.94517,4.89113],[6.94511,4.89099],[6.94506,4.89101],[6.94503,4.89093],[6.94514,4.89088]]],[[[6.94504,4.8929],[6.94492,4.89291],[6.94491,4.89283],[6.94503,4.89282],[6.94504,4.8929]]],[[[6.94524,4.89339],[6.94525,4.89346],[6.94522,4.89346],[6.94521,4.8934],[6.94524,4.89339]]],[[[6.94547,4.89114],[6.94536,4.89115],[6.94536,4.8911],[6.94541,4.89109],[6.94541,4.89107],[6.94546,4.89106],[6.94547,4.89114]]],[[[6.94491,4.89314],[6.94492,4.89326],[6.94485,4.89327],[6.94484,4.89315],[6.94491,4.89314]]]]}},{"type":"Feature","properties":{"rank":23},"geometry":{"type":"MultiPolygon","coordinates":[[[[7.0313,4.82506],[7.0313,4.82511],[7.03127,4.82511],[7.03127,4.82506],[7.0313,4.82506]]]]}},{"type":"Feature","properties":{"rank":24},"geometry":{"type":"MultiPolygon","coordinates":[[[[6.9447,4.79567],[6.94467,4.79571],[6.94458,4.79565],[6.9446,4.79561],[6.9447,4.79567]]]]}}]}