{"type":"FeatureCollection","features":[{"type":"Feature","properties":{"rank":1},"geometry":{"type":"LineString","coordinates":[[7.07333,4.82917],[7.0725,4.82833],[7.07167,4.8275],[7.07083,4.82667],[7.07,4.82583],[7.06917,4.825]]}},{"type":"Feature","properties":{"rank":2},"geometry":{"type":"LineString","coordinates":[[7.03667,4.82583],[7.0375,4.825],[7.03833,4.825],[7.03917,4.825],[7.04,4.82417],[7.04083,4.82333],[7.04167,4.82417],[7.0425,4.825],[7.04333,4.825],[7.04417,4.82583]]}},{"type":"Feature","properties":{"rank":3},"geometry":{"type":"LineString","coordinates":[[7.05667,4.86083],[7.0575,4.86],[7.0575,4.85917],[7.0575,4.85833],[7.0575,4.8575],[7.05667,4.85667],[7.05667,4.85583],[7.0575,4.855],[7.05833,4.855],[7.05917,4.855],[7.06,4.85417],[7.06083,4.85333],[7.06083,4.8525]]}},{"type":"Feature","properties":{"rank":4},"geometry":{"type":"LineString","coordinates":[[7.045,4.81417],[7.04583,4.815],[7.04667,4.815]]}},{"type":"Feature","properties":{"rank":5},"geometry":{"type":"LineString","coordinates":[[6.99917,4.8225],[7.0,4.8225],[6.99917,4.82167],[6.99833,4.82083],[6.9975,4.82],[6.99667,4.81917],[6.99583,4.81917],[6.995,4.81917],[6.99417,4.82]]}},{"type":"Feature","properties":{"rank":6},"geometry":{"type":"LineString","coordinates":[[7.0675,4.855],[7.0675,4.85583],[7.06667,4.85583],[7.06583,4.85667],[7.065,4.8575],[7.06417,4.85833],[7.06333,4.8575]]}},{"type":"Feature","properties":{"rank":7},"geometry":{"type":"LineString","coordinates":[[6.9775,4.82333],[6.97667,4.82333],[6.97667,4.8225],[6.97667,4.82167],[6.97667,4.82083],[6.9775,4.82],[6.97833,4.81917],[6.97917,4.82],[6.97917,4.81917],[6.98,4.82],[6.98083,4.82083],[6.98167,4.82083],[6.9825,4.82083],[6.98333,4.82083],[6.98417,4.82],[6.985,4.81917],[6.98583,4.82],[6.98667,4.81917],[6.9875,4.81833]]}},{"type":"Feature","properties":{"rank":8},"geometry":{"type":"LineString","coordinates":[[6.89917,4.885],[6.89833,4.88417],[6.89833,4.88333]]}},{"type":"Feature","properties":{"rank":9},"geometry":{"type":"LineString","coordinates":[[6.94083,4.79667],[6.94,4.79583],[6.93917,4.795],[6.93917,4.79417],[6.94,4.79333]]}},{"type":"Feature","properties":{"rank":10},"geometry":{"type":"LineString","coordinates":[[7.055,4.8675],[7.05583,4.8675],[7.05667,4.8675],[7.0575,4.86667]]}},{"type":"Feature","properties":{"rank":11},"geometry":{"type":"LineString","coordinates":[[6.96167,4.91833],[6.9625,4.91917],[6.96333,4.92]]}},{"type":"Feature","properties":{"rank":12},"geometry":{"type":"LineString","coordinates":[[7.05833,4.81417],[7.0575,4.81333],[7.05667,4.8125],[7.05667,4.81167]]}},{"type":"Feature","properties":{"rank":13},"geometry":{"type":"LineString","coordinates":[[7.03583,4.81833],[7.03667,4.81917],[7.0375,4.82],[7.03833,4.82083],[7.03917,4.82083],[7.04,4.82167]]}},{"type":"Feature","properties":{"rank":14},"geometry":{"type":"LineString","coordinates":[[7.04417,4.8175],[7.045,4.81833],[7.04583,4.81917],[7.04667,4.81833],[7.0475,4.8175]]}},{"type":"Feature","properties":{"rank":15},"geometry":{"type":"LineString","coordinates":[[7.04,4.81833],[7.04083,4.81917],[7.04083,4.82]]}},{"type":"Feature","properties":{"rank":16},"geometry":{"type":"LineString","coordinates":[[7.03917,4.82167],[7.04,4.82167]]}},{"type":"Feature","properties":{"rank":17},"geometry":{"type":"LineString","coordinates":[[6.9825,4.81417],[6.98333,4.81417],[6.98417,4.81417],[6.985,4.81417],[6.98583,4.81417],[6.98667,4.81417],[6.98583,4.815],[6.98667,4.81583],[6.98667,4.81667]]}},{"type":"Feature","properties":{"rank":18},"geometry":{"type":"LineString","coordinates":[[7.06333,4.8325],[7.0625,4.83167]]}},{"type":"Feature","properties":{"rank":19},"geometry":{"type":"LineString","coordinates":[[6.98833,4.83833],[6.98917,4.83917],[6.99,4.83917],[6.99083,4.83917],[6.99083,4.83833]]}},{"type":"Feature","properties":{"rank":20},"geometry":{"type":"LineString","coordinates":[[7.06833,4.8275],[7.0675,4.82667]]}},{"type":"Feature","properties":{"rank":21},"geometry":{"type":"LineString","coordinates":[[6.99083,4.86833],[6.99167,4.86917],[6.9925,4.87],[6.99333,4.87083],[6.99417,4.87167],[6.995,4.8725]]}},{"type":"Feature","properties":{"rank":22},"geometry":{"type":"LineString","coordinates":[[6.94417,4.89],[6.945,4.89],[6.94583,4.89083],[6.94667,4.89083],[6.9475,4.89083],[6.94833,4.89167],[6.94917,4.89083],[6.95,4.89083]]}},{"type":"Feature","properties":{"rank":23},"geometry":{"type":"LineString","coordinates":[[7.03083,4.825],[7.03167,4.825],[7.0325,4.82417],[7.03333,4.825],[7.03417,4.825],[7.035,4.82417],[7.03583,4.82333],[7.03667,4.8225],[7.03667,4.82167],[7.0375,4.82083],[7.03833,4.82167],[7.03917,4.82083],[7.04,4.82167]]}},{"type":"Feature","properties":{"rank":24},"geometry":{"type":"LineString","coordinates":[[6.94417,4.795],[6.94333,4.795],[6.9425,4.79417],[6.94167,4.79333],[6.94083,4.7925]]}}]}