{"type":"FeatureCollection","features":[{"type":"Feature","properties":{"rank":10},"geometry":{"geodesic":false,"type":"Polygon","coordinates":[[[6.89924,4.88558],[6.89924,4.8854],[6.89933,4.8854],[6.89933,4.88531],[6.89924,4.88531],[6.89924,4.88486],[6.89915,4.88486],[6.89915,4.88477],[6.89924,4.88477],[6.89924,4.8845],[6.89933,4.8845],[6.89933,4.88423],[6.89942,4.88423],[6.89942,4.88414],[6.89951,4.88414],[6.89951,4.88405],[6.8996,4.88405],[6.8996,4.88396],[6.89969,4.88396],[6.89969,4.88423],[6.89978,4.88423],[6.89978,4.88459],[6.89969,4.88459],[6.89969,4.88468],[6.89978,4.88468],[6.89978,4.88477],[6.89969,4.88477],[6.89969,4.88531],[6.8996,4.88531],[6.8996,4.88558],[6.89924,4.88558]],[[6.89933,4.88486],[6.89924,4.88486],[6.89924,4.88477],[6.89933,4.88477],[6.89933,4.88486]]]}},{"type":"Feature","properties":{"rank":11},"geometry":{"geodesic":false,"type":"Polygon","coordinates":[[[6.93967,4.797],[6.93967,4.79691],[6.93958,4.79691],[6.93958,4.79682],[6.93949,4.79682],[6.93949,4.79673],[6.94002,4.79673],[6.94002,4.7962],[6.94056,4.7962],[6.94056,4.79593],[6.94083,4.79593],[6.94083,4.79566],[6.94092,4.79566],[6.94092,4.79575],[6.94119,4.79575],[6.94119,4.79566],[6.94146,4.79566],[6.94146,4.79575],[6.94137,4.79575],[6.94137,4.79584],[6.94128,4.79584],[6.94128,4.79611],[6.94101,4.79611],[6.94101,4.7962],[6.94083,4.7962],[6.94083,4.79637],[6.9411,4.79637],[6.9411,4.79628],[6.94119,4.79628],[6.94119,4.79646],[6.94092,4.79646],[6.94092,4.79655],[6.94083,4.79655],[6.94083,4.79646],[6.94074,4.79646],[6.94074,4.79655],[6.94065,4.79655],[6.94065,4.79646],[6.94056,4.79646],[6.94056,4.79655],[6.94038,4.79655],[6.94038,4.79664],[6.94047,4.79664],[6.94047,4.79673],[6.94038,4.79673],[6.94038,4.79664],[6.9402,4.79664],[6.9402,4.79673],[6.94002,4.79673],[6.94002,4.79682],[6.93984,4.79682],[6.93984,4.79691],[6.93976,4.79691],[6.93976,4.797],[6.93967,4.797]],[[6.94119,4.79602],[6.9411,4.79602],[6.9411,4.79593],[6.94119,4.79593],[6.94119,4.79602]],[[6.94101,4.79611],[6.94092,4.79611],[6.94092,4.79602],[6.94101,4.79602],[6.94101,4.79611]]]}},{"type":"Feature","properties":{"rank":29},"geometry":{"geodesic":false,"type":"Polygon","coordinates":[[[6.94371,4.8907],[6.94371,4.89061],[6.94362,4.89061],[6.94362,4.89052],[6.94353,4.89052],[6.94353,4.89043],[6.94344,4.89043],[6.94344,4.89007],[6.94353,4.89007],[6.94353,4.88998],[6.94362,4.88998],[6.94362,4.8898],[6.9438,4.8898],[6.9438,4.88971],[6.94416,4.88971],[6.94416,4.8898],[6.94398,4.8898],[6.94398,4.88989],[6.94389,4.88989],[6.94389,4.8898],[6.9438,4.8898],[6.9438,4.88998],[6.94389,4.88998],[6.94389,4.89007],[6.94407,4.89007],[6.94407,4.89043],[6.94398,4.89043],[6.94398,4.89061],[6.94389,4.89061],[6.94389,4.8907],[6.94371,4.8907]],[[6.94389,4.89016],[6.9438,4.89016],[6.9438,4.89007],[6.94389,4.89007],[6.94389,4.89016]]]}},{"type":"Feature","properties":{"rank":32},"geometry":{"geodesic":false,"type":"Polygon","coordinates":[[[6.94452,4.79548],[6.94452,4.79539],[6.94425,4.79539],[6.94425,4.79548],[6.94416,4.79548],[6.94416,4.79539],[6.94371,4.79539],[6.94371,4.7953],[6.94344,4.7953],[6.94344,4.79521],[6.9438,4.79521],[6.9438,4.79512],[6.94398,4.79512],[6.94398,4.79494],[6.94389,4.79494],[6.94389,4.79485],[6.94398,4.79485],[6.94398,4.79476],[6.94407,4.79476],[6.94407,4.79467],[6.94452,4.79467],[6.94452,4.79485],[6.94461,4.79485],[6.94461,4.79494],[6.9447,4.79494],[6.9447,4.79512],[6.94479,4.79512],[6.94479,4.7953],[6.94461,4.7953],[6.94461,4.79539],[6.9447,4.79539],[6.9447,4.79548],[6.94452,4.79548]],[[6.94443,4.79494],[6.94434,4.79494],[6.94434,4.79485],[6.94443,4.79485],[6.94443,4.79494]],[[6.94461,4.79503],[6.94443,4.79503],[6.94443,4.79494],[6.94461,4.79494],[6.94461,4.79503]],[[6.94452,4.7953],[6.94434,4.7953],[6.94434,4.79521],[6.94452,4.79521],[6.94452,4.7953]]]}},{"type":"Feature","properties":{"rank":13},"geometry":{"geodesic":false,"type":"Polygon","coordinates":[[[6.96113,4.91935],[6.96113,4.91891],[6.96105,4.91891],[6.96105,4.91882],[6.96113,4.91882],[6.96113,4.91864],[6.96122,4.91864],[6.96122,4.91855],[6.96131,4.91855],[6.96131,4.91828],[6.9614,4.91828],[6.9614,4.91819],[6.96149,4.91819],[6.96149,4.91774],[6.96158,4.91774],[6.96158,4.91756],[6.96167,4.91756],[6.96167,4.91765],[6.96176,4.91765],[6.96176,4.9181],[6.96167,4.9181],[6.96167,4.91819],[6.96158,4.91819],[6.96158,4.91828],[6.96149,4.91828],[6.96149,4.91873],[6.9614,4.91873],[6.9614,4.91926],[6.96131,4.91926],[6.96131,4.91935],[6.96113,4.91935]]]}},{"type":"Feature","properties":{"rank":8},"geometry":{"geodesic":false,"type":"Polygon","coordinates":[[[6.9773,4.82377],[6.9773,4.82359],[6.97695,4.82359],[6.97695,4.8235],[6.97686,4.8235],[6.97686,4.82341],[6.97695,4.82341],[6.97695,4.82314],[6.97712,4.82314],[6.97712,4.82305],[6.97721,4.82305],[6.97721,4.82288],[6.9773,4.82288],[6.9773,4.82279],[6.97739,4.82279],[6.97739,4.82288],[6.97775,4.82288],[6.97775,4.8227],[6.97784,4.8227],[6.97784,4.82296],[6.97775,4.82296],[6.97775,4.82305],[6.97784,4.82305],[6.97784,4.82314],[6.97775,4.82314],[6.97775,4.82323],[6.97766,4.82323],[6.97766,4.82341],[6.97757,4.82341],[6.97757,4.82359],[6.97748,4.82359],[6.97748,4.82368],[6.97739,4.82368],[6.97739,4.82377],[6.9773,4.82377]],[[6.97704,4.8235],[6.97695,4.8235],[6.97695,4.82341],[6.97704,4.82341],[6.97704,4.8235]]]}},{"type":"Feature","properties":{"rank":22},"geometry":{"geodesic":false,"type":"Polygon","coordinates":[[[6.98207,4.81497],[6.98207,4.81488],[6.98198,4.81488],[6.98198,4.8147],[6.98189,4.8147],[6.98189,4.81461],[6.98198,4.81461],[6.98198,4.81452],[6.98216,4.81452],[6.98216,4.81434],[6.98207,4.81434],[6.98207,4.81425],[6.98198,4.81425],[6.98198,4.81398],[6.98207,4.81398],[6.98207,4.81389],[6.98216,4.81389],[6.98216,4.8138],[6.98225,4.8138],[6.98225,4.81371],[6.98251,4.81371],[6.98251,4.8138],[6.9826,4.8138],[6.9826,4.81371],[6.98269,4.81371],[6.98269,4.81398],[6.9826,4.81398],[6.9826,4.81443],[6.98251,4.81443],[6.98251,4.81452],[6.98243,4.81452],[6.98243,4.81461],[6.98234,4.81461],[6.98234,4.81497],[6.98207,4.81497]],[[6.98251,4.81398],[6.98234,4.81398],[6.98234,4.81389],[6.98251,4.81389],[6.98251,4.81398]],[[6.98234,4.81452],[6.98225,4.81452],[6.98225,4.81443],[6.98234,4.81443],[6.98234,4.81452]],[[6.98225,4.81479],[6.98216,4.81479],[6.98216,4.8147],[6.98225,4.8147],[6.98225,4.81479]]]}},{"type":"Feature","properties":{"rank":24},"geometry":{"geodesic":false,"type":"Polygon","coordinates":[[[6.98817,4.8403],[6.98817,4.84003],[6.98808,4.84003],[6.98808,4.83994],[6.98817,4.83994],[6.98817,4.83985],[6.98808,4.83985],[6.98808,4.83976],[6.98799,4.83976],[6.98799,4.83967],[6.9879,4.83967],[6.9879,4.83931],[6.98781,4.83931],[6.98781,4.83904],[6.9879,4.83904],[6.9879,4.83895],[6.98799,4.83895],[6.98799,4.83887],[6.98808,4.83887],[6.98808,4.8386],[6.98817,4.8386],[6.98817,4.83842],[6.98826,4.83842],[6.98826,4.83833],[6.98817,4.83833],[6.98817,4.83824],[6.98826,4.83824],[6.98826,4.83761],[6.98835,4.83761],[6.98835,4.83752],[6.98844,4.83752],[6.98844,4.83734],[6.98853,4.83734],[6.98853,4.83725],[6.98862,4.83725],[6.98862,4.83716],[6.9888,4.83716],[6.9888,4.83707],[6.98898,4.83707],[6.98898,4.83698],[6.98907,4.83698],[6.98907,4.83689],[6.98916,4.83689],[6.98916,4.8368],[6.98943,4.8368],[6.98943,4.83689],[6.98934,4.83689],[6.98934,4.83698],[6.98925,4.83698],[6.98925,4.83707],[6.98916,4.83707],[6.98916,4.83716],[6.98907,4.83716],[6.98907,4.83725],[6.98898,4.83725],[6.98898,4.83734],[6.98889,4.83734],[6.98889,4.83725],[6.9888,4.83725],[6.9888,4.83734],[6.98853,4.83734],[6.98853,4.83743],[6.98862,4.83743],[6.98862,4.83752],[6.9888,4.83752],[6.9888,4.83761],[6.98853,4.83761],[6.98853,4.83779],[6.98871,4.83779],[6.98871,4.83788],[6.98853,4.83788],[6.98853,4.83779],[6.98844,4.83779],[6.98844,4.83788],[6.98835,4.83788],[6.98835,4.83797],[6.98844,4.83797],[6.98844,4.83806],[6.98853,4.83806],[6.98853,4.83842],[6.98844,4.83842],[6.98844,4.83922],[6.98853,4.83922],[6.98853,4.8394],[6.98862,4.8394],[6.98862,4.83949],[6.98853,4.83949],[6.98853,4.83967],[6.98835,4.83967],[6.98835,4.8403],[6.98817,4.8403]],[[6.98835,4.83967],[6.98826,4.83967],[6.98826,4.8394],[6.98835,4.8394],[6.98835,4.83931],[6.98844,4.83931],[6.98844,4.83958],[6.98835,4.83958],[6.98835,4.83967]]]}},{"type":"Feature","properties":{"rank":28},"geometry":{"geodesic":false,"type":"Polygon","coordinates":[[[6.99078,4.86869],[6.99078,4.86851],[6.9906,4.86851],[6.9906,4.86833],[6.99051,4.86833],[6.99051,4.86815],[6.9906,4.86815],[6.9906,4.86779],[6.99078,4.86779],[6.99078,4.8677],[6.99096,4.8677],[6.99096,4.86779],[6.99105,4.86779],[6.99105,4.86788],[6.99114,4.86788],[6.99114,4.86779],[6.99141,4.86779],[6.99141,4.8677],[6.9915,4.8677],[6.9915,4.86761],[6.99159,4.86761],[6.99159,4.8677],[6.9915,4.8677],[6.9915,4.86806],[6.99114,4.86806],[6.99114,4.86797],[6.99096,4.86797],[6.99096,4.86806],[6.99105,4.86806],[6.99105,4.86815],[6.99096,4.86815],[6.99096,4.86833],[6.99087,4.86833],[6.99087,4.86869],[6.99078,4.86869]],[[6.99087,4.86833],[6.99078,4.86833],[6.99078,4.86824],[6.99087,4.86824],[6.99087,4.86833]]]}},{"type":"Feature","properties":{"rank":5},"geometry":{"geodesic":false,"type":"Polygon","coordinates":[[[6.99868,4.82314],[6.99868,4.82305],[6.99877,4.82305],[6.99877,4.82288],[6.99886,4.82288],[6.99886,4.82279],[6.99895,4.82279],[6.99895,4.82261],[6.99904,4.82261],[6.99904,4.82234],[6.99913,4.82234],[6.99913,4.82225],[6.99931,4.82225],[6.99931,4.82216],[6.9994,4.82216],[6.9994,4.82207],[6.99958,4.82207],[6.99958,4.82198],[6.99994,4.82198],[6.99994,4.82207],[6.99985,4.82207],[6.99985,4.82216],[6.99976,4.82216],[6.99976,4.82234],[6.99967,4.82234],[6.99967,4.82243],[6.99958,4.82243],[6.99958,4.82261],[6.99949,4.82261],[6.99949,4.82279],[6.9994,4.82279],[6.9994,4.82288],[6.99922,4.82288],[6.99922,4.82296],[6.99904,4.82296],[6.99904,4.82305],[6.99886,4.82305],[6.99886,4.82314],[6.99868,4.82314]]]}},{"type":"Feature","properties":{"rank":26},"geometry":{"geodesic":false,"type":"Polygon","coordinates":[[[7.01342,4.83958],[7.01342,4.83949],[7.01324,4.83949],[7.01324,4.8394],[7.01315,4.8394],[7.01315,4.83931],[7.01306,4.83931],[7.01306,4.83878],[7.01324,4.83878],[7.01324,4.83887],[7.01333,4.83887],[7.01333,4.83895],[7.01342,4.83895],[7.01342,4.83878],[7.01351,4.83878],[7.01351,4.83887],[7.0136,4.83887],[7.0136,4.83878],[7.01369,4.83878],[7.01369,4.83895],[7.01378,4.83895],[7.01378,4.83869],[7.01369,4.83869],[7.01369,4.8386],[7.0136,4.8386],[7.0136,4.83833],[7.01369,4.83833],[7.01369,4.83842],[7.01378,4.83842],[7.01378,4.83851],[7.01396,4.83851],[7.01396,4.83869],[7.01414,4.83869],[7.01414,4.83878],[7.01423,4.83878],[7.01423,4.83887],[7.01432,4.83887],[7.01432,4.83913],[7.01423,4.83913],[7.01423,4.83904],[7.01405,4.83904],[7.01405,4.83895],[7.01378,4.83895],[7.01378,4.83904],[7.01369,4.83904],[7.01369,4.83913],[7.0136,4.83913],[7.0136,4.83922],[7.01351,4.83922],[7.01351,4.83949],[7.0136,4.83949],[7.0136,4.83958],[7.01342,4.83958]]]}},{"type":"Feature","properties":{"rank":31},"geometry":{"geodesic":false,"type":"Polygon","coordinates":[[[7.01512,4.84309],[7.01512,4.84273],[7.01503,4.84273],[7.01503,4.84282],[7.01494,4.84282],[7.01494,4.84273],[7.01485,4.84273],[7.01485,4.84264],[7.01494,4.84264],[7.01494,4.84255],[7.01512,4.84255],[7.01512,4.84264],[7.01521,4.84264],[7.01521,4.84246],[7.0153,4.84246],[7.0153,4.84237],[7.01539,4.84237],[7.01539,4.84228],[7.01548,4.84228],[7.01548,4.84219],[7.01566,4.84219],[7.01566,4.84237],[7.01575,4.84237],[7.01575,4.84219],[7.01602,4.84219],[7.01602,4.84228],[7.01611,4.84228],[7.01611,4.84237],[7.01602,4.84237],[7.01602,4.84246],[7.01593,4.84246],[7.01593,4.84264],[7.01584,4.84264],[7.01584,4.84273],[7.01575,4.84273],[7.01575,4.84264],[7.01566,4.84264],[7.01566,4.84255],[7.01557,4.84255],[7.01557,4.84264],[7.01548,4.84264],[7.01548,4.84255],[7.0153,4.84255],[7.0153,4.84282],[7.01548,4.84282],[7.01548,4.843],[7.0153,4.843],[7.0153,4.84309],[7.01512,4.84309]]]}},{"type":"Feature","properties":{"rank":9},"geometry":{"geodesic":false,"type":"Polygon","coordinates":[[[7.01755,4.8447],[7.01755,4.84434],[7.01764,4.84434],[7.01764,4.84426],[7.01755,4.84426],[7.01755,4.84408],[7.01764,4.84408],[7.01764,4.84372],[7.01746,4.84372],[7.01746,4.84354],[7.01728,4.84354],[7.01728,4.84336],[7.01719,4.84336],[7.01719,4.84345],[7.0171,4.84345],[7.0171,4.84327],[7.01701,4.84327],[7.01701,4.84309],[7.01692,4.84309],[7.01692,4.84282],[7.01683,4.84282],[7.01683,4.84273],[7.01674,4.84273],[7.01674,4.84264],[7.01665,4.84264],[7.01665,4.84255],[7.01656,4.84255],[7.01656,4.84246],[7.01647,4.84246],[7.01647,4.84219],[7.01638,4.84219],[7.01638,4.84201],[7.01629,4.84201],[7.01629,4.84183],[7.0162,4.84183],[7.0162,4.84174],[7.01611,4.84174],[7.01611,4.84165],[7.01602,4.84165],[7.01602,4.84156],[7.01593,4.84156],[7.01593,4.84093],[7.01611,4.84093],[7.01611,4.84084],[7.01629,4.84084],[7.01629,4.84075],[7.01656,4.84075],[7.01656,4.84102],[7.01665,4.84102],[7.01665,4.84129],[7.01656,4.84129],[7.01656,4.84147],[7.01665,4.84147],[7.01665,4.84156],[7.01656,4.84156],[7.01656,4.84165],[7.01665,4.84165],[7.01665,4.84183],[7.01674,4.84183],[7.01674,4.84174],[7.01683,4.84174],[7.01683,4.84192],[7.01701,4.84192],[7.01701,4.84201],[7.01692,4.84201],[7.01692,4.84219],[7.01728,4.84219],[7.01728,4.84228],[7.01737,4.84228],[7.01737,4.84246],[7.01728,4.84246],[7.01728,4.84255],[7.01737,4.84255],[7.01737,4.84282],[7.01746,4.84282],[7.01746,4.84291],[7.01755,4.84291],[7.01755,4.843],[7.01773,4.843],[7.01773,4.84327],[7.01791,4.84327],[7.01791,4.84354],[7.018,4.84354],[7.018,4.84363],[7.01809,4.84363],[7.01809,4.84372],[7.018,4.84372],[7.018,4.84408],[7.01791,4.84408],[7.01791,4.84434],[7.01782,4.84434],[7.01782,4.84461],[7.01764,4.84461],[7.01764,4.8447],[7.01755,4.8447]],[[7.01611,4.84129],[7.01602,4.84129],[7.01602,4.8412],[7.01611,4.8412],[7.01611,4.84129]]]}},{"type":"Feature","properties":{"rank":17},"geometry":{"geodesic":false,"type":"Polygon","coordinates":[[[7.01845,4.8456],[7.01845,4.84551],[7.01809,4.84551],[7.01809,4.84542],[7.018,4.84542],[7.018,4.84533],[7.01791,4.84533],[7.01791,4.84479],[7.018,4.84479],[7.018,4.84461],[7.01809,4.84461],[7.01809,4.84452],[7.01827,4.84452],[7.01827,4.84461],[7.01854,4.84461],[7.01854,4.84533],[7.01863,4.84533],[7.01863,4.84551],[7.01854,4.84551],[7.01854,4.8456],[7.01845,4.8456]]]}},{"type":"Feature","properties":{"rank":27},"geometry":{"geodesic":false,"type":"Polygon","coordinates":[[[7.02069,4.84363],[7.02069,4.84345],[7.02078,4.84345],[7.02078,4.84336],[7.02087,4.84336],[7.02087,4.84327],[7.02096,4.84327],[7.02096,4.84318],[7.02069,4.84318],[7.02069,4.843],[7.02078,4.843],[7.02078,4.84291],[7.02087,4.84291],[7.02087,4.84237],[7.02078,4.84237],[7.02078,4.84228],[7.02087,4.84228],[7.02087,4.84237],[7.02096,4.84237],[7.02096,4.84228],[7.02123,4.84228],[7.02123,4.84246],[7.02114,4.84246],[7.02114,4.84273],[7.02123,4.84273],[7.02123,4.84282],[7.02132,4.84282],[7.02132,4.84273],[7.02141,4.84273],[7.02141,4.84282],[7.0215,4.84282],[7.0215,4.84291],[7.02141,4.84291],[7.02141,4.84318],[7.02132,4.84318],[7.02132,4.84327],[7.02123,4.84327],[7.02123,4.84336],[7.02105,4.84336],[7.02105,4.84345],[7.02096,4.84345],[7.02096,4.84336],[7.02087,4.84336],[7.02087,4.84354],[7.02078,4.84354],[7.02078,4.84363],[7.02069,4.84363]],[[7.02096,4.84309],[7.02087,4.84309],[7.02087,4.84291],[7.02096,4.84291],[7.02096,4.84309]]]}},{"type":"Feature","properties":{"rank":18},"geometry":{"geodesic":false,"type":"Polygon","coordinates":[[[7.02105,4.83824],[7.02105,4.83815],[7.02096,4.83815],[7.02096,4.83824],[7.02087,4.83824],[7.02087,4.83815],[7.02096,4.83815],[7.02096,4.83806],[7.02105,4.83806],[7.02105,4.83797],[7.02114,4.83797],[7.02114,4.83788],[7.02123,4.83788],[7.02123,4.8377],[7.02114,4.8377],[7.02114,4.83743],[7.02132,4.83743],[7.02132,4.83734],[7.02141,4.83734],[7.02141,4.83725],[7.02123,4.83725],[7.02123,4.83707],[7.02114,4.83707],[7.02114,4.83689],[7.02105,4.83689],[7.02105,4.83662],[7.02123,4.83662],[7.02123,4.83671],[7.02132,4.83671],[7.02132,4.8368],[7.02141,4.8368],[7.02141,4.83725],[7.0215,4.83725],[7.0215,4.83734],[7.02159,4.83734],[7.02159,4.83743],[7.02168,4.83743],[7.02168,4.83752],[7.02159,4.83752],[7.02159,4.83761],[7.0215,4.83761],[7.0215,4.8377],[7.02141,4.8377],[7.02141,4.83779],[7.0215,4.83779],[7.0215,4.83788],[7.02159,4.83788],[7.02159,4.83797],[7.02141,4.83797],[7.02141,4.83815],[7.02132,4.83815],[7.02132,4.83824],[7.02105,4.83824]],[[7.02141,4.83788],[7.02132,4.83788],[7.02132,4.83779],[7.02141,4.83779],[7.02141,4.83788]]]}},{"type":"Feature","properties":{"rank":7},"geometry":{"geodesic":false,"type":"Polygon","coordinates":[[[7.02141,4.84938],[7.02141,4.84929],[7.02114,4.84929],[7.02114,4.84911],[7.02123,4.84911],[7.02123,4.84857],[7.02132,4.84857],[7.02132,4.84848],[7.02141,4.84848],[7.02141,4.8483],[7.0215,4.8483],[7.0215,4.84812],[7.02159,4.84812],[7.02159,4.84821],[7.02186,4.84821],[7.02186,4.84848],[7.02177,4.84848],[7.02177,4.84866],[7.02186,4.84866],[7.02186,4.84902],[7.02177,4.84902],[7.02177,4.84911],[7.02168,4.84911],[7.02168,4.84929],[7.0215,4.84929],[7.0215,4.84938],[7.02141,4.84938]]]}},{"type":"Feature","properties":{"rank":14},"geometry":{"geodesic":false,"type":"Polygon","coordinates":[[[7.02222,4.84461],[7.02222,4.84452],[7.02204,4.84452],[7.02204,4.84443],[7.02213,4.84443],[7.02213,4.84417],[7.02222,4.84417],[7.02222,4.84399],[7.0224,4.84399],[7.0224,4.84372],[7.02249,4.84372],[7.02249,4.84363],[7.02276,4.84363],[7.02276,4.84417],[7.02267,4.84417],[7.02267,4.84426],[7.02258,4.84426],[7.02258,4.84443],[7.02249,4.84443],[7.02249,4.84461],[7.02222,4.84461]]]}},{"type":"Feature","properties":{"rank":30},"geometry":{"geodesic":false,"type":"Polygon","coordinates":[[[7.03066,4.82548],[7.03066,4.82539],[7.03057,4.82539],[7.03057,4.82548],[7.03048,4.82548],[7.03048,4.82539],[7.0304,4.82539],[7.0304,4.8253],[7.03048,4.8253],[7.03048,4.82512],[7.0304,4.82512],[7.0304,4.82431],[7.03048,4.82431],[7.03048,4.82404],[7.0304,4.82404],[7.0304,4.82395],[7.03057,4.82395],[7.03057,4.82404],[7.03066,4.82404],[7.03066,4.82413],[7.03057,4.82413],[7.03057,4.8244],[7.03066,4.8244],[7.03066,4.82449],[7.03075,4.82449],[7.03075,4.82431],[7.03084,4.82431],[7.03084,4.8244],[7.03093,4.8244],[7.03093,4.82431],[7.03102,4.82431],[7.03102,4.82422],[7.03111,4.82422],[7.03111,4.82431],[7.0312,4.82431],[7.0312,4.82449],[7.03111,4.82449],[7.03111,4.82467],[7.03093,4.82467],[7.03093,4.82458],[7.03066,4.82458],[7.03066,4.82476],[7.03075,4.82476],[7.03075,4.82485],[7.03066,4.82485],[7.03066,4.82512],[7.03075,4.82512],[7.03075,4.82521],[7.03066,4.82521],[7.03066,4.82539],[7.03075,4.82539],[7.03075,4.82548],[7.03066,4.82548]],[[7.03111,4.82449],[7.03102,4.82449],[7.03102,4.82431],[7.03111,4.82431],[7.03111,4.82449]],[[7.03066,4.82458],[7.03057,4.82458],[7.03057,4.82449],[7.03066,4.82449],[7.03066,4.82458]]]}},{"type":"Feature","properties":{"rank":16},"geometry":{"geodesic":false,"type":"Polygon","coordinates":[[[7.03561,4.81883],[7.03561,4.81865],[7.03543,4.81865],[7.03543,4.81829],[7.03561,4.81829],[7.03561,4.81811],[7.0357,4.81811],[7.0357,4.81784],[7.03578,4.81784],[7.03578,4.81811],[7.03587,4.81811],[7.03587,4.81802],[7.03596,4.81802],[7.03596,4.81811],[7.03605,4.81811],[7.03605,4.81802],[7.03623,4.81802],[7.03623,4.81811],[7.03632,4.81811],[7.03632,4.8182],[7.03623,4.8182],[7.03623,4.81811],[7.03605,4.81811],[7.03605,4.8182],[7.03614,4.8182],[7.03614,4.81829],[7.03605,4.81829],[7.03605,4.81847],[7.03596,4.81847],[7.03596,4.81874],[7.03605,4.81874],[7.03605,4.81883],[7.03561,4.81883]],[[7.03578,4.8182],[7.0357,4.8182],[7.0357,4.81811],[7.03578,4.81811],[7.03578,4.8182]]]}},{"type":"Feature","properties":{"rank":2},"geometry":{"geodesic":false,"type":"Polygon","coordinates":[[[7.03623,4.82782],[7.03623,4.82773],[7.03614,4.82773],[7.03614,4.82764],[7.03623,4.82764],[7.03623,4.82737],[7.03614,4.82737],[7.03614,4.82683],[7.03605,4.82683],[7.03605,4.82629],[7.03614,4.82629],[7.03614,4.82584],[7.03632,4.82584],[7.03632,4.82575],[7.03623,4.82575],[7.03623,4.82557],[7.03632,4.82557],[7.03632,4.82548],[7.03623,4.82548],[7.03623,4.8253],[7.03632,4.8253],[7.03632,4.82494],[7.03623,4.82494],[7.03623,4.82467],[7.03614,4.82467],[7.03614,4.82449],[7.03632,4.82449],[7.03632,4.8244],[7.03641,4.8244],[7.03641,4.82404],[7.0365,4.82404],[7.0365,4.82413],[7.03659,4.82413],[7.03659,4.82422],[7.03668,4.82422],[7.03668,4.82458],[7.03677,4.82458],[7.03677,4.82467],[7.03686,4.82467],[7.03686,4.82449],[7.03695,4.82449],[7.03695,4.8244],[7.03713,4.8244],[7.03713,4.82458],[7.03704,4.82458],[7.03704,4.82467],[7.03713,4.82467],[7.03713,4.82476],[7.03704,4.82476],[7.03704,4.82485],[7.03713,4.82485],[7.03713,4.82494],[7.03722,4.82494],[7.03722,4.82503],[7.03731,4.82503],[7.03731,4.82521],[7.0374,4.82521],[7.0374,4.8253],[7.03749,4.8253],[7.03749,4.82521],[7.03758,4.82521],[7.03758,4.8253],[7.03749,4.8253],[7.03749,4.82539],[7.03767,4.82539],[7.03767,4.82548],[7.03794,4.82548],[7.03794,4.82557],[7.03803,4.82557],[7.03803,4.82566],[7.03785,4.82566],[7.03785,4.82575],[7.03794,4.82575],[7.03794,4.82584],[7.03785,4.82584],[7.03785,4.82611],[7.03803,4.82611],[7.03803,4.82593],[7.03812,4.82593],[7.03812,4.82611],[7.03803,4.82611],[7.03803,4.82629],[7.03812,4.82629],[7.03812,4.82647],[7.03821,4.82647],[7.03821,4.82656],[7.03794,4.82656],[7.03794,4.82647],[7.03803,4.82647],[7.03803,4.82638],[7.03794,4.82638],[7.03794,4.82629],[7.03785,4.82629],[7.03785,4.8262],[7.03767,4.8262],[7.03767,4.82611],[7.03722,4.82611],[7.03722,4.8262],[7.03731,4.8262],[7.03731,4.82629],[7.03704,4.82629],[7.03704,4.82647],[7.03695,4.82647],[7.03695,4.82719],[7.03677,4.82719],[7.03677,4.8271],[7.03668,4.8271],[7.03668,4.82692],[7.03659,4.82692],[7.03659,4.82656],[7.03668,4.82656],[7.03668,4.82638],[7.03677,4.82638],[7.03677,4.82629],[7.03686,4.82629],[7.03686,4.8262],[7.03695,4.8262],[7.03695,4.82611],[7.03713,4.82611],[7.03713,4.82602],[7.03695,4.82602],[7.03695,4.82593],[7.03677,4.82593],[7.03677,4.82584],[7.03659,4.82584],[7.03659,4.82566],[7.03632,4.82566],[7.03632,4.82575],[7.03641,4.82575],[7.03641,4.82584],[7.0365,4.82584],[7.0365,4.82611],[7.03641,4.82611],[7.03641,4.82656],[7.03632,4.82656],[7.03632,4.82728],[7.03641,4.82728],[7.03641,4.82755],[7.03632,4.82755],[7.03632,4.82764],[7.03641,4.82764],[7.03641,4.82782],[7.03623,4.82782]],[[7.03704,4.82494],[7.03695,4.82494],[7.03695,4.82485],[7.03704,4.82485],[7.03704,4.82494]],[[7.0374,4.82602],[7.03731,4.82602],[7.03731,4.82593],[7.0374,4.82593],[7.0374,4.82602]]]}},{"type":"Feature","properties":{"rank":21},"geometry":{"geodesic":false,"type":"Polygon","coordinates":[[[7.03965,4.82261],[7.03965,4.82243],[7.03956,4.82243],[7.03956,4.82225],[7.03938,4.82225],[7.03938,4.82216],[7.03929,4.82216],[7.03929,4.82234],[7.0392,4.82234],[7.0392,4.82225],[7.03911,4.82225],[7.03911,4.82198],[7.0392,4.82198],[7.0392,4.82189],[7.03929,4.82189],[7.03929,4.82171],[7.0392,4.82171],[7.0392,4.82162],[7.03929,4.82162],[7.03929,4.82144],[7.03938,4.82144],[7.03938,4.82135],[7.03947,4.82135],[7.03947,4.82144],[7.03965,4.82144],[7.03965,4.82135],[7.03974,4.82135],[7.03974,4.82162],[7.0401,4.82162],[7.0401,4.82171],[7.04001,4.82171],[7.04001,4.82198],[7.03992,4.82198],[7.03992,4.82207],[7.03983,4.82207],[7.03983,4.82225],[7.03974,4.82225],[7.03974,4.82234],[7.03983,4.82234],[7.03983,4.82243],[7.03974,4.82243],[7.03974,4.82261],[7.03965,4.82261]],[[7.03929,4.82207],[7.0392,4.82207],[7.0392,4.82198],[7.03929,4.82198],[7.03929,4.82207]]]}},{"type":"Feature","properties":{"rank":20},"geometry":{"geodesic":false,"type":"Polygon","coordinates":[[[7.03965,4.81901],[7.03965,4.81883],[7.03956,4.81883],[7.03956,4.81874],[7.03965,4.81874],[7.03965,4.81865],[7.03956,4.81865],[7.03956,4.81856],[7.03965,4.81856],[7.03965,4.81829],[7.03956,4.81829],[7.03956,4.8182],[7.03947,4.8182],[7.03947,4.81811],[7.03938,4.81811],[7.03938,4.81802],[7.03947,4.81802],[7.03947,4.81793],[7.03956,4.81793],[7.03956,4.81775],[7.03965,4.81775],[7.03965,4.81766],[7.03992,4.81766],[7.03992,4.81802],[7.03983,4.81802],[7.03983,4.81838],[7.04001,4.81838],[7.04001,4.81847],[7.03992,4.81847],[7.03992,4.81856],[7.04001,4.81856],[7.04001,4.81865],[7.0401,4.81865],[7.0401,4.81874],[7.04001,4.81874],[7.04001,4.81883],[7.03992,4.81883],[7.03992,4.81892],[7.03983,4.81892],[7.03983,4.81901],[7.03965,4.81901]]]}},{"type":"Feature","properties":{"rank":4},"geometry":{"geodesic":false,"type":"Polygon","coordinates":[[[7.04468,4.81542],[7.04468,4.81515],[7.04459,4.81515],[7.04459,4.81542],[7.0445,4.81542],[7.0445,4.81524],[7.04441,4.81524],[7.04441,4.81515],[7.04432,4.81515],[7.04432,4.81506],[7.04441,4.81506],[7.04441,4.81488],[7.04432,4.81488],[7.04432,4.8147],[7.04423,4.8147],[7.04423,4.81479],[7.04396,4.81479],[7.04396,4.8147],[7.04405,4.8147],[7.04405,4.81461],[7.04378,4.81461],[7.04378,4.81452],[7.04369,4.81452],[7.04369,4.81443],[7.04387,4.81443],[7.04387,4.81425],[7.04378,4.81425],[7.04378,4.81434],[7.0436,4.81434],[7.0436,4.81425],[7.04351,4.81425],[7.04351,4.81398],[7.0436,4.81398],[7.0436,4.8138],[7.04369,4.8138],[7.04369,4.81371],[7.04396,4.81371],[7.04396,4.8138],[7.04414,4.8138],[7.04414,4.81371],[7.04405,4.81371],[7.04405,4.81353],[7.04396,4.81353],[7.04396,4.81344],[7.04405,4.81344],[7.04405,4.81335],[7.04414,4.81335],[7.04414,4.81371],[7.04423,4.81371],[7.04423,4.8138],[7.04414,4.8138],[7.04414,4.81389],[7.04432,4.81389],[7.04432,4.81398],[7.04441,4.81398],[7.04441,4.81425],[7.0445,4.81425],[7.0445,4.81416],[7.04486,4.81416],[7.04486,4.81425],[7.04495,4.81425],[7.04495,4.81407],[7.04486,4.81407],[7.04486,4.81389],[7.04504,4.81389],[7.04504,4.8138],[7.04486,4.8138],[7.04486,4.81371],[7.04504,4.81371],[7.04504,4.8138],[7.04513,4.8138],[7.04513,4.81389],[7.04504,4.81389],[7.04504,4.81398],[7.04513,4.81398],[7.04513,4.81407],[7.04522,4.81407],[7.04522,4.81425],[7.04531,4.81425],[7.04531,4.81407],[7.04549,4.81407],[7.04549,4.81398],[7.04585,4.81398],[7.04585,4.81425],[7.04594,4.81425],[7.04594,4.81416],[7.04603,4.81416],[7.04603,4.81407],[7.04621,4.81407],[7.04621,4.81425],[7.04594,4.81425],[7.04594,4.81497],[7.04585,4.81497],[7.04585,4.81488],[7.04576,4.81488],[7.04576,4.81497],[7.04549,4.81497],[7.04549,4.81506],[7.0454,4.81506],[7.0454,4.81515],[7.04522,4.81515],[7.04522,4.81524],[7.04531,4.81524],[7.04531,4.81533],[7.04522,4.81533],[7.04522,4.81524],[7.04513,4.81524],[7.04513,4.81515],[7.04486,4.81515],[7.04486,4.81524],[7.04495,4.81524],[7.04495,4.81533],[7.04477,4.81533],[7.04477,4.81542],[7.04468,4.81542]],[[7.04396,4.81398],[7.04387,4.81398],[7.04387,4.81389],[7.04396,4.81389],[7.04396,4.81398]],[[7.04432,4.81407],[7.04423,4.81407],[7.04423,4.81398],[7.04432,4.81398],[7.04432,4.81407]],[[7.04396,4.81425],[7.04387,4.81425],[7.04387,4.81416],[7.04396,4.81416],[7.04396,4.81425]],[[7.04432,4.81425],[7.04423,4.81425],[7.04423,4.81416],[7.04432,4.81416],[7.04432,4.81425]],[[7.04414,4.81452],[7.04405,4.81452],[7.04405,4.81443],[7.04414,4.81443],[7.04414,4.81452]],[[7.04432,4.81452],[7.04423,4.81452],[7.04423,4.81434],[7.04432,4.81434],[7.04432,4.81452]],[[7.04423,4.81461],[7.04414,4.81461],[7.04414,4.81452],[7.04423,4.81452],[7.04423,4.81461]],[[7.04459,4.81479],[7.04441,4.81479],[7.04441,4.81461],[7.0445,4.81461],[7.0445,4.8147],[7.04459,4.8147],[7.04459,4.81479]],[[7.04477,4.81506],[7.04468,4.81506],[7.04468,4.81497],[7.04477,4.81497],[7.04477,4.81506]]]}},{"type":"Feature","properties":{"rank":19},"geometry":{"geodesic":false,"type":"Polygon","coordinates":[[[7.04468,4.81829],[7.04468,4.8182],[7.04459,4.8182],[7.04459,4.81829],[7.04441,4.81829],[7.04441,4.8182],[7.04432,4.8182],[7.04432,4.81811],[7.04414,4.81811],[7.04414,4.8182],[7.04387,4.8182],[7.04387,4.81811],[7.04378,4.81811],[7.04378,4.81793],[7.04387,4.81793],[7.04387,4.81784],[7.04396,4.81784],[7.04396,4.81775],[7.04405,4.81775],[7.04405,4.81758],[7.04414,4.81758],[7.04414,4.81749],[7.04423,4.81749],[7.04423,4.8174],[7.04432,4.8174],[7.04432,4.81713],[7.0445,4.81713],[7.0445,4.81722],[7.04459,4.81722],[7.04459,4.81731],[7.04468,4.81731],[7.04468,4.81749],[7.04486,4.81749],[7.04486,4.81731],[7.04477,4.81731],[7.04477,4.81722],[7.04495,4.81722],[7.04495,4.81704],[7.04504,4.81704],[7.04504,4.81713],[7.04513,4.81713],[7.04513,4.81731],[7.04504,4.81731],[7.04504,4.8174],[7.04513,4.8174],[7.04513,4.81758],[7.04522,4.81758],[7.04522,4.81766],[7.04513,4.81766],[7.04513,4.81775],[7.04504,4.81775],[7.04504,4.81784],[7.04495,4.81784],[7.04495,4.81775],[7.04486,4.81775],[7.04486,4.81793],[7.04495,4.81793],[7.04495,4.81811],[7.04486,4.81811],[7.04486,4.8182],[7.04477,4.8182],[7.04477,4.81829],[7.04468,4.81829]]]}},{"type":"Feature","properties":{"rank":12},"geometry":{"geodesic":false,"type":"Polygon","coordinates":[[[7.05411,4.86815],[7.05411,4.86797],[7.0542,4.86797],[7.0542,4.8677],[7.05438,4.8677],[7.05438,4.86752],[7.05447,4.86752],[7.05447,4.86734],[7.05456,4.86734],[7.05456,4.86716],[7.05447,4.86716],[7.05447,4.86707],[7.05465,4.86707],[7.05465,4.86689],[7.05474,4.86689],[7.05474,4.86698],[7.05492,4.86698],[7.05492,4.86716],[7.0551,4.86716],[7.0551,4.86734],[7.05519,4.86734],[7.05519,4.86761],[7.05501,4.86761],[7.05501,4.86752],[7.05492,4.86752],[7.05492,4.86761],[7.05465,4.86761],[7.05465,4.8677],[7.05456,4.8677],[7.05456,4.86779],[7.05447,4.86779],[7.05447,4.86797],[7.05438,4.86797],[7.05438,4.86815],[7.05411,4.86815]]]}},{"type":"Feature","properties":{"rank":3},"geometry":{"geodesic":false,"type":"Polygon","coordinates":[[[7.05654,4.86204],[7.05654,4.86186],[7.05645,4.86186],[7.05645,4.86177],[7.05663,4.86177],[7.05663,4.86114],[7.05672,4.86114],[7.05672,4.86096],[7.05681,4.86096],[7.05681,4.86051],[7.0569,4.86051],[7.0569,4.86042],[7.05708,4.86042],[7.05708,4.86051],[7.05716,4.86051],[7.05716,4.86096],[7.05708,4.86096],[7.05708,4.86114],[7.05699,4.86114],[7.05699,4.86141],[7.0569,4.86141],[7.0569,4.86177],[7.05681,4.86177],[7.05681,4.86186],[7.05663,4.86186],[7.05663,4.86204],[7.05654,4.86204]]]}},{"type":"Feature","properties":{"rank":15},"geometry":{"geodesic":false,"type":"Polygon","coordinates":[[[7.05833,4.81497],[7.05833,4.81488],[7.05824,4.81488],[7.05824,4.81461],[7.05815,4.81461],[7.05815,4.8147],[7.05806,4.8147],[7.05806,4.81425],[7.05779,4.81425],[7.05779,4.81344],[7.05752,4.81344],[7.05752,4.81263],[7.05797,4.81263],[7.05797,4.81272],[7.05788,4.81272],[7.05788,4.81281],[7.05779,4.81281],[7.05779,4.81299],[7.0577,4.81299],[7.0577,4.81317],[7.05779,4.81317],[7.05779,4.81335],[7.05788,4.81335],[7.05788,4.81344],[7.05824,4.81344],[7.05824,4.81353],[7.05815,4.81353],[7.05815,4.8138],[7.05824,4.8138],[7.05824,4.81425],[7.05833,4.81425],[7.05833,4.81434],[7.05842,4.81434],[7.05842,4.81443],[7.05851,4.81443],[7.05851,4.81497],[7.05833,4.81497]]]}},{"type":"Feature","properties":{"rank":23},"geometry":{"geodesic":false,"type":"Polygon","coordinates":[[[7.06004,4.83725],[7.06004,4.83698],[7.06013,4.83698],[7.06013,4.83689],[7.06022,4.83689],[7.06022,4.83608],[7.06031,4.83608],[7.06031,4.8359],[7.06049,4.8359],[7.06049,4.83581],[7.06076,4.83581],[7.06076,4.83554],[7.06103,4.83554],[7.06103,4.83536],[7.06121,4.83536],[7.06121,4.83527],[7.06139,4.83527],[7.06139,4.83518],[7.06148,4.83518],[7.06148,4.835],[7.06184,4.835],[7.06184,4.83473],[7.06211,4.83473],[7.06211,4.83446],[7.06238,4.83446],[7.06238,4.8341],[7.06255,4.8341],[7.06255,4.83401],[7.06264,4.83401],[7.06264,4.83383],[7.06273,4.83383],[7.06273,4.83365],[7.06318,4.83365],[7.06318,4.83321],[7.06327,4.83321],[7.06327,4.83312],[7.06318,4.83312],[7.06318,4.83294],[7.06336,4.83294],[7.06336,4.83267],[7.06345,4.83267],[7.06345,4.83249],[7.06354,4.83249],[7.06354,4.83231],[7.06372,4.83231],[7.06372,4.83204],[7.06399,4.83204],[7.06399,4.83177],[7.06381,4.83177],[7.06381,4.83159],[7.0639,4.83159],[7.0639,4.8315],[7.06399,4.8315],[7.06399,4.83132],[7.06408,4.83132],[7.06408,4.83123],[7.06426,4.83123],[7.06426,4.83096],[7.06435,4.83096],[7.06435,4.83078],[7.06444,4.83078],[7.06444,4.83069],[7.06453,4.83069],[7.06453,4.83042],[7.0648,4.83042],[7.0648,4.82988],[7.06489,4.82988],[7.06489,4.82979],[7.06498,4.82979],[7.06498,4.8297],[7.06507,4.8297],[7.06507,4.82961],[7.06534,4.82961],[7.06534,4.82934],[7.06561,4.82934],[7.06561,4.82907],[7.06588,4.82907],[7.06588,4.82835],[7.06597,4.82835],[7.06597,4.82826],[7.06606,4.82826],[7.06606,4.82835],[7.06615,4.82835],[7.06615,4.82844],[7.06624,4.82844],[7.06624,4.82871],[7.06633,4.82871],[7.06633,4.8288],[7.06624,4.8288],[7.06624,4.82889],[7.06633,4.82889],[7.06633,4.82898],[7.06624,4.82898],[7.06624,4.82907],[7.06615,4.82907],[7.06615,4.82925],[7.06606,4.82925],[7.06606,4.82934],[7.06597,4.82934],[7.06597,4.82943],[7.06588,4.82943],[7.06588,4.82952],[7.06579,4.82952],[7.06579,4.82961],[7.06561,4.82961],[7.06561,4.8297],[7.06552,4.8297],[7.06552,4.82979],[7.06543,4.82979],[7.06543,4.82988],[7.06534,4.82988],[7.06534,4.82997],[7.06525,4.82997],[7.06525,4.83006],[7.06516,4.83006],[7.06516,4.83024],[7.06507,4.83024],[7.06507,4.83042],[7.06498,4.83042],[7.06498,4.83069],[7.06489,4.83069],[7.06489,4.83096],[7.0648,4.83096],[7.0648,4.83105],[7.06471,4.83105],[7.06471,4.83123],[7.06453,4.83123],[7.06453,4.83132],[7.06444,4.83132],[7.06444,4.8315],[7.06435,4.8315],[7.06435,4.83159],[7.06426,4.83159],[7.06426,4.83177],[7.06417,4.83177],[7.06417,4.83204],[7.06408,4.83204],[7.06408,4.83231],[7.06399,4.83231],[7.06399,4.83258],[7.0639,4.83258],[7.0639,4.83294],[7.06381,4.83294],[7.06381,4.83303],[7.0639,4.83303],[7.0639,4.83339],[7.06381,4.83339],[7.06381,4.83348],[7.06372,4.83348],[7.06372,4.83357],[7.06336,4.83357],[7.06336,4.83383],[7.06327,4.83383],[7.06327,4.83392],[7.06309,4.83392],[7.06309,4.8341],[7.063,4.8341],[7.063,4.83419],[7.06291,4.83419],[7.06291,4.83428],[7.06282,4.83428],[7.06282,4.83437],[7.06273,4.83437],[7.06273,4.83446],[7.06255,4.83446],[7.06255,4.83455],[7.06246,4.83455],[7.06246,4.83482],[7.06238,4.83482],[7.06238,4.83491],[7.06229,4.83491],[7.06229,4.835],[7.06211,4.835],[7.06211,4.83509],[7.06202,4.83509],[7.06202,4.83518],[7.06193,4.83518],[7.06193,4.83527],[7.06175,4.83527],[7.06175,4.83536],[7.06157,4.83536],[7.06157,4.83545],[7.06148,4.83545],[7.06148,4.83554],[7.06139,4.83554],[7.06139,4.83581],[7.0613,4.83581],[7.0613,4.8359],[7.06139,4.8359],[7.06139,4.83599],[7.0613,4.83599],[7.0613,4.83608],[7.06121,4.83608],[7.06121,4.83599],[7.0613,4.83599],[7.0613,4.8359],[7.06121,4.8359],[7.06121,4.83581],[7.06103,4.83581],[7.06103,4.8359],[7.06112,4.8359],[7.06112,4.83599],[7.06085,4.83599],[7.06085,4.83617],[7.06076,4.83617],[7.06076,4.83626],[7.06067,4.83626],[7.06067,4.83644],[7.06058,4.83644],[7.06058,4.83662],[7.06049,4.83662],[7.06049,4.83671],[7.0604,4.83671],[7.0604,4.83689],[7.06031,4.83689],[7.06031,4.83707],[7.06022,4.83707],[7.06022,4.83716],[7.06031,4.83716],[7.06031,4.83725],[7.06004,4.83725]],[[7.06354,4.83303],[7.06336,4.83303],[7.06336,4.83294],[7.06354,4.83294],[7.06354,4.83303]],[[7.06381,4.8333],[7.06372,4.8333],[7.06372,4.83321],[7.06381,4.83321],[7.06381,4.8333]]]}},{"type":"Feature","properties":{"rank":6},"geometry":{"geodesic":false,"type":"Polygon","coordinates":[[[7.06705,4.8553],[7.06705,4.85512],[7.06669,4.85512],[7.06669,4.85494],[7.0666,4.85494],[7.0666,4.85503],[7.06633,4.85503],[7.06633,4.85486],[7.06606,4.85486],[7.06606,4.85468],[7.06615,4.85468],[7.06615,4.85459],[7.06624,4.85459],[7.06624,4.85468],[7.06651,4.85468],[7.06651,4.85477],[7.0666,4.85477],[7.0666,4.85468],[7.06678,4.85468],[7.06678,4.85459],[7.06687,4.85459],[7.06687,4.8545],[7.06678,4.8545],[7.06678,4.85414],[7.06669,4.85414],[7.06669,4.85405],[7.06678,4.85405],[7.06678,4.85396],[7.06687,4.85396],[7.06687,4.85405],[7.06705,4.85405],[7.06705,4.85414],[7.06714,4.85414],[7.06714,4.85423],[7.06723,4.85423],[7.06723,4.85414],[7.0675,4.85414],[7.0675,4.85405],[7.06759,4.85405],[7.06759,4.85396],[7.06776,4.85396],[7.06776,4.85405],[7.06785,4.85405],[7.06785,4.85414],[7.06821,4.85414],[7.06821,4.85423],[7.06812,4.85423],[7.06812,4.85432],[7.06803,4.85432],[7.06803,4.85441],[7.06794,4.85441],[7.06794,4.8545],[7.06785,4.8545],[7.06785,4.85459],[7.06776,4.85459],[7.06776,4.85468],[7.06759,4.85468],[7.06759,4.85486],[7.06768,4.85486],[7.06768,4.85494],[7.06759,4.85494],[7.06759,4.85503],[7.06741,4.85503],[7.06741,4.85521],[7.06723,4.85521],[7.06723,4.8553],[7.06705,4.8553]],[[7.06669,4.85486],[7.0666,4.85486],[7.0666,4.85477],[7.06669,4.85477],[7.06669,4.85486]],[[7.06687,4.85494],[7.06669,4.85494],[7.06669,4.85486],[7.06678,4.85486],[7.06678,4.85477],[7.06687,4.85477],[7.06687,4.85494]]]}},{"type":"Feature","properties":{"rank":25},"geometry":{"geodesic":false,"type":"Polygon","coordinates":[[[7.0675,4.82782],[7.0675,4.82773],[7.06741,4.82773],[7.06741,4.82782],[7.06723,4.82782],[7.06723,4.82755],[7.06732,4.82755],[7.06732,4.82746],[7.0675,4.82746],[7.0675,4.82755],[7.06759,4.82755],[7.06759,4.82746],[7.06776,4.82746],[7.06776,4.82719],[7.06803,4.82719],[7.06803,4.82692],[7.06812,4.82692],[7.06812,4.82701],[7.06821,4.82701],[7.06821,4.82692],[7.06857,4.82692],[7.06857,4.82665],[7.06884,4.82665],[7.06884,4.82674],[7.06875,4.82674],[7.06875,4.82683],[7.06866,4.82683],[7.06866,4.82692],[7.06857,4.82692],[7.06857,4.82701],[7.06848,4.82701],[7.06848,4.8271],[7.0683,4.8271],[7.0683,4.82719],[7.06821,4.82719],[7.06821,4.82728],[7.06812,4.82728],[7.06812,4.82746],[7.06803,4.82746],[7.06803,4.82755],[7.06794,4.82755],[7.06794,4.82764],[7.06759,4.82764],[7.06759,4.82782],[7.0675,4.82782]],[[7.0675,4.82764],[7.06741,4.82764],[7.06741,4.82755],[7.0675,4.82755],[7.0675,4.82764]]]}},{"type":"Feature","properties":{"rank":1},"geometry":{"geodesic":false,"type":"Polygon","coordinates":[[[7.07342,4.83033],[7.07342,4.83024],[7.07333,4.83024],[7.07333,4.83006],[7.07324,4.83006],[7.07324,4.82997],[7.07315,4.82997],[7.07315,4.82988],[7.07307,4.82988],[7.07307,4.82952],[7.07298,4.82952],[7.07298,4.82943],[7.07315,4.82943],[7.07315,4.82925],[7.07324,4.82925],[7.07324,4.82916],[7.07307,4.82916],[7.07307,4.82898],[7.07315,4.82898],[7.07315,4.82889],[7.07324,4.82889],[7.07324,4.82871],[7.07333,4.82871],[7.07333,4.82853],[7.07342,4.82853],[7.07342,4.82844],[7.07378,4.82844],[7.07378,4.82835],[7.07396,4.82835],[7.07396,4.82844],[7.07378,4.82844],[7.07378,4.82853],[7.07369,4.82853],[7.07369,4.82862],[7.0736,4.82862],[7.0736,4.82871],[7.07351,4.82871],[7.07351,4.8288],[7.07342,4.8288],[7.07342,4.82898],[7.07351,4.82898],[7.07351,4.82907],[7.07333,4.82907],[7.07333,4.82916],[7.07342,4.82916],[7.07342,4.82925],[7.07324,4.82925],[7.07324,4.82943],[7.07333,4.82943],[7.07333,4.82961],[7.07342,4.82961],[7.07342,4.8297],[7.07333,4.8297],[7.07333,4.82979],[7.07342,4.82979],[7.07342,4.82997],[7.0736,4.82997],[7.0736,4.83015],[7.07369,4.83015],[7.07369,4.83024],[7.0736,4.83024],[7.0736,4.83033],[7.07342,4.83033]]]}}]}